{
  "type": "FeatureCollection",
  "name": "Гидросфера — острова, полуострова, СООХ",
  "description": "Тема: элементы гидросферы и смежные формы рельефа океанического дна. Содержит крупнейшие острова (материковые, вулканические, коралловые), крупные полуострова (в т.ч. России), а также объекты Срединно-океанических хребтов (СООХ) — ключевых зон спрединга.",
  "features": [
    {
      "type": "Feature",
      "properties": {
        "name": "Гренландия",
        "name_en": "Greenland",
        "group": "Острова",
        "subgroup": "Материковые",
        "description": "Крупнейший остров Земли, покрытый мощным ледниковым щитом. Тектонически связан с Северо-Американской плитой."
      },
      "geometry": null
    },
    {
      "type": "Feature",
      "properties": {
        "name": "Мадагаскар",
        "name_en": "Madagascar",
        "group": "Острова",
        "subgroup": "Материковые",
        "description": "Четвёртый по площади остров мира у восточного побережья Африки. Известен высокой эндемичностью флоры и фауны."
      },
      "geometry": null
    },
{
      "type": "Feature",
      "properties": {
        "name": "Остров Сахалин",
        "description": "Представляет собой самый большой российский остров, ранее известный под названием 'остров Карафуто'.",
        "name_en": "Sakhalin"
      },
      "geometry": {
        "type": "Polygon",
        "coordinates": [
          [
            [
              142.12975758380588,
              51.359801958385454
            ],
            [
              142.09072265625014,
              51.42939453125001
            ],
            [
              142.08760432890173,
              51.432746373895235
            ],
            [
              142.00797420206626,
              51.51833958626561
            ],
            [
              142.0059570312501,
              51.52050781250006
            ],
            [
              141.9356603078851,
              51.578391641614495
            ],
            [
              141.89367537694446,
              51.61296293386845
            ],
            [
              141.87294921875014,
              51.63002929687502
            ],
            [
              141.84044216269407,
              51.649376491590495
            ],
            [
              141.771875,
              51.690185546875
            ],
            [
              141.7639342629704,
              51.69758593789375
            ],
            [
              141.72236328125018,
              51.736328125
            ],
            [
              141.72587481939243,
              51.73742591355137
            ],
            [
              141.771875,
              51.751806640625
            ],
            [
              141.80810546875,
              51.789208984375
            ],
            [
              141.72099609375005,
              51.84677734375
            ],
            [
              141.71862153696875,
              51.85069006603003
            ],
            [
              141.6754527714314,
              51.92182224195716
            ],
            [
              141.66845703125,
              51.933349609375
            ],
            [
              141.6673599079262,
              51.98226302422821
            ],
            [
              141.6643136917637,
              52.11807349480733
            ],
            [
              141.66217393562496,
              52.213470955994154
            ],
            [
              141.66184412045726,
              52.22817521555351
            ],
            [
              141.66083984375,
              52.27294921875
            ],
            [
              141.66544845165322,
              52.29135237021852
            ],
            [
              141.68242187500005,
              52.35913085937506
            ],
            [
              141.72934877793602,
              52.42807893265433
            ],
            [
              141.74755859375,
              52.454833984375
            ],
            [
              141.80332031250003,
              52.555615234375
            ],
            [
              141.81264320492858,
              52.59806489036779
            ],
            [
              141.8158858772693,
              52.61282965639022
            ],
            [
              141.84360602981945,
              52.73904702388949
            ],
            [
              141.8478463997082,
              52.75835457725218
            ],
            [
              141.85556640625003,
              52.793505859374996
            ],
            [
              141.87363281250003,
              53.038916015625
            ],
            [
              141.8388671875,
              53.138476562499996
            ],
            [
              141.83712368652368,
              53.161336414474135
            ],
            [
              141.83540483696476,
              53.18387305025168
            ],
            [
              141.83260917306737,
              53.220528299504856
            ],
            [
              141.82353515625005,
              53.33950195312508
            ],
            [
              141.85244140625002,
              53.38945312499999
            ],
            [
              141.96445312499998,
              53.45639648437492
            ],
            [
              141.97878104965702,
              53.459560764765364
            ],
            [
              142.03069645339872,
              53.471026130333236
            ],
            [
              142.14199218750002,
              53.495605468750114
            ],
            [
              142.17988281250018,
              53.48403320312508
            ],
            [
              142.25441399618495,
              53.44192622470201
            ],
            [
              142.31894531250003,
              53.40546875
            ],
            [
              142.37050781250002,
              53.4025390625
            ],
            [
              142.4240234375,
              53.4107421875
            ],
            [
              142.52617187500005,
              53.4474609375
            ],
            [
              142.58349609375,
              53.536767578125
            ],
            [
              142.54203103257123,
              53.5651283722691
            ],
            [
              142.50917968750014,
              53.58759765625001
            ],
            [
              142.55253906250005,
              53.65263671874993
            ],
            [
              142.6617410750546,
              53.67131269706937
            ],
            [
              142.67958984375002,
              53.674365234374996
            ],
            [
              142.68886718750002,
              53.73017578125
            ],
            [
              142.68097432668128,
              53.73130692372415
            ],
            [
              142.64287109375016,
              53.73676757812501
            ],
            [
              142.68300781250014,
              53.816015625000034
            ],
            [
              142.68808028199317,
              53.83362896587801
            ],
            [
              142.70595703125002,
              53.895703125
            ],
            [
              142.67021484375005,
              53.968408203125
            ],
            [
              142.53091341361687,
              54.09164153064581
            ],
            [
              142.51309171943922,
              54.09252468532986
            ],
            [
              142.48626881312106,
              54.098760443793395
            ],
            [
              142.48014902381522,
              54.103045111762185
            ],
            [
              142.4737688179436,
              54.10501044379345
            ],
            [
              142.46764902863788,
              54.10929511176212
            ],
            [
              142.45664642871617,
              54.11569769965274
            ],
            [
              142.45150320153363,
              54.121467556423596
            ],
            [
              142.44460216252935,
              54.12584377712676
            ],
            [
              142.43848237322385,
              54.13012844509552
            ],
            [
              142.42946544961927,
              54.13585150824656
            ],
            [
              142.42389904551675,
              54.146129828559026
            ],
            [
              142.43428315609384,
              54.165402696397564
            ],
            [
              142.44303601952222,
              54.17219684944046
            ],
            [
              142.33868714139356,
              54.27697148337739
            ],
            [
              142.3349609375001,
              54.28071289062501
            ],
            [
              142.35412488257282,
              54.280557437262544
            ],
            [
              142.48076830452513,
              54.27953013595785
            ],
            [
              142.5208579728211,
              54.27920493810777
            ],
            [
              142.55166015625002,
              54.278955078125
            ],
            [
              142.615625,
              54.30361328125
            ],
            [
              142.62506314973476,
              54.31379846600229
            ],
            [
              142.64770239003556,
              54.33822961528445
            ],
            [
              142.66561088774296,
              54.35755558095716
            ],
            [
              142.66556561894777,
              54.35761461046005
            ],
            [
              142.66841187619016,
              54.36300149501198
            ],
            [
              142.67172519407848,
              54.37022501526114
            ],
            [
              142.67201092896119,
              54.37760769314235
            ],
            [
              142.66869061774207,
              54.38119045681421
            ],
            [
              142.6618546828795,
              54.38754218207464
            ],
            [
              142.65719973675874,
              54.39631700303818
            ],
            [
              142.65941327757145,
              54.41299791124135
            ],
            [
              142.67419191770307,
              54.41651150173607
            ],
            [
              142.68219972711353,
              54.42169542100709
            ],
            [
              142.6912817548598,
              54.42794542100694
            ],
            [
              142.72549398124397,
              54.42485297309025
            ],
            [
              142.72803304276448,
              54.417610134548625
            ],
            [
              142.73005127115232,
              54.41127875434023
            ],
            [
              142.73662678944896,
              54.402715521918424
            ],
            [
              142.7365919695231,
              54.401883228647364
            ],
            [
              142.7578657612398,
              54.394974572396
            ],
            [
              142.76103515625005,
              54.3939453125
            ],
            [
              142.87384397266447,
              54.26129381957137
            ],
            [
              142.97301924058522,
              54.1446739686641
            ],
            [
              142.97640534277502,
              54.14203030056427
            ],
            [
              142.98001862263095,
              54.13417711046009
            ],
            [
              142.99007721250035,
              54.121201036241416
            ],
            [
              142.9925186178085,
              54.10292711046003
            ],
            [
              142.9948298148334,
              54.09214830186636
            ],
            [
              142.9945693982673,
              54.08767645941836
            ],
            [
              142.98592882782836,
              54.08566718559252
            ],
            [
              142.96708984375016,
              54.02880859375
            ],
            [
              142.9595245209618,
              54.01514543849731
            ],
            [
              142.92656250000005,
              53.955615234374996
            ],
            [
              142.91142578125005,
              53.878369140625
            ],
            [
              142.91239084804917,
              53.87576609912229
            ],
            [
              142.9333242342116,
              53.81930319621143
            ],
            [
              142.93642578125002,
              53.8109375
            ],
            [
              142.91796875,
              53.794238281249996
            ],
            [
              142.9734234266535,
              53.69879401103642
            ],
            [
              142.98099636498503,
              53.68576005941964
            ],
            [
              142.99163623442573,
              53.66744754485421
            ],
            [
              143.00910446999598,
              53.63738257835298
            ],
            [
              143.02080711925868,
              53.6172408899355
            ],
            [
              143.03877839738047,
              53.58631012577541
            ],
            [
              143.06332411378241,
              53.54406395051598
            ],
            [
              143.09550781250016,
              53.488671875000136
            ],
            [
              143.10785402676564,
              53.47011020759258
            ],
            [
              143.15677826147328,
              53.39655605137236
            ],
            [
              143.2236328125,
              53.296044921875136
            ],
            [
              143.25012783921417,
              53.23860341906612
            ],
            [
              143.2599609375,
              53.21728515625
            ],
            [
              143.26761439954535,
              53.19456561332553
            ],
            [
              143.28789062500016,
              53.134375
            ],
            [
              143.29085381490208,
              53.1205887000319
            ],
            [
              143.30310180891445,
              53.06360466422869
            ],
            [
              143.31734407023566,
              52.997342260097284
            ],
            [
              143.32470703125,
              52.9630859375
            ],
            [
              143.32523888281466,
              52.94540023145796
            ],
            [
              143.32713261064495,
              52.88242793626172
            ],
            [
              143.32910679566118,
              52.81678019130811
            ],
            [
              143.3297425557165,
              52.795639207246225
            ],
            [
              143.33261718749998,
              52.700048828125034
            ],
            [
              143.32363281250014,
              52.61357421874999
            ],
            [
              143.29511718750018,
              52.529150390625034
            ],
            [
              143.2642578125001,
              52.47866210937508
            ],
            [
              143.2572831050294,
              52.47472269126663
            ],
            [
              143.20097656250005,
              52.442919921874996
            ],
            [
              143.17226562500002,
              52.349365234375
            ],
            [
              143.17093736437474,
              52.328237346066416
            ],
            [
              143.17029854425334,
              52.31807599676705
            ],
            [
              143.16545520423054,
              52.241035734415185
            ],
            [
              143.15556640625005,
              52.083740234375
            ],
            [
              143.190625,
              51.944482421875
            ],
            [
              143.2285366458173,
              51.88341626924764
            ],
            [
              143.25058593749998,
              51.847900390625
            ],
            [
              143.29472656250005,
              51.74433593750001
            ],
            [
              143.29602271980653,
              51.71400850174808
            ],
            [
              143.29951171875,
              51.632373046874996
            ],
            [
              143.3205078125,
              51.583251953125
            ],
            [
              143.3347086997827,
              51.574105498113255
            ],
            [
              143.41777343750005,
              51.52060546875009
            ],
            [
              143.45546875000014,
              51.471484375000045
            ],
            [
              143.4673828125001,
              51.401904296875045
            ],
            [
              143.47031733754469,
              51.34777003223721
            ],
            [
              143.47294921875005,
              51.29921875
            ],
            [
              143.48876953125,
              51.27705078125
            ],
            [
              143.51774208835545,
              51.257424210307605
            ],
            [
              143.5341796875,
              51.24628906250001
            ],
            [
              143.54559710073028,
              51.204458355972264
            ],
            [
              143.64068392157807,
              50.85608269352427
            ],
            [
              143.65039596816433,
              50.85107774522568
            ],
            [
              143.6549207060021,
              50.8324518500434
            ],
            [
              143.66064987045831,
              50.81832017686632
            ],
            [
              143.67181523073396,
              50.805038926866274
            ],
            [
              143.6715548141679,
              50.79256944444445
            ],
            [
              143.67188033487554,
              50.77694444444447
            ],
            [
              143.67165247038025,
              50.765486111111116
            ],
            [
              143.6719128869463,
              50.75226386176219
            ],
            [
              143.67594934372238,
              50.74050645616322
            ],
            [
              143.6790092383754,
              50.724820421006925
            ],
            [
              143.68219934131133,
              50.71550645616318
            ],
            [
              143.68421756969923,
              50.709215766058975
            ],
            [
              143.69053267142948,
              50.69258978949655
            ],
            [
              143.69255089981755,
              50.68629909939236
            ],
            [
              143.6948946489132,
              50.68177435980898
            ],
            [
              143.69456912820556,
              50.66562649197046
            ],
            [
              143.69678266901826,
              50.661339789496495
            ],
            [
              143.70088422993587,
              50.64972683376736
            ],
            [
              143.69812361284434,
              50.64563722571618
            ],
            [
              143.73603515625,
              50.506738281249994
            ],
            [
              143.81601562500003,
              50.282617187499994
            ],
            [
              143.85093445299933,
              50.22437258239737
            ],
            [
              144.04077592108743,
              49.90771701362634
            ],
            [
              144.04794921875003,
              49.895751953125
            ],
            [
              144.0524146103754,
              49.88454643585609
            ],
            [
              144.13014334644208,
              49.68949283980585
            ],
            [
              144.14130859375,
              49.661474609375
            ],
            [
              144.17868897586484,
              49.589844530414645
            ],
            [
              144.19960937500002,
              49.54975585937501
            ],
            [
              144.22268563353626,
              49.48239888681957
            ],
            [
              144.23994140625,
              49.43203125
            ],
            [
              144.27207031250003,
              49.311328125
            ],
            [
              144.34121093750002,
              49.180517578125
            ],
            [
              144.43173828125003,
              49.051074218749996
            ],
            [
              144.60683593750002,
              48.935839843749996
            ],
            [
              144.6511842156931,
              48.89944234247871
            ],
            [
              144.6855468750001,
              48.87124023437502
            ],
            [
              144.69345074239575,
              48.85186478166202
            ],
            [
              144.70664062500003,
              48.81953125
            ],
            [
              144.70743349685205,
              48.799595410486866
            ],
            [
              144.70765898996464,
              48.793925648731225
            ],
            [
              144.71212225861765,
              48.68170195540836
            ],
            [
              144.71307640676423,
              48.65771101125768
            ],
            [
              144.71371000210536,
              48.64177999415311
            ],
            [
              144.71376953125002,
              48.640283203124994
            ],
            [
              144.71186877575576,
              48.642053027718255
            ],
            [
              144.68000672747908,
              48.67172030307337
            ],
            [
              144.67265625000005,
              48.678564453125
            ],
            [
              144.66436839090744,
              48.70042779407757
            ],
            [
              144.66200787309998,
              48.70665483112917
            ],
            [
              144.62099609375002,
              48.81484375
            ],
            [
              144.536328125,
              48.8935546875
            ],
            [
              144.41181640625,
              48.986376953124996
            ],
            [
              144.28378906250003,
              49.069775390625
            ],
            [
              144.12548828125,
              49.208544921874996
            ],
            [
              144.04873046875002,
              49.249169921874994
            ],
            [
              143.9733563241768,
              49.27444617301068
            ],
            [
              143.9677734375001,
              49.276318359375125
            ],
            [
              143.81914062500016,
              49.308593750000114
            ],
            [
              143.73232421875002,
              49.312011718750114
            ],
            [
              143.6968971605264,
              49.30985249637302
            ],
            [
              143.38222656250002,
              49.290673828124994
            ],
            [
              143.236328125,
              49.262841796874994
            ],
            [
              143.10498046875,
              49.198828125
            ],
            [
              143.02685546875,
              49.105419921875
            ],
            [
              142.9864053911782,
              48.96785386160217
            ],
            [
              142.9716796875,
              48.917773437500045
            ],
            [
              142.87897796659658,
              48.72384505059184
            ],
            [
              142.65097656250003,
              48.246875
            ],
            [
              142.57421875,
              48.072167968749994
            ],
            [
              142.5458984375,
              47.884912109374994
            ],
            [
              142.55693359375005,
              47.737890625
            ],
            [
              142.57900390625002,
              47.683984375
            ],
            [
              142.66888529813647,
              47.53890251414166
            ],
            [
              142.67011718750018,
              47.53691406249993
            ],
            [
              142.68019123526662,
              47.525605257906086
            ],
            [
              142.74541015625005,
              47.452392578125
            ],
            [
              142.7792833857956,
              47.4302286131137
            ],
            [
              142.80078125,
              47.41616210937502
            ],
            [
              142.86396484375007,
              47.39179687500007
            ],
            [
              142.90546875000018,
              47.36186523437499
            ],
            [
              142.9340726550362,
              47.329775979565525
            ],
            [
              142.93962150279975,
              47.330602484809006
            ],
            [
              142.94671785422855,
              47.31961208767362
            ],
            [
              142.96247305648336,
              47.30145616319439
            ],
            [
              142.96969961619544,
              47.296776801215245
            ],
            [
              142.98005117470177,
              47.28836208767365
            ],
            [
              142.98890533795236,
              47.282641059027796
            ],
            [
              142.995643616603,
              47.27219590928817
            ],
            [
              143.00251210353622,
              47.26895697699646
            ],
            [
              143.00713449758632,
              47.257112087673576
            ],
            [
              143.00928293425739,
              47.25302680121521
            ],
            [
              143.01130116264557,
              47.248778754340236
            ],
            [
              143.01755116023418,
              47.23697862413189
            ],
            [
              143.01966704483448,
              47.22152045355898
            ],
            [
              143.0275446459621,
              47.21420437282984
            ],
            [
              143.0324274565782,
              47.2066360134549
            ],
            [
              143.03174386309195,
              47.18944444444439
            ],
            [
              143.03252511279055,
              47.169713812934006
            ],
            [
              143.0421930778105,
              47.1571283637153
            ],
            [
              143.04557849317126,
              47.125398220486076
            ],
            [
              143.04364007280532,
              47.12174544306476
            ],
            [
              143.08925781250002,
              47.00078125
            ],
            [
              143.1611164794546,
              46.873762350812775
            ],
            [
              143.1732515030223,
              46.85231222655486
            ],
            [
              143.1779296875,
              46.844042968749996
            ],
            [
              143.18405151716354,
              46.83646964876093
            ],
            [
              143.21767578125002,
              46.794873046875125
            ],
            [
              143.29149325586425,
              46.804010993442354
            ],
            [
              143.31865234375005,
              46.807373046875
            ],
            [
              143.384375,
              46.8056640625
            ],
            [
              143.41321420779062,
              46.799394669502085
            ],
            [
              143.4472656250001,
              46.79199218750006
            ],
            [
              143.48564453125005,
              46.75205078125009
            ],
            [
              143.49033613392695,
              46.736870095445525
            ],
            [
              143.4988009745668,
              46.732112087673556
            ],
            [
              143.5030327437675,
              46.730110134548596
            ],
            [
              143.5096733662055,
              46.72554877387152
            ],
            [
              143.5133843022739,
              46.70827582465276
            ],
            [
              143.50325476481186,
              46.695069096939356
            ],
            [
              143.53242095286456,
              46.60069564559747
            ],
            [
              143.54033203125005,
              46.575097656249994
            ],
            [
              143.56115267275703,
              46.48339147190234
            ],
            [
              143.57643647788478,
              46.41607272717908
            ],
            [
              143.57871093750003,
              46.406054687499996
            ],
            [
              143.579407666457,
              46.389873157473716
            ],
            [
              143.5806640625001,
              46.36069335937498
            ],
            [
              143.50859375000016,
              46.23017578125001
            ],
            [
              143.5049288426614,
              46.21884245366453
            ],
            [
              143.490625,
              46.174609375
            ],
            [
              143.48232421875002,
              46.1158203125
            ],
            [
              143.47752198003093,
              46.104013772229344
            ],
            [
              143.47240630975207,
              46.091436645041284
            ],
            [
              143.46881405234444,
              46.08260490338375
            ],
            [
              143.46347656250003,
              46.069482421874994
            ],
            [
              143.4455373020639,
              46.046480548064274
            ],
            [
              143.4316406250001,
              46.02866210937498
            ],
            [
              143.43035310672093,
              46.04782967473413
            ],
            [
              143.42793511649023,
              46.03429307725693
            ],
            [
              143.426958554367,
              46.033194444444376
            ],
            [
              143.40579970836347,
              46.03452094184021
            ],
            [
              143.4022840847199,
              46.04433946397563
            ],
            [
              143.39889866935943,
              46.06970974392361
            ],
            [
              143.39473200430024,
              46.089212510850714
            ],
            [
              143.39668512854655,
              46.1030430772569
            ],
            [
              143.40700413498223,
              46.11779324001735
            ],
            [
              143.40814345745935,
              46.137108832465245
            ],
            [
              143.4030978864892,
              46.15597276475694
            ],
            [
              143.4208062129906,
              46.16144558376736
            ],
            [
              143.41569553787895,
              46.170873480902785
            ],
            [
              143.42107970779776,
              46.1858847865218
            ],
            [
              143.41987133620088,
              46.20387407796365
            ],
            [
              143.41973199465502,
              46.20512641059025
            ],
            [
              143.4157606420206,
              46.21614935980898
            ],
            [
              143.4151421526759,
              46.22659857855898
            ],
            [
              143.41602200305627,
              46.22944754724268
            ],
            [
              143.39729643576848,
              46.282314174080675
            ],
            [
              143.3808549947689,
              46.328732181751406
            ],
            [
              143.37429502880278,
              46.34725248970629
            ],
            [
              143.37031250000018,
              46.358496093750034
            ],
            [
              143.3521484375001,
              46.47622070312502
            ],
            [
              143.33469869752295,
              46.496904136174834
            ],
            [
              143.30999328106546,
              46.526187829108736
            ],
            [
              143.3051160407083,
              46.53196889372787
            ],
            [
              143.28232421875003,
              46.558984375
            ],
            [
              143.2779592021875,
              46.55961067579378
            ],
            [
              143.23735364283525,
              46.56543683789158
            ],
            [
              143.07114095030332,
              46.58928534791955
            ],
            [
              143.0478515625,
              46.59262695312498
            ],
            [
              142.99625842376142,
              46.59561234698855
            ],
            [
              142.87963750419124,
              46.602360519054876
            ],
            [
              142.82929687500007,
              46.605273437500045
            ],
            [
              142.79550781249998,
              46.62021484375009
            ],
            [
              142.74736328125016,
              46.67065429687506
            ],
            [
              142.74320767379336,
              46.673664917418144
            ],
            [
              142.69189453125,
              46.710839843749994
            ],
            [
              142.6357421875,
              46.716210937499994
            ],
            [
              142.57802734375002,
              46.70078125
            ],
            [
              142.47880859375005,
              46.64423828125
            ],
            [
              142.4064453125,
              46.5546875
            ],
            [
              142.40480356087724,
              46.55189538608095
            ],
            [
              142.35,
              46.45869140625001
            ],
            [
              142.30855850606196,
              46.36758170991692
            ],
            [
              142.30400390625005,
              46.357568359374994
            ],
            [
              142.25214366276265,
              46.21151568797739
            ],
            [
              142.2094230145405,
              46.09120262392091
            ],
            [
              142.20859375000003,
              46.0888671875
            ],
            [
              142.20593543450406,
              46.08482240397181
            ],
            [
              142.15884063748487,
              46.01316489772782
            ],
            [
              142.14970703125005,
              45.999267578125
            ],
            [
              142.1122411879712,
              45.95680965074846
            ],
            [
              142.0771484375,
              45.91704101562499
            ],
            [
              142.0156250000001,
              45.96162109375001
            ],
            [
              142.0100361995525,
              45.96698755493931
            ],
            [
              141.97997536010527,
              45.99585248395649
            ],
            [
              141.96162109375,
              46.013476562499996
            ],
            [
              141.9346212796173,
              46.07730945640655
            ],
            [
              141.92998046875005,
              46.08828125
            ],
            [
              141.91630859375005,
              46.170751953125
            ],
            [
              141.8467816167877,
              46.397544211500865
            ],
            [
              141.83037109375016,
              46.45107421875008
            ],
            [
              141.86242773901773,
              46.6667634576524
            ],
            [
              141.86650390625005,
              46.694189453125
            ],
            [
              142.01103515625005,
              47.030322265624996
            ],
            [
              142.03867187500003,
              47.140283203124994
            ],
            [
              142.01689453125005,
              47.244677734374996
            ],
            [
              142.0158020501019,
              47.248118234707654
            ],
            [
              141.99038235074005,
              47.32817131777211
            ],
            [
              141.98660128434753,
              47.34007885521718
            ],
            [
              141.98417968750005,
              47.347705078124996
            ],
            [
              141.9793100196057,
              47.39175144358397
            ],
            [
              141.97045551375498,
              47.47184084785547
            ],
            [
              141.9632872440552,
              47.47815294053821
            ],
            [
              141.95928333935,
              47.49904324001737
            ],
            [
              141.96497995173547,
              47.51010687934027
            ],
            [
              141.95954375591623,
              47.536596137152756
            ],
            [
              141.95615834055565,
              47.57812852647565
            ],
            [
              141.96530552879256,
              47.59017971424345
            ],
            [
              141.9653618367061,
              47.59030331437948
            ],
            [
              141.9655610165927,
              47.59074052931991
            ],
            [
              141.96540312865574,
              47.59779812282983
            ],
            [
              141.96972886016124,
              47.59988926169855
            ],
            [
              141.9956773259411,
              47.65684810987814
            ],
            [
              142.00273091834285,
              47.672331279563046
            ],
            [
              142.0156250000001,
              47.70063476562507
            ],
            [
              142.0552892189758,
              47.77142705289061
            ],
            [
              142.06782574613032,
              47.793802116727875
            ],
            [
              142.07597656250016,
              47.808349609375
            ],
            [
              142.14921875000016,
              47.9021484375001
            ],
            [
              142.1498320800182,
              47.904246284018264
            ],
            [
              142.18173828125003,
              48.01337890625
            ],
            [
              142.13535156250003,
              48.290087890624996
            ],
            [
              142.02871093750002,
              48.477099609374996
            ],
            [
              142.01210660171995,
              48.49953273316124
            ],
            [
              141.89726562500016,
              48.654687500000136
            ],
            [
              141.88600075909818,
              48.67667215764732
            ],
            [
              141.8756896216006,
              48.6838617621528
            ],
            [
              141.8682677494641,
              48.69217068142365
            ],
            [
              141.86556592758978,
              48.70095974392356
            ],
            [
              141.8633523867772,
              48.7070958116319
            ],
            [
              141.8613992625306,
              48.71554307725694
            ],
            [
              141.85918572171795,
              48.723762478298596
            ],
            [
              141.85716749332994,
              48.73249050564239
            ],
            [
              141.85088494367028,
              48.738101671006916
            ],
            [
              141.84889926735315,
              48.75775906032989
            ],
            [
              141.85625603534822,
              48.764326443142394
            ],
            [
              141.86843050981793,
              48.77795355902779
            ],
            [
              141.87562451745924,
              48.789281684027785
            ],
            [
              141.877935714484,
              48.79679307725698
            ],
            [
              141.88014925529683,
              48.800845811631916
            ],
            [
              141.88210237954326,
              48.80512641059023
            ],
            [
              141.89863883149695,
              48.82527615017358
            ],
            [
              141.90578332578264,
              48.82748174301043
            ],
            [
              141.97958984375003,
              48.97216796875
            ],
            [
              142.02011718750003,
              49.078466796875
            ],
            [
              142.02418670150817,
              49.09896001267989
            ],
            [
              142.02532185862,
              49.10467642491468
            ],
            [
              142.06497487799132,
              49.30436068246518
            ],
            [
              142.06650390624998,
              49.3120605468751
            ],
            [
              142.10345232905775,
              49.42380386724141
            ],
            [
              142.10869140625005,
              49.4396484375
            ],
            [
              142.14121879463306,
              49.56503017295277
            ],
            [
              142.14228515625018,
              49.5691406250001
            ],
            [
              142.14232516540227,
              49.57153090150557
            ],
            [
              142.1426827200938,
              49.59289237841519
            ],
            [
              142.14209576882052,
              49.62171169704857
            ],
            [
              142.14324431590805,
              49.62644393374933
            ],
            [
              142.14690097672135,
              49.84490471017988
            ],
            [
              142.1469542564015,
              49.848087811070265
            ],
            [
              142.14600201731344,
              49.85200141059025
            ],
            [
              142.13844993689378,
              49.86758978949652
            ],
            [
              142.13428327183453,
              49.87567898220482
            ],
            [
              142.13630150022271,
              49.89883978949649
            ],
            [
              142.14255149781144,
              49.90806016710067
            ],
            [
              142.14050071735244,
              49.92192938910594
            ],
            [
              142.135227281887,
              49.932152777777745
            ],
            [
              142.13991478007864,
              49.941251085069396
            ],
            [
              142.13011660677535,
              49.95067898220482
            ],
            [
              142.13402285526848,
              49.959136420355875
            ],
            [
              142.14905479461632,
              49.97358077658191
            ],
            [
              142.1497094218939,
              50.01269033326052
            ],
            [
              142.14053326942326,
              50.0215123155382
            ],
            [
              142.1488014954001,
              50.02800645616318
            ],
            [
              142.14997745068945,
              50.02870324278886
            ],
            [
              142.15276024789642,
              50.19495657322407
            ],
            [
              142.15117779656674,
              50.198028021918375
            ],
            [
              142.15078717171747,
              50.21742499457463
            ],
            [
              142.152776207381,
              50.2200548040836
            ],
            [
              142.14886609277838,
              50.25712496825345
            ],
            [
              142.14837181776977,
              50.26181098326218
            ],
            [
              142.13844993689378,
              50.271347520616345
            ],
            [
              142.1410541025557,
              50.28250881618928
            ],
            [
              142.14593839267144,
              50.28488127072388
            ],
            [
              142.14373586139558,
              50.305762550247046
            ],
            [
              142.14306640625,
              50.312109375
            ],
            [
              142.09965791794582,
              50.43447183694316
            ],
            [
              142.0923426094738,
              50.45509266916921
            ],
            [
              142.0877663626975,
              50.46010484483506
            ],
            [
              142.08436761531493,
              50.47757306315164
            ],
            [
              142.0843184705495,
              50.47771159537709
            ],
            [
              142.08416550738323,
              50.4781427771653
            ],
            [
              142.0717181918057,
              50.49254909939232
            ],
            [
              142.06934189063912,
              50.50480902777778
            ],
            [
              142.05205674105792,
              50.507622748480884
            ],
            [
              142.0451882541244,
              50.51775051540794
            ],
            [
              142.03942653759725,
              50.540172797309
            ],
            [
              142.04255153639173,
              50.5530064561632
            ],
            [
              142.04671820145074,
              50.565158555772555
            ],
            [
              142.0469460659462,
              50.5759027777778
            ],
            [
              142.04658799316786,
              50.59377794053816
            ],
            [
              142.04886663812198,
              50.60713243272572
            ],
            [
              142.05088486650993,
              50.619673122829866
            ],
            [
              142.053033303181,
              50.623799099392315
            ],
            [
              142.05505153156918,
              50.63842312282986
            ],
            [
              142.05719996824013,
              50.64463243272573
            ],
            [
              142.05921819662836,
              50.65092312282984
            ],
            [
              142.06136663329943,
              50.655049099392386
            ],
            [
              142.06338486168738,
              50.661339789496495
            ],
            [
              142.06761663088804,
              50.67171576605898
            ],
            [
              142.069634859276,
              50.68425645616321
            ],
            [
              142.0718809521597,
              50.68857367621524
            ],
            [
              142.07588485686483,
              50.705089789496526
            ],
            [
              142.08655687379,
              50.717463557198016
            ],
            [
              142.08917136503126,
              50.72853626089692
            ],
            [
              142.08844995618398,
              50.73217312282988
            ],
            [
              142.085683030168,
              50.74018296983509
            ],
            [
              142.090435632501,
              50.758631863064195
            ],
            [
              142.09059839285504,
              50.76742906358504
            ],
            [
              142.08695256092824,
              50.77448676215275
            ],
            [
              142.0933653188709,
              50.79024400499128
            ],
            [
              142.08945907037776,
              50.81302435980899
            ],
            [
              142.09671818216054,
              50.81550645616322
            ],
            [
              142.1051166164205,
              50.81754909939235
            ],
            [
              142.11722598674868,
              50.82379909939239
            ],
            [
              142.11958719944184,
              50.82289634737073
            ],
            [
              142.14726562500005,
              50.8901855468751
            ],
            [
              142.1728997656851,
              50.9359637465848
            ],
            [
              142.20791015625002,
              50.998486328125
            ],
            [
              142.20675903459554,
              51.21859038115041
            ],
            [
              142.20673828125007,
              51.222558593750136
            ],
            [
              142.16962324641233,
              51.288728327577005
            ],
            [
              142.12975758380588,
              51.359801958385454
            ]
          ]
        ]
      }
    },
    {
      "type": "Feature",
      "properties": {
        "name": "Баффинова Земля",
        "name_en": "Baffin Island",
        "group": "Острова",
        "subgroup": "Материковые",
        "description": "Крупнейший остров Канадского Арктического архипелага. Берега изрезаны фьордами, климат субарктический и арктический."
      },
      "geometry": null
    },
    {
      "type": "Feature",
      "properties": {
        "name": "Новая Гвинея",
        "name_en": "New Guinea",
        "group": "Острова",
        "subgroup": "Материковые",
        "description": "Второй по площади остров мира, разделён между Индонезией и Папуа — Новой Гвинеей. Горный хребет Кордильера-Новая Гвинея тянется вдоль острова."
      },
      "geometry": null
    },
    {
      "type": "Feature",
      "properties": {
        "name": "Великобритания",
        "name_en": "Great Britain",
        "group": "Острова",
        "subgroup": "Материковые",
        "description": "Крупнейший остров Британских островов. Сложен главным образом осадочными и метаморфическими породами."
      },
      "geometry": null
    },
    {
      "type": "Feature",
      "properties": {
        "name": "Калимантан (Борнео)",
        "name_en": "Borneo",
        "group": "Острова",
        "subgroup": "Материковые",
        "description": "Третий по площади остров мира, разделён между Индонезией, Малайзией и Брунеем. Известен тропическими лесами и болотами."
      },
      "geometry": null
    },
    {
      "type": "Feature",
      "properties": {
        "name": "Ньюфаундленд",
        "name_en": "Newfoundland",
        "group": "Острова",
        "subgroup": "Материковые",
        "description": "Остров у восточного побережья Канады. Известен туманами Гранд-Банки и рыболовством в Северной Атлантике."
      },
      "geometry": null
    },
    {
      "type": "Feature",
      "properties": {
        "name": "Тасмания",
        "name_en": "Tasmania",
        "group": "Острова",
        "subgroup": "Материковые",
        "description": "Южный штат Австралии, отделённый проливом Басса. Рельеф гористый, климат океанический, много заповедных территорий."
      },
      "geometry": null
    },
    {
      "type": "Feature",
      "properties": {
        "name": "Большие Антильские острова",
        "name_en": "Greater Antilles",
        "group": "Острова",
        "subgroup": "Материковые",
        "description": "Крупнейшая дуга Карибских островов: Куба, Эспаньола (Гаити и Доминикана), Ямайка, Пуэрто-Рико. Расположены на границе Карибской и Северо-Американской плит."
      },
      "geometry": null
    },
    {
      "type": "Feature",
      "properties": {
        "name": "Гавайские острова",
        "name_en": "Hawaiian Islands",
        "group": "Острова",
        "subgroup": "Вулканические",
        "description": "Дуга щитовых вулканов в центральной части Тихого океана. Происхождение связано с горячей точкой Гавайи-Император."
      },
      "geometry": null
    },
    {
      "type": "Feature",
      "properties": {
        "name": "Курильские острова",
        "name_en": "Kuril Islands",
        "group": "Острова",
        "subgroup": "Вулканические",
        "description": "Островная дуга между Камчаткой и Хоккайдо. Активная зона субдукции, частые землетрясения и извержения вулканов."
      },
      "geometry": null
    },
    {
      "type": "Feature",
      "properties": {
        "name": "Канарские острова",
        "name_en": "Canary Islands",
        "group": "Острова",
        "subgroup": "Вулканические",
        "description": "Архипелаг у северо-западной Африки, принадлежит Испании. Вулкан Тейде на Тенерифе — одна из высочайших вершин Атлантики (от основания)."
      },
      "geometry": null
    },
    {
      "type": "Feature",
      "properties": {
        "name": "Японские острова",
        "name_en": "Japan",
        "group": "Острова",
        "subgroup": "Вулканические",
        "description": "Островная дуга на стыке Тихоокеанской, Филиппинской и Евразийской плит. Характерны активный вулканизм и высокая сейсмичность."
      },
      "geometry": null
    },
    {
      "type": "Feature",
      "properties": {
        "name": "Филиппинские острова",
        "name_en": "Philippines",
        "group": "Острова",
        "subgroup": "Вулканические",
        "description": "Крупный архипелаг в зоне субдукции Тихоокеанского огненного пояса. Часты тайфуны и извержения (Пинатубо, Майон)."
      },
      "geometry": null
    },
    {
      "type": "Feature",
      "properties": {
        "name": "Азорские острова",
        "name_en": "Azores",
        "group": "Острова",
        "subgroup": "Вулканические",
        "description": "Вулканический архипелаг в северной Атлантике, автономный регион Португалии. Район сочленения Срединно-Атлантического хребта и трансформных разломов."
      },
      "geometry": null
    },
    {
      "type": "Feature",
      "properties": {
        "name": "Большой Барьерный риф",
        "name_en": "Great Barrier Reef",
        "group": "Острова",
        "subgroup": "Коралловые",
        "description": "Крупнейшая коралловая система мира вдоль северо-востока Австралии. Состоит из тысяч рифов и атоллов; объект Всемирного наследия ЮНЕСКО."
      },
      "geometry": null
    },
    {
      "type": "Feature",
      "properties": {
        "name": "Мальдивские острова",
        "name_en": "Maldive Islands",
        "group": "Острова",
        "subgroup": "Коралловые",
        "description": "Цепь атоллов в экваториальной части Индийского океана. Низменная территория, уязвимая к повышению уровня моря."
      },
      "geometry": null
    },
    {
      "type": "Feature",
      "properties": {
        "name": "Маршалловы острова",
        "name_en": "Marshall Islands",
        "group": "Острова",
        "subgroup": "Коралловые",
        "description": "Республика в центральной части Тихого океана, состоящая из атоллов и рифов. Известны атоллы Бикини и Эниветок."
      },
      "geometry": null
    },
    {
      "type": "Feature",
      "properties": {
        "name": "Аравийский полуостров",
        "name_en": "Arabian Peninsula",
        "group": "Полуострова",
        "subgroup": "Крупнейшие",
        "description": "Крупнейший полуостров Земли между Красным морем и Персидским заливом. Засушливые плоскогорья и песчаные пустыни (Руб-эль-Хали)."
      },
      "geometry": null
    },
   {
      "type": "Feature",
      "geometry": 
      {
        "coordinates": [
        [
          [
            13.352293753778724,
            55.3899547320388
          ],
          [
            12.502811716492317,
            56.29674105131508
          ],
          [
            13.02005549991236,
            57.183714635223055
          ],
          [
            12.034454034400056,
            57.88479216299146
          ],
          [
            10.897733994577976,
            59.42833263995101
          ],
          [
            8.601558214511016,
            58.42299751576161
          ],
          [
            7.102737913709291,
            58.02497153553949
          ],
          [
            5.903638302876061,
            58.61696198164327
          ],
          [
            5.160001010224306,
            59.817277861223374
          ],
          [
            4.78069907574951,
            61.95233738080853
          ],
          [
            9.102666123352662,
            63.95272736586233
          ],
          [
            14.131730955067695,
            66.7309196637434
          ],
          [
            15.273520410298318,
            68.0260830782635
          ],
          [
            13.522708257859847,
            67.91357858877282
          ],
          [
            11.823851408796031,
            68.02308279046272
          ],
          [
            13.22631095012531,
            68.4376043535284
          ],
          [
            15.030511392757234,
            69.00992193609025
          ],
          [
            17.26802221763151,
            70.01616671420601
          ],
          [
            25.89792811102643,
            71.08166181905358
          ],
          [
            31.35553009123791,
            70.40264391169336
          ],
          [
            28.498389485713858,
            68.72901353082094
          ],
          [
            29.770876404297525,
            66.39326041118105
          ],
          [
            29.79450421616076,
            64.72645499903814
          ],
          [
            30.11533449923425,
            63.49487386893358
          ],
          [
            31.926729740662324,
            63.19264939838263
          ],
          [
            29.918264903966673,
            61.56488257654081
          ],
          [
            27.493845885695862,
            60.45996776108612
          ],
          [
            22.803365828676135,
            59.67274041339812
          ],
          [
            20.51454787960941,
            60.03769116165165
          ],
          [
            13.352293753778724,
            55.3899547320388
          ]          
        ]],
        "type": "Polygon"
      },
      "properties": {
        "name": "Скандинавский полуостров",
        "description": "Отсюда викинги отправлялись покорять полмира на своих драккарах.",
        "name_en": "Scandinavia"
      }
    },
    {
      "type": "Feature",
      "properties": {
        "name": "Индостан",
        "name_en": "Indian subcontinent",
        "group": "Полуострова",
        "subgroup": "Крупнейшие",
        "description": "Южная часть субконтинента, омываемая Аравийским морем и Бенгальским заливом. Основа — плоскогорье Декан и прибрежные Гаты."
      },
      "geometry": null
    },
    {
      "type": "Feature",
      "geometry": {
        "coordinates": 
        [
          [
            [
                -55.830265490790794,
                53.35782562248551
            ],
            [
                -55.55997453393638,
                52.080470729497335
            ],
            [
                -56.98609842668397,
                51.46559062450871
            ],
            [
                -57.46977535735738,
                51.50226917606216
            ],
            [
                -59.95215006722012,
                50.24873667565461
            ],
            [
                -66.32959954980483,
                50.15811533097806
            ],
            [
                -70.9923546107966,
                47.08393939565255
            ],
            [
                -73.4702108381945,
                45.632925499695176
            ],
            [
                -79.12132371776727,
                51.5928034446753
            ],
            [
                -78.63726204333733,
                52.24747584645846
            ],
            [
                -79.7379378461952,
                54.71586755649844
            ],
            [
                -77.61718769942519,
                55.37657312025499
            ],
            [
                -76.51741812694793,
                56.3728263479978
            ],
            [
                -76.67460577606197,
                57.629684505057185
            ],
            [
                -78.41173529597472,
                58.72278070322352
            ],
            [
                -77.19834228594878,
                59.82748755181083
            ],
            [
                -78.1530653122664,
                60.84247475448623
            ],
            [
                -77.88601119120978,
                61.430903854926555
            ],
            [
                -78.16815680596858,
                62.27248446593913
            ],
            [
                -77.56453840758132,
                62.555283596718255
            ],
            [
                -74.63129114194902,
                62.30533950504119
            ],
            [
                -73.72145396638348,
                62.50564219937718
            ],
            [
                -71.89455580417702,
                61.91929263384955
            ],
            [
                -71.2550979026542,
                61.63365210129683
            ],
            [
                -71.77207044037706,
                61.363835660537774
            ],
            [
                -70.70402630574361,
                61.105357753675776
            ],
            [
                -69.30492312902095,
                61.09281646211184
            ],
            [
                -69.17941923804501,
                60.86410422947614
            ],
            [
                -69.64637408079936,
                60.57808955353997
            ],
            [
                -69.652225005493,
                59.97862219615823
            ],
            [
                -69.1596351826766,
                59.04449925141557
            ],
            [
                -67.61380334934663,
                58.293129656563195
            ],
            [
                -66.10552990193293,
                58.81842434122993
            ],
            [
                -65.73498657705564,
                59.16185588957862
            ],
            [
                -64.72470037531113,
                60.53041429252647
            ],
            [
                -61.49994512036193,
                57.60455267795513
            ],
            [
                -61.008704991163086,
                55.778369091054486
            ],
            [
                -57.07559194565039,
                54.641760873174576
            ],
            [
                -55.83202792612002,
                53.35488204038785
            ],
            [
                -55.830265490790794,
                53.35782562248551
            ]
            ]
          ],
          "type": "Polygon"
        },
        "properties": {
        "name": "Лабрадор",
        "description": "'Земля батраков', открытая викингами за 500 лет до Колумба!",
        "name_en": "Labrador"
      }
    },
    {
      "type": "Feature",
      "properties": {
        "name": "Сомали",
        "name_en": "horn of Africa",
        "group": "Полуострова",
        "subgroup": "Крупнейшие",
        "description": "Восточная оконечность Африки, «Рог Африки». Полуостров вытянут между Аденским заливом и Индийским океаном."
      },
      "geometry": null
    },
    {
      "type": "Feature",
      "properties": {
        "name": "Таймыр",
        "name_en": "Taymyr Peninsula",
        "group": "Полуострова",
        "subgroup": "Россия",
        "description": "Крупнейший и самый северный полуостров России, омывается морями Карским и Лаптевых. Территория тундры и полярных пустынь."
      },
      "geometry": null
    },
    {
      "type": "Feature",
      "properties": {
        "name": "Крымский полуостров",
        "name_en": "Crimean Peninsula",
        "group": "Полуострова",
        "subgroup": "Россия",
        "description": "Полуостров в северной части Чёрного моря, соединён с материком Перекопским перешейком. Южный берег отличается мягким климатом и горным рельефом."
      },
      "geometry": null
    },
    {
      "type": "Feature",
      "properties": {
        "name": "Камчатка",
        "name_en": "Kamchatka Peninsula",
        "group": "Полуострова",
        "subgroup": "Россия",
        "description": "Восточный полуостров России на окраине Тихоокеанского огненного пояса. Известен действующими вулканами и гейзерами."
      },
      "geometry": null
    },
    {
      "type": "Feature",
      "properties": {
        "name": "Срединно-Атлантический хребет (САХ)",
        "name_en": "Mid-Atlantic Ridge",
        "group": "Срединно-океанические хребты",
        "subgroup": "Система СООХ",
        "description": "Протяжённая зона спрединга в Атлантике от Арктики до Южной Атлантики. Формирует новую океаническую кору по обе стороны от рифтовой долины."
      },
      "geometry": null
    },
    {
      "type": "Feature",
      "properties": {
        "name": "Восточно-Тихоокеанское поднятие",
        "name_en": "East Pacific Rise",
        "group": "Срединно-океанические хребты",
        "subgroup": "Система СООХ",
        "description": "Быстрорастущее поднятие (зона спрединга) в юго-восточной части Тихого океана. Характерно тонкое осадочное покрытие и высокая тепловая потоковая аномалия."
      },
      "geometry": null
    },
    {
      "type": "Feature",
      "properties": {
        "name": "САХ — Рейкьянесский хребет",
        "name_en": "Reykjanes Ridge",
        "group": "Срединно-океанические хребты",
        "subgroup": "Сегменты САХ",
        "description": "Северная часть САХ к югу от Исландии. Связан с Исландским плюмом, ось спрединга ориентирована ССЗ—ЮЮВ."
      },
      "geometry": null
    },
    {
      "type": "Feature",
      "properties": {
        "name": "САХ — Северо-Атлантический сегмент (Исландия—Азорские)",
        "name_en": "MAR North Atlantic Segment (Iceland–Azores)",
        "group": "Срединно-океанические хребты",
        "subgroup": "Сегменты САХ",
        "description": "Участок САХ между Исландией и Азорским тройным сочленением. Характерен умеренный темп спрединга и разломы поперечного сдвига."
      },
      "geometry": null
    },
    {
      "type": "Feature",
      "properties": {
        "name": "САХ — Центрально-Атлантический сегмент (Азорские—Экватор)",
        "name_en": "MAR Central Atlantic Segment (Azores–Equator)",
        "group": "Срединно-океанические хребты",
        "subgroup": "Сегменты САХ",
        "description": "Средняя часть САХ к северу от экватора. Включает крупные трансформные зоны и рифтовую долину."
      },
      "geometry": null
    },
    {
      "type": "Feature",
      "properties": {
        "name": "САХ — Южно-Атлантический сегмент (Экватор—Буве)",
        "name_en": "MAR South Atlantic Segment (Equator–Bouvet)",
        "group": "Срединно-океанические хребты",
        "subgroup": "Сегменты САХ",
        "description": "Южная часть САХ до острова Буве. Менее быстрый спрединг, широкие абиссальные равнины по бортам."
      },
      "geometry": null
    },
    {
      "type": "Feature",
      "properties": {
        "name": "САХ — Тристано-да-Кунья (плюм-отрезок)",
        "name_en": "Tristan da Cunha plume segment",
        "group": "Срединно-океанические хребты",
        "subgroup": "Сегменты САХ",
        "description": "Участок САХ, influenced by Tristan da Cunha hotspot. Связан с аномалией магматизма и подъёмом изостатического уровня дна."
      },
      "geometry": null
    },
    {
      "type": "Feature",
      "properties": {
        "name": "САХ — Азорское тройное сочленение (узел)",
        "name_en": "Azores Triple Junction",
        "group": "Срединно-океанические хребты",
        "subgroup": "Сегменты САХ",
        "description": "Узел сочленения Евразийской, Северо-Американской и Африканской плит у Азорских островов. Ключевая точка сегментации САХ."
      },
      "geometry": null
    }
  ]
}