{
  "type": "FeatureCollection",
  "features": [
    {
      "type": "Feature",
      "properties": {
        "name": "Большое Солёное озеро",
        "name_en": "Great Salt Lake",
        "description": "Крупнейшее солёное озеро США, расположенное в штате Юта. Остаток древнего озера Бонневиль. Отличается высокой солёностью и отсутствием рыбы."
      },
      "geometry": null
    },
    {
      "type": "Feature",
      "properties": {
        "name": "Балхаш",
        "name_en": "Balkhash",
        "description": "Крупное озеро в Казахстане, уникальное тем, что западная часть пресная, а восточная солёная. Играет важную роль в водоснабжении региона."
      },
      "geometry": null
    },
    {
      "type": "Feature",
      "properties": {
        "name": "Иссык-Куль",
        "name_en": "Issyk-Kul",
        "description": "Горное озеро в Киргизии, одно из крупнейших высокогорных озёр мира. Никогда полностью не замерзает из-за солёности воды."
      },
      "geometry": null
    },
    {
      "type": "Feature",
      "properties": {
        "name": "Аральское море",
        "name_en": "Aral Sea",
        "description": "Ранее одно из крупнейших озёр мира, расположено между Казахстаном и Узбекистаном. Сильно обмелело из-за хозяйственной деятельности человека."
      },
      "geometry": null
    },
    {
      "type": "Feature",
      "properties": {
        "name": "Ладожское озеро",
        "name_en": "Ladoga",
        "description": "Крупнейшее пресноводное озеро Европы, расположено на северо-западе России. Имеет важное транспортное и историческое значение."
      },
      "geometry": null
    },
    {
      "type": "Feature",
      "properties": {
        "name": "Онежское озеро",
        "name_en": "Onega",
        "description": "Второе по величине озеро Европы после Ладожского. Известно большим количеством островов и развитой гидросистемой."
      },
      "geometry": null
    },
    {
      "type": "Feature",
      "properties": {
        "name": "Женевское озеро",
        "name_en": "Geneva",
        "description": "Крупное озеро в Западной Европе, расположено на границе Швейцарии и Франции. Известно мягким климатом и судоходством."
      },
      "geometry": null
    },
    {
      "type": "Feature",
      "properties": {
        "name": "Большое Медвежье озеро",
        "name_en": "Great Bear",
        "description": "Крупнейшее по площади озеро Канады. Расположено в северной части страны и отличается очень чистой холодной водой."
      },
      "geometry": null
    },
    {
      "type": "Feature",
      "properties": {
        "name": "Большое Невольничье озеро",
        "name_en": "Great Slave",
        "description": "Одно из крупнейших и самых глубоких озёр Северной Америки. Расположено в Канаде."
      },
      "geometry": null
    },
    {
      "type": "Feature",
      "properties": {
        "name": "Верхнее",
        "name_en": "Superior",
        "description": "Крупнейшее по площади пресноводное озеро мира. Входит в систему Великих озёр Северной Америки."
      },
      "geometry": null
    },
    {
      "type": "Feature",
      "properties": {
        "name": "Гурон",
        "name_en": "Huron",
        "description": "Одно из Великих озёр Северной Америки. Имеет сложную береговую линию с множеством островов."
      },
      "geometry": null
    },
    {
      "type": "Feature",
      "properties": {
        "name": "Мичиган",
        "name_en": "Michigan",
        "description": "Единственное из Великих озёр, полностью расположенное в пределах США. Используется для судоходства и водоснабжения."
      },
      "geometry": null
    },
    {
      "type": "Feature",
      "properties": {
        "name": "Эри",
        "name_en": "Erie",
        "description": "Самое мелкое из Великих озёр. Имеет тёплую воду и важное значение для рыболовства."
      },
      "geometry": null
    },
    {
      "type": "Feature",
      "properties": {
        "name": "Онтарио",
        "name_en": "Ontario",
        "description": "Самое восточное из Великих озёр. Соединено с рекой Святого Лаврентия."
      },
      "geometry": null
    },
    {
      "type": "Feature",
      "properties": {
        "name": "Титикака",
        "name_en": "Titicaca",
        "description": "Самое высокогорное судоходное озеро мира, расположено в Андах. Находится на границе Перу и Боливии."
      },
      "geometry": null
    },
    {
      "type": "Feature",
      "properties": {
        "name": "Поопо",
        "name_en": "Lago Poopó",
        "description": "Озеро в Боливии, подверженное сильным колебаниям уровня воды. В отдельные годы практически пересыхает."
      },
       "geometry": {
        "coordinates": [
          [
            [
              -67.28163567938459,
              -18.564715255649773
            ],
            [
              -67.2801329563951,
              -18.603202795843742
            ],
            [
              -67.26510540626849,
              -18.626004673534396
            ],
            [
              -67.27712749294872,
              -18.640256650916868
            ],
            [
              -67.24556872061851,
              -18.674451996361825
            ],
            [
              -67.23655145687091,
              -18.7086432477997
            ],
            [
              -67.23053158843526,
              -18.68157562128833
            ],
            [
              -67.20946165945948,
              -18.683001057222455
            ],
            [
              -67.17636574317696,
              -18.68585083664452
            ],
            [
              -67.16733194876534,
              -18.70152114229144
            ],
            [
              -67.125220140661,
              -18.744249312056056
            ],
            [
              -67.22000787948178,
              -18.769886033490366
            ],
            [
              -67.26961378637566,
              -18.781274509657635
            ],
            [
              -67.25457495522176,
              -18.828254577484614
            ],
            [
              -67.20788949662364,
              -18.842472227914044
            ],
            [
              -67.15673489252133,
              -18.851002658987056
            ],
            [
              -67.09814616073052,
              -18.87663578900056
            ],
            [
              -67.06658946324323,
              -18.90937280234583
            ],
            [
              -67.08609694744037,
              -18.900815553253764
            ],
            [
              -67.10410015531093,
              -18.91359907956621
            ],
            [
              -67.0740928352778,
              -18.95488493218754
            ],
            [
              -67.08610980404066,
              -18.961987725627424
            ],
            [
              -67.06960398293735,
              -18.99187748944361
            ],
            [
              -67.0861363998535,
              -19.008933503327256
            ],
            [
              -67.05757035871972,
              -19.044484501513182
            ],
            [
              -67.06057601483207,
              -19.05869811821053
            ],
            [
              -67.05305478299941,
              -19.077175015280204
            ],
            [
              -67.05605569290664,
              -19.09990758616287
            ],
            [
              -67.02899395528964,
              -19.102759299826047
            ],
            [
              -67.00192828242308,
              -19.1127133330007
            ],
            [
              -67.00342748514053,
              -19.13686329863269
            ],
            [
              -67.02747830749716,
              -19.149634872715595
            ],
            [
              -67.01093570810227,
              -19.16100005831308
            ],
            [
              -67.00641785271975,
              -19.17803721000925
            ],
            [
              -66.98537599973095,
              -19.16385062966134
            ],
            [
              -66.904162921509,
              -19.132592274173064
            ],
            [
              -66.88912871120722,
              -19.092812919206878
            ],
            [
              -66.88311509352805,
              -19.075761356455047
            ],
            [
              -66.86054905011441,
              -19.05300529615789
            ],
            [
              -66.84851534472811,
              -19.00039661829227
            ],
            [
              -66.83197002784584,
              -18.96910646064775
            ],
            [
              -66.84099081660914,
              -18.943501671791253
            ],
            [
              -66.88611548830102,
              -18.93213244962331
            ],
            [
              -66.89363345436624,
              -18.917904827347442
            ],
            [
              -66.91619360933184,
              -18.903679026216352
            ],
            [
              -66.94025927213669,
              -18.83394920474494
            ],
            [
              -66.95831085041061,
              -18.73000915006807
            ],
            [
              -67.0440404678484,
              -18.637403257279544
            ],
            [
              -67.08010999096341,
              -18.543331344543276
            ],
            [
              -67.11319230736372,
              -18.523370265076238
            ],
            [
              -67.12220773290913,
              -18.506261527668215
            ],
            [
              -67.0831002099378,
              -18.44921426226591
            ],
            [
              -67.08761162729948,
              -18.434948500073546
            ],
            [
              -67.1131763256812,
              -18.44636120459107
            ],
            [
              -67.13422960670167,
              -18.477742231258034
            ],
            [
              -67.1387592841428,
              -18.513387737555647
            ],
            [
              -67.14326502443456,
              -18.50198165503322
            ],
            [
              -67.16582434615864,
              -18.501980963393606
            ],
            [
              -67.19290364219542,
              -18.516237838954808
            ],
            [
              -67.21695425441051,
              -18.50055524092427
            ],
            [
              -67.20944838746455,
              -18.51908913784709
            ],
            [
              -67.24104308627705,
              -18.536196397064927
            ],
            [
              -67.25608118169826,
              -18.5347708271251
            ],
            [
              -67.28163567938459,
              -18.564715255649773
            ]
          ]
        ],
        "type": "Polygon"
      }
    },
    {
      "type": "Feature",
      "properties": {
        "name": "Виннипег",
        "name_en": "Winnipeg",
        "description": "Крупное пресноводное озеро Канады. Играет важную роль в экосистеме и рыболовстве."
      },
      "geometry": null
    },
    {
      "type": "Feature",
      "properties": {
        "name": "Маракайбо",
        "name_en": "Maracaibo",
        "description": "Крупное озеро в Венесуэле, соединено с Карибским морем. Известно частыми грозами и нефтяными месторождениями."
      },
      "geometry": null
    },
    {
      "type": "Feature",
      "properties": {
        "name": "Виктория",
        "name_en": "Nyanza",
        "description": "Крупнейшее озеро Африки по площади. Является одним из истоков Нила."
      },
      "geometry": null
    },
    {
      "type": "Feature",
      "properties": {
        "name": "Ньяса",
        "name_en": "Malawi",
        "description": "Глубокое озеро Восточной Африки, также известное как озеро Малави. Отличается богатым разнообразием рыб."
      },
      "geometry": null
    },
    {
      "type": "Feature",
      "properties": {
        "name": "Танганьика",
        "name_en": "Tanganyika",
        "description": "Одно из самых глубоких озёр мира, расположено в Восточной Африке. Отличается высокой биологической уникальностью."
      },
      "geometry": null
    },
    {
      "type": "Feature",
      "properties": {
        "name": "Чад",
        "name_en": "Chad",
        "description": "Мелководное озеро в Центральной Африке. Его площадь сильно изменяется в зависимости от климата."
      },
      "geometry": null
    },
    {
      "type": "Feature",
      "properties": {
        "name": "Мёртвое море",
        "name_en": "Dead Sea",
        "description": "Солёное бессточное озеро на границе Израиля и Иордании. Самое низкорасположенное место суши."
      },
      "geometry": null
    },
    {
      "type": "Feature",
      "properties": {
        "name": "Байкал",
        "name_en": "Baikal",
        "description": "Самое глубокое озеро мира и крупнейшее хранилище пресной воды. Расположено в Сибири."
      },
      "geometry": null
    },
    {
      "type": "Feature",
      "properties": {
        "name": "Эйр-Норт",
        "name_en": "Eyre North",
        "description": "Крупнейшее солёное озеро Австралии. Часто пересыхает и заполняется водой только после сильных дождей."
      },
      "geometry": null
    },
    {
      "type": "Feature",
      "properties": {
        "name": "Каспийское море",
        "name_en": "Caspian Sea",
        "description": "Крупнейший в мире замкнутый водоём, по сути являющийся озером. Омывает берега пяти государств."
      },
      "geometry": null
    }
  ]
}
