{
  "type": "FeatureCollection",
  "features": [
    {
      "type": "Feature",
      "geometry": null,
      "properties": {
        "name": "Пиренейский полуостров",
        "description": "Здесь столкнулись три мира: христианский, мусульманский и иудейский.",
        "name_en": "Iberian Peninsula"
      }
    },
    {
      "type": "Feature",
      "geometry": 
      {
        "coordinates": [
        [
          [
            13.352293753778724,
            55.3899547320388
          ],
          [
            12.502811716492317,
            56.29674105131508
          ],
          [
            13.02005549991236,
            57.183714635223055
          ],
          [
            12.034454034400056,
            57.88479216299146
          ],
          [
            10.897733994577976,
            59.42833263995101
          ],
          [
            8.601558214511016,
            58.42299751576161
          ],
          [
            7.102737913709291,
            58.02497153553949
          ],
          [
            5.903638302876061,
            58.61696198164327
          ],
          [
            5.160001010224306,
            59.817277861223374
          ],
          [
            4.78069907574951,
            61.95233738080853
          ],
          [
            9.102666123352662,
            63.95272736586233
          ],
          [
            14.131730955067695,
            66.7309196637434
          ],
          [
            15.273520410298318,
            68.0260830782635
          ],
          [
            13.522708257859847,
            67.91357858877282
          ],
          [
            11.823851408796031,
            68.02308279046272
          ],
          [
            13.22631095012531,
            68.4376043535284
          ],
          [
            15.030511392757234,
            69.00992193609025
          ],
          [
            17.26802221763151,
            70.01616671420601
          ],
          [
            25.89792811102643,
            71.08166181905358
          ],
          [
            31.35553009123791,
            70.40264391169336
          ],
          [
            28.498389485713858,
            68.72901353082094
          ],
          [
            29.770876404297525,
            66.39326041118105
          ],
          [
            29.79450421616076,
            64.72645499903814
          ],
          [
            30.11533449923425,
            63.49487386893358
          ],
          [
            31.926729740662324,
            63.19264939838263
          ],
          [
            29.918264903966673,
            61.56488257654081
          ],
          [
            27.493845885695862,
            60.45996776108612
          ],
          [
            22.803365828676135,
            59.67274041339812
          ],
          [
            20.51454787960941,
            60.03769116165165
          ],
          [
            13.352293753778724,
            55.3899547320388
          ]          
        ]],
        "type": "Polygon"
      },
      "properties": {
        "name": "Скандинавский полуостров",
        "description": "Отсюда викинги отправлялись покорять полмира на своих драккарах.",
        "name_en": "Scandinavia"
      }
    },
    {
      "type": "Feature",
      "geometry": {
        "coordinates": 
        [
          [
            [
                -55.830265490790794,
                53.35782562248551
            ],
            [
                -55.55997453393638,
                52.080470729497335
            ],
            [
                -56.98609842668397,
                51.46559062450871
            ],
            [
                -57.46977535735738,
                51.50226917606216
            ],
            [
                -59.95215006722012,
                50.24873667565461
            ],
            [
                -66.32959954980483,
                50.15811533097806
            ],
            [
                -70.9923546107966,
                47.08393939565255
            ],
            [
                -73.4702108381945,
                45.632925499695176
            ],
            [
                -79.12132371776727,
                51.5928034446753
            ],
            [
                -78.63726204333733,
                52.24747584645846
            ],
            [
                -79.7379378461952,
                54.71586755649844
            ],
            [
                -77.61718769942519,
                55.37657312025499
            ],
            [
                -76.51741812694793,
                56.3728263479978
            ],
            [
                -76.67460577606197,
                57.629684505057185
            ],
            [
                -78.41173529597472,
                58.72278070322352
            ],
            [
                -77.19834228594878,
                59.82748755181083
            ],
            [
                -78.1530653122664,
                60.84247475448623
            ],
            [
                -77.88601119120978,
                61.430903854926555
            ],
            [
                -78.16815680596858,
                62.27248446593913
            ],
            [
                -77.56453840758132,
                62.555283596718255
            ],
            [
                -74.63129114194902,
                62.30533950504119
            ],
            [
                -73.72145396638348,
                62.50564219937718
            ],
            [
                -71.89455580417702,
                61.91929263384955
            ],
            [
                -71.2550979026542,
                61.63365210129683
            ],
            [
                -71.77207044037706,
                61.363835660537774
            ],
            [
                -70.70402630574361,
                61.105357753675776
            ],
            [
                -69.30492312902095,
                61.09281646211184
            ],
            [
                -69.17941923804501,
                60.86410422947614
            ],
            [
                -69.64637408079936,
                60.57808955353997
            ],
            [
                -69.652225005493,
                59.97862219615823
            ],
            [
                -69.1596351826766,
                59.04449925141557
            ],
            [
                -67.61380334934663,
                58.293129656563195
            ],
            [
                -66.10552990193293,
                58.81842434122993
            ],
            [
                -65.73498657705564,
                59.16185588957862
            ],
            [
                -64.72470037531113,
                60.53041429252647
            ],
            [
                -61.49994512036193,
                57.60455267795513
            ],
            [
                -61.008704991163086,
                55.778369091054486
            ],
            [
                -57.07559194565039,
                54.641760873174576
            ],
            [
                -55.83202792612002,
                53.35488204038785
            ],
            [
                -55.830265490790794,
                53.35782562248551
            ]
            ]
          ],
          "type": "Polygon"
        },
        "properties": {
        "name": "Лабрадор",
        "description": "'Земля батраков', открытая викингами за 500 лет до Колумба!",
        "name_en": "Labrador"
      }
    },
    {
      "type": "Feature",
      "geometry": null,
      "properties": {
        "name": "Каспийское море",
        "description": "Гигантское озеро, где сходились пути купцов по Великому шёлковому пути.",
        "name_en": "Caspian Sea"
      }
    },
    {
      "type": "Feature",
      "geometry": null,
      "properties": {
        "name": "Чёрное море",
        "description": "'Море гостеприимства', где генуэзцы построили сотни торговых факторий.",
        "name_en": "Black Sea"
      }
    },
    {
      "type": "Feature",
      "geometry": null,
      "properties": {
        "name": "Фарерские острова",
        "description": "'Овечьи острова' викингов, где и сегодня живут потомки суровых мореходов.",
        "name_en": "Faroe Islands"
      }
    },
    {
      "type": "Feature",
      "geometry": null,
      "properties": {
        "name": "Исландия",
        "description": "'Ледяная земля', где вулканы и гейзеры соседствуют с сагами о древних богах.",
        "name_en": "Iceland"
      }
    },
    {
      "type": "Feature",
      "geometry": null,
      "properties": {
        "name": "Гренландия",
        "description": "'Зелёная земля', которую Эрик Рыжий хитро назвал так, чтобы привлечь поселенцев.",
        "name_en": "Greenland"
      }
    },
    {
      "type": "Feature",
      "geometry": null,
      "properties": {
        "name": "Ньюфаундленд",
        "description": "Первая 'Америка', которую посетили викинги, но... благополучно забыли.",
        "name_en": "Newfoundland"
      }
    },
    {
      "type": "Feature",
      "geometry": null,
      "properties": {
        "name": "Шри-Ланка",
        "description": "'Слеза Индии', где арабские мореходы меняли стекло на драгоценные рубины.",
        "name_en": "Sri Lanka"
      }
    }
  ]
}