{
  "type": "FeatureCollection",
  "features": [
    {
      "type": "Feature",
      "properties": {
        "name": "Миссисипская низменность",
        "name_en": "Mississippi Alluvial Plain",
        "description": "Лёгкая волнистость рельефа объясняется древними ледниковыми и водно-ледниковыми процессами."
      },
      "geometry":  {
        "coordinates": [
          [
            [
              -90.19352521521849,
              29.477617917836298
            ],
            [
              -88.47880490038706,
              32.41827078014174
            ],
            [
              -88.15439835433796,
              35.643622460253894
            ],
            [
              -88.24708593892335,
              37.02488725852882
            ],
            [
              -89.59105591541272,
              37.20966025818204
            ],
            [
              -91.07405726878042,
              36.355980218054256
            ],
            [
              -92.88146516819724,
              33.73852522939822
            ],
            [
              -93.0204965450751,
              30.640801647720707
            ],
            [
              -90.19352521521849,
              29.477617917836298
            ]
          ]
        ],
        "type": "Polygon"
      }
    },
    {
      "type": "Feature",
      "properties": {
        "name": "Амазонская низменность",
        "name_en": "Amazon Basin",
        "description": "Просторная равнинная территория с густой речной сетью и благоприятными условиями для земледелия."
      },
      "geometry": null
    },
    {
      "type": "Feature",
      "properties": {
        "name": "Ла-Платская низменность",
        "name_en": "La Plata Basin",
        "description": "Лёгкая волнистость рельефа объясняется древними ледниковыми и водно-ледниковыми процессами."
      },
      "geometry":  {
        "coordinates": [
          [
            [
              -57.10457470997737,
              -36.34494240036039
            ],
            [
              -57.36123217646947,
              -35.33438430145125
            ],
            [
              -59.377826524189416,
              -34.34131022229296
            ],
            [
              -58.681184840431996,
              -33.733644937730055
            ],
            [
              -56.004614160731194,
              -34.61333557015918
            ],
            [
              -57.104574714032424,
              -31.697816395929138
            ],
            [
              -54.757992200322434,
              -29.680048463719018
            ],
            [
              -50.028161821124456,
              -28.333319586293705
            ],
            [
              -49.588177599803345,
              -25.58856374152525
            ],
            [
              -44.08837483329495,
              -22.474788394949982
            ],
            [
              -48.671543805385426,
              -18.83890980889501
            ],
            [
              -52.30141363128142,
              -19.01232592128865
            ],
            [
              -53.54803559169018,
              -15.652859538206343
            ],
            [
              -56.29793697494476,
              -14.803798575982242
            ],
            [
              -58.31453132266468,
              -17.305277690256446
            ],
            [
              -61.76107438967665,
              -19.773191793053357
            ],
            [
              -63.37434986785274,
              -22.711748545617837
            ],
            [
              -64.36431436582446,
              -27.425863147484407
            ],
            [
              -64.03432619983435,
              -31.19734131834037
            ],
            [
              -64.76763323536828,
              -35.24460074918685
            ],
            [
              -60.88110594703454,
              -37.37169867724706
            ],
            [
              -57.10457470997737,
              -36.34494240036039
            ]
          ]
        ],
        "type": "Polygon"
      }
    },
    {
      "type": "Feature",
      "properties": {
        "name": "Прикаспийская низменность",
        "name_en": "Caspian Depression",
        "description": "Характерна мозаика почв и ландшафтов: чередование возвышенностей, пойм и заболоченных участков."
      },
      "geometry": null
    },
    {
      "type": "Feature",
      "properties": {
        "name": "Западно-Сибирская низменность",
        "name_en": "West Siberian Plain",
        "description": "Просторная равнинная территория с густой речной сетью и благоприятными условиями для земледелия."
      },
      "geometry": null
    },
    {
      "type": "Feature",
      "properties": {
        "name": "Валдайская возвышенность",
        "name_en": "Valdai Hills",
        "description": "Здесь широко распространены моренные холмы и гряды — следы последнего оледенения."
      },
      "geometry": {
        "coordinates": [
          [
            [
              35.38405276191588,
              56.74425923516074
            ],
            [
              35.857960692100164,
              57.1289247511651
            ],
            [
              35.22223054185258,
              57.59026094784463
            ],
            [
              33.93921151135467,
              57.44749352191755
            ],
            [
              33.8698591313277,
              57.078702673900125
            ],
            [
              34.26285595148033,
              56.77593858043812
            ],
            [
              35.38405276191588,
              56.74425923516074
            ]
          ]
        ],
        "type": "Polygon"
      }
    },
    {
      "type": "Feature",
      "properties": {
        "name": "Смоленско-Московская возвышенность",
        "name_en": "Smolensk–Moscow Upland",
        "description": "Возвышенная область — источник рек и родников; перепады высот создают локальные климатические различия."
      },
      "geometry":  {
        "coordinates": [
          [
            [
              31.77772900051525,
              54.73410887361385
            ],
            [
              31.916433760569248,
              54.09513579008714
            ],
            [
              35.39561149192056,
              55.23154987480447
            ],
            [
              37.09474480258041,
              55.90469695596951
            ],
            [
              39.67234159358085,
              56.10504151237578
            ],
            [
              39.545195563531536,
              56.55999145874088
            ],
            [
              36.34342735228819,
              56.31076078696219
            ],
            [
              34.598059121610646,
              56.13725792643635
            ],
            [
              31.916433760569248,
              55.13255448459972
            ],
            [
              31.77772900051525,
              54.73410887361385
            ]
          ]
        ],
        "type": "Polygon"
      }
    },
    {
      "type": "Feature",
      "properties": {
        "name": "Среднерусская возвышенность",
        "name_en": "Central Russian Upland",
        "description": "Здесь широко распространены моренные холмы и гряды — следы последнего оледенения."
      },
      "geometry": {
        "coordinates": [
          [
            [
              34.3553268731207,
              53.21838249304827
            ],
            [
              33.99700624298208,
              52.5136461026743
            ],
            [
              34.5633840132017,
              51.373691650990764
            ],
            [
              37.55709508436411,
              50.639124918646274
            ],
            [
              38.48179348472334,
              51.69006951748423
            ],
            [
              38.7014093548089,
              54.91389793924654
            ],
            [
              36.12381256380752,
              55.07303914682362
            ],
            [
              34.3553268731207,
              53.21838249304827
            ]
          ]
        ],
        "type": "Polygon"
      }
    },
    {
      "type": "Feature",
      "properties": {
        "name": "Приволжская возвышенность",
        "name_en": "Volga Upland",
        "description": "Здесь широко распространены моренные холмы и гряды — следы последнего оледенения."
      },
      "geometry": null
    },
    {
      "type": "Feature",
      "properties": {
        "name": "Среднесибирское плоскогорье",
        "name_en": "Central Siberian Plateau",
        "description": "Район известен резкими уступами — куэстами, где породы разной твёрдости выветриваются неравномерно."
      },
      "geometry": null
    },
    {
      "type": "Feature",
      "properties": {
        "name": "Аравийское плоскогорье",
        "name_en": "Arabian Plateau",
        "description": "Высокое плато с разрежённым воздухом и большими суточными колебаниями температур."
      },
      "geometry": {
        "coordinates": [
          [
            [
              35.44975294362723,
              30.960547918001396
            ],
            [
              35.132472938179404,
              28.73631706626695
            ],
            [
              37.00971297041099,
              26.01312309106683
            ],
            [
              38.88695300264254,
              23.855504152635618
            ],
            [
              39.57439301444472,
              21.415414163134542
            ],
            [
              40.49979303033393,
              20.204400012496777
            ],
            [
              42.05975305711763,
              17.855069937578463
            ],
            [
              43.22311307709265,
              16.28807663525616
            ],
            [
              43.540393082539424,
              13.374696362092877
            ],
            [
              43.804793087079645,
              12.756567322513376
            ],
            [
              45.3911931143177,
              13.374696362092877
            ],
            [
              47.63859315290364,
              14.016898062029185
            ],
            [
              45.78779312112641,
              17.25005798408425
            ],
            [
              42.58855306619702,
              23.176674623932342
            ],
            [
              38.75475300037189,
              28.92162178290731
            ],
            [
              37.22123297404249,
              30.869813381603322
            ],
            [
              35.44975294362723,
              30.960547918001396
            ]
          ]
        ],
        "type": "Polygon"
      }
    },
    {
      "type": "Feature",
      "properties": {
        "name": "Деканское плоскогорье",
        "name_en": "Deccan Plateau",
        "description": "Высокое плато с разрежённым воздухом и большими суточными колебаниями температур."
      },
      "geometry": null
    },
    {
      "type": "Feature",
      "properties": {
        "name": "Восточно-Африканское плоскогорье",
        "name_en": "East African Plateau",
        "description": "Плоскогорье с столовыми вершинами и каньонообразными долинами, сформированными эрозией."
      },
      "geometry":  {
        "coordinates": [
          [
            [
              40.73597224876758,
              -0.9270904114686118
            ],
            [
              36.86732553420731,
              3.1028884127117777
            ],
            [
              29.29292249307042,
              1.2717849213737082
            ],
            [
              29.577980672038763,
              -6.3707906005616906
            ],
            [
              33.52807258058763,
              -8.671847600843108
            ],
            [
              34.912640878429954,
              -12.195588584523833
            ],
            [
              40.002965502850486,
              -11.837116589924292
            ],
            [
              38.82201018998455,
              -7.4219026236689984
            ],
            [
              38.69984239900003,
              -5.722857776671688
            ],
            [
              39.47357174191143,
              -3.3685444354865126
            ],
            [
              40.73597224876758,
              -0.9270904114686118
            ]
          ]
        ],
        "type": "Polygon"
      }
    },
    {
      "type": "Feature",
      "properties": {
        "name": "Западно-Австралийское плоскогорье",
        "name_en": "Western Plateau",
        "description": "Высокое плато с разрежённым воздухом и большими суточными колебаниями температур."
      },
      "geometry": null
    }
  ]
}