{
  "type": "FeatureCollection",
  "features": [
    {
      "type": "Feature",
      "geometry": null,
      "properties": {
        "name": "Река Амазонка",
        "description": "Это самая полноводная река мира — её бассейн занимает около 40% всей Южной Америки!",
        "name_en": "Amazon",
        "hard_enabled": true
      }
    },
    {
      "type": "Feature",
      "geometry": null,
      "properties": {
        "name": "Река Ориноко",
        "description": "Река известна своей уникальной особенностью: во время сезона дождей воды Ориноко меняют направление течения и начинают течь вспять.",
        "name_en": "Orinoco",
        "hard_enabled": true
      }
    },
    {
      "type": "Feature",
      "geometry": null,
      "properties": {
        "name": "Река Замбези",
        "description": "Вторая по длине река Африки, знаменитая своим водопадом Виктория — одним из крупнейших водопадов планеты.",
        "name_en": "Zambezi",
        "hard_enabled": true
      }
    },
    {
      "type": "Feature",
      "geometry": null,
      "properties": {
        "name": "Река Нил",
        "description": "Древнейшая цивилизация Египта возникла именно вдоль берегов Нила благодаря плодородному илу, приносимому ежегодно разливающимися водами реки.",
        "name_en": "Nile",
        "hard_enabled": true
      }
    },
    {
      "type": "Feature",
      "geometry": null,
      "properties": {
        "name": "Река Хуанхэ (Желтая река)",
        "description": "Считается колыбелью китайской цивилизации, однако часты наводнения сделали реку ещё известной как «скорбная река Китая».",
        "name_en": "Yellow",
        "hard_enabled": true
      }
    },
    {
      "type": "Feature",
      "geometry": null,
      "properties": {
        "name": "Река Окаванго",
        "description": "Эта река уникальна тем, что теряется среди болот дельты в пустыне Калахари, создавая крупнейший внутренний водоём в мире.",
        "name_en": "Okavango",
        "hard_enabled": true
      }
    },
    {
      "type": "Feature",
      "geometry": {
        "type": "Point",
        "coordinates": [
          25.8400142,
          -17.9296175
        ]
      },
      "properties": {
        "name": "Водопад Виктория",
        "description": "Местные жители называют этот величественный водопад «гремящий дым», намекая на огромные облака водяной пыли, поднимающиеся над ним.",
        "name_en": "Victoria Falls"
      }
    },
    {
      "type": "Feature",
      "geometry": null,
      "properties": {
        "name": "Озеро Ньяса",
        "description": "Одно из глубочайших озёр мира и второе по величине озеро Восточной Африки, изобилующее разнообразием рыб, включая многие эндемичные виды.",
        "name_en": "Malawi"
      }
    },
    {
      "type": "Feature",
      "geometry": null,
      "properties": {
        "name": "Озеро Танганьика",
        "description": "Самое длинное пресноводное озеро планеты, богатое жизнью и занимающее важное место в экосистемах Центральной Африки.",
        "name_en": "Tanganyika"
      }
    },
    {
      "type": "Feature",
      "geometry": null,
      "properties": {
        "name": "Озеро Виктория",
        "description": "Крупнейшее африканское озеро и одно из Великих Африканских озёр, играющее ключевую роль в экономике стран региона.",
        "name_en": "Nyanza"
      }
    },
    {
      "type": "Feature",
      "geometry": null,
      "properties": {
        "name": "Озеро Ханка",
        "description": "Расположено между Приморским краем России и Китаем, является крупнейшим пресноводным озером юга Дальнего Востока России.",
        "name_en": "Khanka"
      }
    },
    {
      "type": "Feature",
      "geometry": null,
      "properties": {
        "name": "Озеро Балхаш",
        "description": "Уникальное озеро Казахстана, имеющее две части с разной степенью солёности воды.",
        "name_en": "Balkhash"
      }
    },
    {
      "type": "Feature",
     "geometry": {
        "coordinates": [
        [
          [
            88.42990028843849,
            39.594058258992135
          ],
          [
            88.43916203879701,
            39.60427794137979
          ],
          [
            88.45364994440394,
            39.579978971506335
          ],
          [
            88.47154676897969,
            39.579978971506335
          ],
          [
            88.45705886337151,
            39.59968149266339
          ],
          [
            88.4425709577634,
            39.61018721288258
          ],
          [
            88.45364989298827,
            39.6187219527059
          ],
          [
            88.43854663449457,
            39.64109308249192
          ],
          [
            88.42746764338932,
            39.64109308249192
          ],
          [
            88.43172879381439,
            39.62599734526799
          ],
          [
            88.41724088236793,
            39.610241759655224
          ],
          [
            88.41042304168775,
            39.610241759655224
          ],
          [
            88.39082174973117,
            39.59842271688814
          ],
          [
            88.37292489961851,
            39.60827206096366
          ],
          [
            88.36184590851326,
            39.58331767292648
          ],
          [
            88.34394907672669,
            39.56820933416654
          ],
          [
            88.34906245723681,
            39.56229647916902
          ],
          [
            88.33883569621537,
            39.528123445853765
          ],
          [
            88.32093886442885,
            39.52746610721792
          ],
          [
            88.31071210340866,
            39.53864001770043
          ],
        
          [
            88.31071180994536,
            39.538640118112085
          ],
          [
            88.31137882519579,
            39.53868256932907
          ],
          [
            88.31232406206112,
            39.54148945570901
          ],
          [
            88.30586084275006,
            39.538787125651055
          ],
          [
            88.30461492095526,
            39.533532293792376
          ],
          [
            88.29865785641721,
            39.53022905036971
          ],
          [
            88.28888515733814,
            39.532421218604526
          ],
          [
            88.27890750731376,
            39.5320670666969
          ],
          [
            88.27689884044327,
            39.53372493875011
          ],

          [
            88.26232734667718,
            39.5341280445912
          ],
          [
            88.2634536461918,
            39.53057497886459
          ],
          [
            88.25103654524901,
            39.533256244563574
          ],
          [
            88.23924301456793,
            39.52971318086094
          ],
          [
            88.23514585458264,
            39.53593740645704
          ],
          [
            88.23812576624033,
            39.54005462350614
          ],
          [
            88.24482790558943,
            39.54015122629133
          ],
          [
            88.24656690328908,
            39.541778805991044
          ],
          [
            88.24482889308922,
            39.544651131149976
          ],
          [
            88.2326690048613,
            39.54665815306291
          ],
          [
            88.2304337491899,
            39.54024492901053
          ],
          [
            88.23452515826222,
            39.53651191245487
          ],
          [
            88.231920555908,
            39.52971352842201
          ],
          [
            88.23365831949678,
            39.526936579166005
          ],
          [
            88.2294356348927,
            39.52023254256278
          ],
          [
            88.2310490683625,
            39.51582658699459
          ],
          [
            88.22931084183756,
            39.515443439520965
          ],
          [
            88.22658005413217,
            39.51984943539222
          ],
          [
            88.22831933118829,
            39.52454242656967
          ],
          [
            88.22596108723468,
            39.52655352844249
          ],
          [
            88.22918950719583,
            39.53325629470004
          ],
          [
            88.22658263067086,
            39.536703099653806
          ],
          [
            88.2221143313023,
            39.53210735399574
          ],
          [
            88.21640058110916,
            39.530575188143416
          ],
          [
            88.21714531010235,
            39.52425501483336
          ],
          [
            88.21962756641523,
            39.52291411015875
          ],
          [
            88.22198688060524,
            39.52195654134272
          ],
          [
            88.22501590858548,
            39.51274740827151
          ],
          [
            88.23499208967974,
            39.50937949174178
          ],
          [
            88.23478418031505,
            39.50328519672232
          ],
          [
            88.21524715850808,
            39.50007873107489
          ],
          [
            88.21982003770984,
            39.5048901804839
          ],
          [
            88.22231399674172,
            39.506814396085076
          ],
          [
            88.21774201419078,
            39.51050283772929
          ],
          [
            88.21607944974767,
            39.50970116792962
          ],
          [
            88.2152482959234,
            39.51242709734399
          ],
          [
            88.2181577930512,
            39.5146717576645
          ],
          [
            88.21566409524235,
            39.516916497257256
          ],
          [
            88.21483291174468,
            39.51851978605592
          ],
          [
            88.21192354033263,
            39.51723723267298
          ],
          [
            88.20797543204645,
            39.52012307322701
          ],
          [
            88.20402723406056,
            39.51868027019941
          ],
          [
            88.20319586528046,
            39.51531352537302
          ],
          [
            88.20568936533385,
            39.514672139131676
          ],
          [
            88.202364570609,
            39.51322927141669
          ],
          [
            88.19800098749607,
            39.51338975018635
          ],
          [
            88.1980011630144,
            39.51595495447128
          ],
          [
            88.19841694318961,
            39.51852003889243
          ],
          [
            88.19509191421247,
            39.518520041584
          ],
          [
            88.19093558843429,
            39.51852004114065
          ],
          [
            88.1900057591298,
            39.52076439367298
          ],
          [
            88.19000589440327,
            39.522367451886566
          ],
          [
            88.18647304003332,
            39.522367451886566
          ],
          [
            88.18397926047652,
            39.522367451886566
          ],
          [
            88.18335606112487,
            39.52493224982808
          ],
          [
            88.17795333314581,
            39.52909979658327
          ],
          [
            88.17483632126766,
            39.53070261679838
          ],
          [
            88.18501545918969,
            39.54080088040976
          ],
          [
            88.19249930042145,
            39.53919741496048
          ],
          [
            88.1852271293182,
            39.532946488208495
          ],
          [
            88.18775144091745,
            39.53293765933455
          ],
          [
            88.18932084852986,
            39.53573421332828
          ],
          [
            88.19137739838158,
            39.536777669993114
          ],
          [
            88.19235157555312,
            39.538655831771706
          ],
          [
            88.19332572809435,
            39.53869756761023
          ],
          [
            88.19159389159802,
            39.53494116788036
          ],
          [
            88.19175626694101,
            39.533688980663385
          ],
          [
            88.19646467043356,
            39.53510810829991
          ],
          [
            88.20373723725237,
            39.54138939467944
          ],
          [
            88.20706897436304,
            39.54220891503391
          ],
          [
            88.19834949635123,
            39.53488330241805
          ],
          [
            88.19927109490311,
            39.53313369774381
          ],
          [
            88.20550944008119,
            39.53384444426422
          ],
          [
            88.2101166740448,
            39.5394202125419
          ],
          [
            88.20565125732816,
            39.53892902474911
          ],
          [
            88.20905350373516,
            39.54182562269264
          ],
          [
            88.20912433198987,
            39.54270014174645
          ],
          [
            88.20507262103865,
            39.54286996070766
          ],
          [
            88.20125354229049,
            39.541198360287865
          ],
          [
            88.19640177482302,
            39.536979127269234
          ],
          [
            88.19805341009186,
            39.5395266046649
          ],
          [
            88.19753726993014,
            39.54056149771901
          ],
          [
            88.20259554208639,
            39.54414378992101
          ],
          [
            88.20300816906183,
            39.54661111664598
          ],
          [
            88.20507276858189,
            39.550352232146906
          ],
          [
            88.19671147207293,
            39.55242169042805
          ],
          [
            88.19433719608213,
            39.55194434654467
          ],
          [
            88.19103363034446,
            39.54557672929178
          ],
          [
            88.18360047543297,
            39.54629333683954
          ],
          [
            88.1905175073656,
            39.55003436789758
          ],
          [
            88.19185962275924,
            39.553536401228286
          ],
          [
            88.19371784888659,
            39.55536672596682
          ],
          [
            88.19526633541034,
            39.557913130299596
          ],
          [
            88.19681470891112,
            39.55942527718702
          ],
          [
            88.19107181199547,
            39.55953512739356
          ],
          [
            88.18865519784254,
            39.562728978171066
          ],
          [
            88.19003609771016,
            39.56791863782644
          ],
          [
            88.1867444398743,
            39.5701745801488
          ],
          [
            88.17745276795148,
            39.5670492807196
          ],
          [
            88.17458201650936,
            39.56874211115587
          ],
          [
            88.17001959818543,
            39.56691905217133
          ],
          [
            88.16714612398351,
            39.566788828140005
          ],
          [
            88.16360113338851,
            39.568481719579694
          ],
          [
            88.14265166886713,
            39.555848613649516
          ],
          [
            88.13961095090974,
            39.555197386018335
          ],
          [
            88.14501572431425,
            39.560928086974684
          ],
          [
            88.14400195118259,
            39.565356241565496
          ],
          [
            88.14924043002696,
            39.567179509423426
          ],
          [
            88.1509299771937,
            39.56535628675016
          ],
          [
            88.15871002125118,
            39.57043418391501
          ],
          [
            88.16104945599096,
            39.57229526352356
          ],
          [
            88.16019441956433,
            39.578548128082076
          ],
          [
            88.16663683714972,
            39.58088001741348
          ],
          [
            88.16413266655303,
            39.587105197031434
          ],
          [
            88.15951607210263,
            39.59404486257526
          ],
          [
            88.15089957398607,
            39.59651390536152
          ],
          [
            88.14633872169225,
            39.60198350880171
          ],
          [
            88.14583319949645,
            39.59781720232439
          ],
          [
            88.1468453602925,
            39.596124172731436
          ],
          [
            88.14330160619352,
            39.59443332808294
          ],
          [
            88.14109687619123,
            39.5888296447161
          ],
          [
            88.13923939313253,
            39.58531418694241
          ],
          [
            88.12604902191623,
            39.57488691918081
          ],
          [
            88.12250288676705,
            39.580101128314055
          ],
          [
            88.11995560130873,
            39.57800855091725
          ],
          [
            88.12198404080613,
            39.5743601290512
          ],
          [
            88.1192793479438,
            39.573969227331474
          ],
          [
            88.12299854493125,
            39.57136319130339
          ],
          [
            88.1219843102865,
            39.56914786169355
          ],
          [
            88.11894142035709,
            39.56745359944418
          ],
          [
            88.1165746890818,
            39.566020740116386
          ],
          [
            88.11353182869908,
            39.56185021432711
          ],
          [
            88.11251865610006,
            39.55924660378702
          ],
          [
            88.11151820300239,
            39.55450427140582
          ],
          [
            88.11371304028717,
            39.5543703241126
          ],
          [
            88.11557096018191,
            39.55332472312034
          ],
          [
            88.1183521689066,
            39.55397297018038
          ],
          [
            88.1190280438467,
            39.54915085975708
          ],
          [
            88.11547905624349,
            39.546023582399556
          ],
          [
            88.11378955102896,
            39.542765650020954
          ],
          [
            88.12798035759033,
            39.54810832475394
          ],
          [
            88.13186492094212,
            39.547717485728356
          ],
          [
            88.13693494503718,
            39.547326653352656
          ],
          [
            88.14150019653567,
            39.551365599616474
          ],
          [
            88.1479235173801,
            39.55332020778903
          ],
          [
            88.1513046839641,
            39.55305982155366
          ],
          [
            88.15231989704114,
            39.551496373694874
          ],
          [
            88.14555652964992,
            39.550062796192236
          ],
          [
            88.14285110491801,
            39.54849923028854
          ],
          [
            88.14640178016947,
            39.54784780092814
          ],
          [
            88.14049401467986,
            39.543938030297795
          ],
          [
            88.12646159732577,
            39.54446013679862
          ],
          [
            88.11581746473831,
            39.54237467686471
          ],
          [
            88.11108579963718,
            39.54002868421725
          ],
          [
            88.09756552396124,
            39.537421588243035
          ],
          [
            88.09029804236741,
            39.5370304152415
          ],
          [
            88.096045856883,
            39.541723221337946
          ],
          [
            88.09384874267522,
            39.54706597027018
          ],
          [
            88.0980740389582,
            39.54889020512766
          ],
          [
            88.0980749469262,
            39.55279863862566
          ],
          [
            88.09587829605698,
            39.55358034847342
          ],
          [
            88.09148390184862,
            39.55227785057295
          ],
          [
            88.09655447453315,
            39.556055423740816
          ],
          [
            88.09486340058805,
            39.56217939337594
          ],
          [
            88.09334255262843,
            39.5663480414334
          ],
          [
            88.0941877259981,
            39.56869241915379
          ],
          [
            88.10297516911567,
            39.56634608696572
          ],
          [
            88.1100717839654,
            39.57325274966729
          ],
          [
            88.10939573838141,
            39.58275184295886
          ],
          [
            88.11243728924757,
            39.58379362733626
          ],
          [
            88.11530973503142,
            39.5827517943394
          ],
          [
            88.11869017183074,
            39.5853565347289
          ],
          [
            88.1197049301839,
            39.58718015800952
          ],
          [
            88.1159870706249,
            39.58900380878757
          ],
          [
            88.11412790309413,
            39.59030622317769
          ],
          [
            88.11294481675714,
            39.591738877776095
          ],
          [
            88.11243779509766,
            39.59369251617616
          ],
          [
            88.11378994950746,
            39.59512529227135
          ],
          [
            88.1158182024617,
            39.5951254461703
          ],
          [
            88.11947124499062,
            39.59396178251299
          ],
          [
            88.12149805857604,
            39.59213819639169
          ],
          [
            88.12445699133332,
            39.591356220582924
          ],
          [
            88.13003053524841,
            39.59239709245867
          ],
          [
            88.13121288879836,
            39.59421955785825
          ],
          [
            88.13154682306634,
            39.596560765587185
          ],
          [
            88.12851330561654,
            39.597085500617624
          ],
          [
            88.12746014305156,
            39.59966002125148
          ],
          [
            88.12442043794721,
            39.60264473963403
          ],
          [
            88.1205639581188,
            39.60462564241752
          ],
          [
            88.11921289051014,
            39.60605670965492
          ],
          [
            88.11853566769628,
            39.608655277158135
          ],
          [
            88.1163284569613,
            39.612263164831035
          ],
          [
            88.11350642834049,
            39.616417050106946
          ],
          [
            88.10878553650139,
            39.61941838762894
          ],
          [
            88.10000838425725,
            39.62032535062065
          ],
          [
            88.09476178747087,
            39.616959373173074
          ],
          [
            88.09003480617969,
            39.61240110429654
          ],
          [
            88.08361446137934,
            39.605633205737064
          ],
          [
            88.08734986406932,
            39.604070825095135
          ],
          [
            88.090226166283,
            39.60042508943121
          ],
          [
            88.09512582775153,
            39.598731502259085
          ],
          [
            88.09681790949423,
            39.5967798676742
          ],
          [
            88.09884335491586,
            39.59886085875738
          ],
          [
            88.09884427836431,
            39.60068500482126
          ],
       
          [
            88.0988412832262,
            39.60068571264199
          ],
          [
            88.09806111371773,
            39.600208584888435
          ],
          [
            88.09723196497816,
            39.600860928243634
          ],
          [
            88.09736840717909,
            39.60100649162047
          ],
          [
            88.09826221473281,
            39.60192352807442
          ],
          [
            88.09813170748544,
            39.60313536960274
          ],
          [
            88.09675730540403,
            39.60443867679999
          ],
          [
            88.09440496337794,
            39.60588450452232
          ],
          [
            88.09546219574952,
            39.606576862037684
          ],
          [
            88.09932109390382,
            39.606576862037684
          ],
          [
            88.0997696306635,
            39.61014702465201
          ],
          [
            88.10161978731196,
            39.611144770385266
          ],
          [
            88.10302062020389,
            39.61142983795406
          ],
          [
            88.10471191572913,
            39.613278187667845
          ],
          [
            88.10836371239202,
            39.612742629141025
          ],
          [
            88.11217259463103,
            39.613679045620614
          ],
          [
            88.11226908777536,
            39.61301026187789
          ],
          [
            88.11097091915883,
            39.611336520679515
          ],
          [
            88.10888400920265,
            39.610533086464045
          ],
          [
            88.10836086218063,
            39.60959586626865
          ],
          [
            88.1082730578342,
            39.608658651870485
          ],
          [
            88.10992440151631,
            39.60685092046836
          ],
          [
            88.11114311519981,
            39.60752011064869
          ],
          [
            88.11366332414946,
            39.60450700882757
          ],
       
          [
            88.11366317534146,
            39.60450735443712
          ],
          [
            88.11368346507203,
            39.60440402718578
          ],
          [
            88.11301272918502,
            39.60430067154749
          ],
          [
            88.11302029772673,
            39.6029960589928
          ],
          [
            88.11149013761622,
            39.603226903007595
          ],
          [
            88.11028471059421,
            39.60197121593379
          ],
          [
            88.11113339213176,
            39.60112408925946
          ],
          [
            88.10849911013088,
            39.59959990603568
          ],
          [
            88.10889474415649,
            39.59655979652959
          ],
          [
            88.10753708825081,
            39.59579634635793
          ],
          [
            88.1087703371449,
            39.59131985336174
          ],
          [
            88.11074767655742,
            39.591129529102346
          ],
          [
            88.1089339948129,
            39.58925504999203
          ],
          [
            88.10745187929734,
            39.58811161529738
          ],
          [
            88.10720401800666,
            39.5766752336784
          ],
          [
            88.09817932427126,
            39.569814705928536
          ],
          [
            88.09743606759525,
            39.5719108245556
          ],
          [
            88.09165076930805,
            39.58139669077937
          ],
          [
            88.08287017931758,
            39.57196567167995
          ],
          [
            88.0832103694878,
            39.56366105540192
          ],
          [
            88.09025759050076,
            39.55774885745737
          ],
          [
            88.08345469049584,
            39.547448999393794
          ],
          [
            88.07281798876414,
            39.54744914252481
          ],
          [
            88.07207518981107,
            39.552026452265665
          ],
          [
            88.07504771296055,
            39.55508027168577
          ],
          [
            88.07232878665428,
            39.56003851662362
          ],
          [
            88.02534935198321,
            39.52516302594506
          ],
          [
            88.02134377985459,
            39.53005145048593
          ],
          [
            88.02698645893577,
            39.534225914008516
          ],
          [
            88.0235075030804,
            39.53715077514212
          ],
          [
            88.02503776829997,
            39.53940053990911
          ],
          [
            88.01911313822484,
            39.54597290960592
          ],
          [
            88.01802286672535,
            39.55360652544124
          ],
          [
            88.02259716455478,
            39.55486332283709
          ],
          [
            88.0217307153356,
            39.56081275253135
          ],
          [
            88.02314708018508,
            39.567343067426634
          ],
          [
            88.01500615606017,
            39.58057416987114
          ],
          [
            88.02186349800422,
            39.58224490319421
          ],
          [
            88.02142606807234,
            39.58509916712407
          ],
          [
            88.0249071694468,
            39.586254100260334
          ],
          [
            88.0220015370607,
            39.58873398368854
          ],
          [
            88.01721976652459,
            39.58905481235456
          ],
          [
            88.01524978318719,
            39.590412824713496
          ],
          [
            88.01197940889057,
            39.58871870100231
          ],
          [
            88.00882428345056,
            39.59209148949583
          ],
          [
            88.00401595400024,
            39.59401563163743
          ],
          [
            88.00064023784677,
            39.59964620649069
          ],
          [
            87.9983446915889,
            39.5986387383183
          ],
          [
            87.99278387768175,
            39.60099160440069
          ],
          [
            87.99071017272092,
            39.60603420838109
          ],
          [
            87.99355014673591,
            39.606872481063306
          ],
          [
            87.99736806457582,
            39.60485546577476
          ],
          [
            88.00293897085896,
            39.604344205812936
          ],
          [
            88.00325846229225,
            39.60703769592712
          ],
          [
            88.00216393735622,
            39.60914238489485
          ],
          [
            88.0058720042889,
            39.60998287482829
          ],
          [
            88.00761694217454,
            39.61191579352885
          ],
          [
            88.01176159846756,
            39.612419735727485
          ],
          [
            88.01568498035431,
            39.61223361091854
          ],
          [
            88.02167773199841,
            39.62555682873281
          ],
          [
            88.01751954099689,
            39.632569725041975
          ],
          [
            88.00498206015328,
            39.63956598698891
          ],
          [
            88.00556603650244,
            39.654813616309156
          ],
          [
            88.00851426588099,
            39.66339497724181
          ],
          [
            88.00713373380495,
            39.67214010808854
          ],
          [
            88.00661125443969,
            39.67495662837129
          ],
          [
            88.00365053948428,
            39.680518785087145
          ],
          [
            88.00302122626499,
            39.692964404051935
          ],
          [
            87.99890362323328,
            39.70092334245902
          ],
          [
            87.99803105589467,
            39.7110591686008
          ],
          [
            87.99849450510652,
            39.71684051401863
          ],
          [
            87.99849497439612,
            39.716840581059984
          ],
          [
            87.98716095469672,
            39.716092713288134
          ],
          [
            87.9841263252788,
            39.71283345765417
          ],
          [
            87.97359586141698,
            39.70376328236577
          ],
          [
            87.97702726870085,
            39.69781015498285
          ],
          [
            87.97714636434341,
            39.69760830899665
          ],
          [
            87.98177065335244,
            39.69803555374028
          ],
          [
            87.99164670332374,
            39.68876085655177
          ],
          [
            87.99308641231488,
            39.679656344928276
          ],
          [
            87.98274607300033,
            39.664998178482534
          ],
          [
            87.9829782086685,
            39.656368409040454
          ],
          [
            87.9769957964798,
            39.64772071821605
          ],
          [
            87.97697813740393,
            39.64766558840185
          ],
          [
            87.99370986093766,
            39.64158721813166
          ],
          [
            87.99532778197198,
            39.63908171634796
          ],
          [
            87.99482851923199,
            39.63368249332166
          ],
          [
            87.99481903333094,
            39.63364344011279
          ],
          [
            87.9926697067284,
            39.62803236839548
          ],
          [
            87.98907955925517,
            39.62391964235536
          ],
          [
            87.98749311070509,
            39.622635473569915
          ],
          [
            87.98182246076118,
            39.61408705017942
          ],
          [
            87.97590095267356,
            39.609014167646194
          ],
          [
            87.97740027316678,
            39.6075936466942
          ],
          [
            87.98524341952759,
            39.60720707936838
          ],
          [
            87.98733261504645,
            39.606302418952964
          ],
          [
            87.98800145160862,
            39.5993605838554
          ],
          [
            87.98357744193675,
            39.593094949969185
          ],
          [
            87.97776292221835,
            39.58688488994457
          ],
          [
            87.9787600861473,
            39.5856685225522
          ],
          [
            87.98224674433072,
            39.585027990920054
          ],
          [
            87.99429555866914,
            39.58682108154969
          ],
          [
            88.00085919495041,
            39.58509200817903
          ],
          [
            88.00118665824647,
            39.582788334363215
          ],
          [
            88.00617817253959,
            39.58233806638734
          ],
          [
            88.006342771351,
            39.581185793635996
          ],
          [
            88.00559512068156,
            39.57529386238966
          ],
          [
            88.00293410458937,
            39.57433532192658
          ],
          [
            88.00326160034427,
            39.57339982412637
          ],
          [
            88.00274307852533,
            39.57310291735948
          ],
          [
            88.00212085234432,
            39.573942246667116
          ],
          [
            88.00155788580071,
            39.573850891589245
          ],
          [
            88.00175788707276,
            39.57290307555036
          ],
          [
            87.99906503440991,
            39.57201189397074
          ],
          [
            87.99299558935502,
            39.56380668040296
          ],
          [
            87.99259841569142,
            39.56189055203103
          ],
          [
            87.98056518585207,
            39.55338083964148
          ],
          [
            87.97240989497965,
            39.546247103443335
          ],
          [
            87.9555067976031,
            39.53666396077554
          ],
          [
            87.95408912709223,
            39.5352937775493
          ],
          [
            87.9580681033284,
            39.531382430161926
          ],
          [
            87.96034770591467,
            39.53176713492937
          ],
          [
            87.96532813098122,
            39.52954169815294
          ],
          [
            87.97586032555466,
            39.52854577277739
          ],
          [
            87.98978346395643,
            39.529160191560436
          ],
          [
            87.98959885175935,
            39.52889204829043
          ],
          [
            87.99318594756636,
            39.527576980217106
          ],
          [
            87.99378379689512,
            39.52709022789463
          ],
          [
            87.9935845137947,
            39.52674010571573
          ],
          [
            87.9930752347608,
            39.527278097604324
          ],
          [
            87.99250163558804,
            39.5266775078928
          ],
          [
            87.9926695347383,
            39.52560908035872
          ],
          [
            87.99363495484721,
            39.52428161718902
          ],
          [
            87.9909869406435,
            39.51714559342659
          ],
          [
            87.9940857687265,
            39.51257899140455
          ],
          [
            87.99138667409403,
            39.50571528359691
          ],
          [
            87.98747939231049,
            39.50623152442259
          ],
          [
            87.9841032602265,
            39.50300799194068
          ],
          [
            87.97964954928642,
            39.50592306786044
          ],
          [
            87.98046144246376,
            39.507066953948026
          ],
          [
            87.98113464970686,
            39.505714463839354
          ],
          [
            87.98249187417917,
            39.506647061567236
          ],
          [
            87.97762810075017,
            39.51164649244217
          ],
          [
            87.97763281950859,
            39.51330809619995
          ],
          [
            87.9810028399682,
            39.51330944970766
          ],
          [
            87.98356907640095,
            39.51330536316809
          ],
          [
            87.98357414360913,
            39.51454735899205
          ],
          [
            87.98101074190271,
            39.517877766149184
          ],
          [
            87.98223089850592,
            39.5208822786733
          ],
          [
            87.97898753906924,
            39.52380656331994
          ],
          [
            87.9776398737659,
            39.524429894394046
          ],
          [
            87.97535604154308,
            39.519846726365074
          ],
          [
            87.97129156187566,
            39.513101556382
          ],
          [
            87.96764477351616,
            39.508420521639664
          ],
          [
            87.95944614834195,
            39.501341694770076
          ],
          [
            87.95970106562373,
            39.49239369296873
          ],
          [
            87.95601835626115,
            39.489059685834945
          ],
          [
            87.95034825400955,
            39.48728892387879
          ],
          [
            87.94963543900178,
            39.49624827868968
          ],
          [
            87.95282932128765,
            39.50102961407464
          ],
          [
            87.94942012238977,
            39.50394393961963
          ],
          [
            87.95108817393793,
            39.50581219556233
          ],
          [
            87.94586555740028,
            39.51201050074326
          ],
          [
            87.94327000179294,
            39.51547446185688
          ],
          [
            87.9395767561349,
            39.523071013844145
          ],
          [
            87.93894115475098,
            39.528032661163024
          ],
          [
            87.93161545720517,
            39.53514361820291
          ],
          [
            87.93215421804723,
            39.535953973011345
          ],
          [
            87.93251108440654,
            39.5362041765232
          ],
          [
            87.93341947150503,
            39.535478583854115
          ],
          [
            87.93364656827828,
            39.536179156212796
          ],
          [
            87.93153781251596,
            39.53745518055629
          ],
          [
            87.9328679507658,
            39.54205868124808
          ],
          [
            87.93492328162625,
            39.53909409877454
          ],
          [
            87.93585064576394,
            39.540524760215334
          ],
          [
            87.93437793733403,
            39.542369886382005
          ],
          [
            87.93397530829361,
            39.54840626625037
          ],
          [
            87.93173127831881,
            39.54942196479632
          ],
          [
            87.9327945817933,
            39.55166876919887
          ],
          [
            87.93623142247748,
            39.55157560212206
          ],
          [
            87.93755306681436,
            39.553728417151035
          ],
          [
            87.94153818816932,
            39.55188029835293
          ],
          [
            87.94606368790767,
            39.553682578515975
          ],
          [
            87.93598754449823,
            39.56054829942579
          ],
          [
            87.93360451623857,
            39.56044596747088
          ],
          [
            87.93081799596001,
            39.5509563383026
          ],
          [
            87.92580108184745,
            39.5435990257038
          ],
          [
            87.9292086500621,
            39.54238416738659
          ],
          [
            87.92709839773937,
            39.53798800366988
          ],
          [
            87.9255118619468,
            39.537885465259336
          ],
          [
            87.92430655561941,
            39.53338965763365
          ],
          [
            87.90795866448013,
            39.51951674560675
          ],
          [
            87.90438299922158,
            39.51594189835467
          ],
          [
            87.90358643576718,
            39.514000513236255
          ],
          [
            87.90514997907434,
            39.50800735226318
          ],
          [
            87.9104781285123,
            39.504427465704936
          ],
          [
            87.91030045270469,
            39.50056471504726
          ],
          [
            87.90817281261764,
            39.50194248856013
          ],
          [
            87.90746043404727,
            39.499046175909854
          ],
          [
            87.90228510623655,
            39.49490884904279
          ],
          [
            87.90228034802544,
            39.493253802421634
          ],
          [
            87.89959951430711,
            39.49049541926192
          ],
          [
            87.89977230189896,
            39.488701796640726
          ],
          [
            87.90299090194651,
            39.49228814557543
          ],
          [
            87.90369960737769,
            39.4906324997371
          ],
          [
            87.90155025558545,
            39.48745917672409
          ],
          [
            87.90833442329199,
            39.481110705720766
          ],
          [
            87.90674505772563,
            39.47697680943435
          ],
          [
            87.91548206475073,
            39.47531347670258
          ],
          [
            87.91638604380307,
            39.47131565851285
          ],
          [
            87.91317815817331,
            39.46952630591937
          ],
          [
            87.91103241359934,
            39.47283719319037
          ],
          [
            87.90657280123202,
            39.47532343770936
          ],
          [
            87.89941358165953,
            39.475872103381676
          ],
          [
            87.89655580341815,
            39.47807999914215
          ],
          [
            87.89887719291045,
            39.485115120435694
          ],
          [
            87.89297960215868,
            39.486632609516676
          ],
          [
            87.88760227928572,
            39.481387864635025
          ],
          [
            87.88575917860521,
            39.47831262410463
          ],
          [
            87.88200427434157,
            39.47334609345779
          ],
          [
            87.87467937877545,
            39.47003331706247
          ],
          [
            87.869316429852,
            39.46437614306802
          ],
          [
            87.87984802386808,
            39.4638262092337
          ],
          [
            87.8923659057977,
            39.46465413189074
          ],
          [
            87.89415384713413,
            39.46368788869185
          ],
          [
            87.89701239036799,
            39.44974374256398
          ],
          [
            87.88306645127795,
            39.44725886721409
          ],
          [
            87.87394835702474,
            39.443116812885364
          ],
          [
            87.87234026370425,
            39.440907901853706
          ],
          [
            87.87234084477689,
            39.438836872800294
          ],
          [
            87.89200559031377,
            39.4352438886703
          ],
          [
            87.90362874156136,
            39.43993942302302
          ],
          [
            87.92848504954696,
            39.44173368095127
          ],
          [
            87.93635435130187,
            39.4444950682049
          ],
          [
            87.9486942181033,
            39.4428377197288
          ],
          [
            87.97481371545848,
            39.45899465329765
          ],
          [
            87.97857403990247,
            39.46659023796124
          ],
          [
            87.98804672051222,
            39.470275422685916
          ],
          [
            87.99090869170561,
            39.479386603484556
          ],
          [
            87.9984207641831,
            39.482975585970564
          ],
          [
            88.00700592438915,
            39.48601235826408
          ],
          [
            88.01326571550408,
            39.48228534762734
          ],
       
          [
            88.01375873542884,
            39.48181811847951
          ],
          [
            88.01322846748593,
            39.48230924469354
          ],
          [
            88.01407689623824,
            39.481572553934456
          ],
          [
            88.02340964772566,
            39.48370076068696
          ],
          [
            88.02606203355191,
            39.48428847514549
          ],
          [
            88.05412028532731,
            39.494472868608966
          ],
          [
            88.05851834362716,
            39.50045602465906
          ],
          [
            88.06928112715457,
            39.499072064802704
          ],
          [
            88.07316719177584,
            39.48984403581963
          ],
          [
            88.09648713133737,
            39.48269119480699
          ],
          [
            88.10575791857832,
            39.48592115690877
          ],
          [
            88.13386386072051,
            39.48084427265442
          ],
          [
            88.14104005219923,
            39.48269032341045
          ],
          [
            88.14432889199804,
            39.478998022594794
          ],
          [
            88.13625390963603,
            39.473921301782326
          ],
          [
            88.14190103873301,
            39.47509074920825
          ],
          [
            88.17119776518393,
            39.48085984280641
          ],
        
          [
            88.17119732282202,
            39.48086004659595
          ],
          [
            88.17162809901282,
            39.481051999289406
          ],
          [
            88.17366829285083,
            39.47952326876208
          ],
          [
            88.16670705859576,
            39.47436523140942
          ],
          [
            88.15825683751876,
            39.47091615559526
          ],
          [
            88.15703533714594,
            39.46879452171916
          ],
          [
            88.15943829250506,
            39.464121133171574
          ],
          [
            88.17090764949211,
            39.46274952625191
          ],
          [
            88.17526915649267,
            39.46175158846151
          ],
          [
            88.17510875951092,
            39.45800904250194
          ],
          [
            88.18819410163678,
            39.46212577268949
          ],
          [
            88.19013398432662,
            39.46112789451553
          ],
          [
            88.18351008571074,
            39.4576350400564
          ],
          [
            88.18173341832045,
            39.455763491768806
          ],
          [
            88.18593472029528,
            39.45227004448344
          ],
          [
            88.18334976270603,
            39.451022101609
          ],
          [
            88.17106923161958,
            39.45164650023398
          ],
          [
            88.17155393214591,
            39.44940097584575
          ],
          [
            88.18154656802056,
            39.43906737711552
          ],
          [
            88.16782891985747,
            39.430102521305685
          ],
          [
            88.1720495856469,
            39.409724034677595
          ],
          [
            88.19420894003383,
            39.40157045754842
          ],
          [
            88.20476096366787,
            39.393416261623855
          ],
          [
            88.22375471621916,
            39.403201032730266
          ],
          [
            88.24485879031772,
            39.41706067178711
          ],
          [
            88.25764052714067,
            39.41753951474405
          ],
          [
            88.2625378802835,
            39.434992574016206
          ],
          [
            88.26048557657128,
            39.444267268814485
          ],
          [
            88.26965059120255,
            39.44414534372149
          ],
          [
            88.2747071439357,
            39.44585371848126
          ],
          [
            88.2813426412626,
            39.44011818561094
          ],
          [
            88.26838419027166,
            39.434138384695274
          ],
          [
            88.26752124339231,
            39.43490596108191
          ],
          [
            88.26654724278967,
            39.4349872846185
          ],
          [
            88.26644195881056,
            39.43702039685715
          ],
          [
            88.26441499039737,
            39.43901275382444
          ],
          [
            88.26362526978318,
            39.43913472544202
          ],
          [
            88.26312511433702,
            39.43514993087368
          ],
          [
            88.26867946433543,
            39.43325910861225
          ],
          [
            88.27402934502811,
            39.43286484252988
          ],
          [
            88.27728167694312,
            39.43012444376728
          ],
          [
            88.28174235699419,
            39.428373720764
          ],
          [
            88.28824684516985,
            39.42654671601218
          ],
          [
            88.29090778752789,
            39.42647057404369
          ],
          [
            88.29090773299038,
            39.42814531113365
          ],
          [
            88.28893665018757,
            39.42883042216911
          ],
          [
            88.28962647682306,
            39.430276722616185
          ],
          [
            88.28933067588696,
            39.43446316776186
          ],
          [
            88.28933063605785,
            39.43514818656101
          ],
          [
            88.3002696946167,
            39.43408259690244
          ],
          [
            88.29595392638225,
            39.432484553117035
          ],
          [
            88.29408131309714,
            39.42723096241306
          ],
          [
            88.29684963076795,
            39.421369229515534
          ],
          [
            88.29234857756938,
            39.41567928051225
          ],
          [
            88.28334647117111,
            39.408408114244025
          ],
          [
            88.28743833771523,
            39.40651116355454
          ],
          [
            88.27188881299992,
            39.39417999909304
          ],
          [
            88.28252797360472,
            39.387538897047506
          ],
          [
            88.29889556403998,
            39.4147309105239
          ],
          [
            88.3152630302178,
            39.40145237611054
          ],
          [
            88.33449480297645,
            39.40524650109367
          ],
          [
            88.34732893172037,
            39.403437996406694
          ],
          [
            88.35157891360518,
            39.38975356331932
          ],
          [
            88.38912042023895,
            39.38208910830963
          ],
          [
            88.40116203557369,
            39.37113842674165
          ],
          [
            88.3643288592537,
            39.36621005963599
          ],
          [
            88.33599564669947,
            39.36182899688069
          ],
          [
            88.31545406759699,
            39.35032739967261
          ],
          [
            88.31757905853846,
            39.34156300708571
          ],
          [
            88.30907909477276,
            39.3399195611145
          ],
          [
            88.30804364348973,
            39.33785549513797
          ],
          [
            88.33665348340298,
            39.34139558007956
          ],
          [
            88.31621771605097,
            39.32660183256661
          ],
          [
            88.31004476693886,
            39.32900286437663
          ],
          [
            88.29287745369516,
            39.32108731406004
          ],
          [
            88.30891346810722,
            39.3210860198474
          ],
          [
            88.31105177554241,
            39.31695065193145
          ],
          [
            88.32281215855562,
            39.32163740870274
          ],
          [
            88.3096269603729,
            39.313368919715145
          ],
          [
            88.28994788467281,
            39.30804855297967
          ],
          [
            88.28650049408753,
            39.30164983815823
          ],
          [
            88.26492124275751,
            39.29431869068037
          ],
          [
            88.25702611958985,
            39.289430360592775
          ],
          [
            88.26018443056051,
            39.28617114044033
          ],
          [
            88.32808497898031,
            39.315496865651085
          ],
          [
            88.33808822358128,
            39.312239565146
          ],
          [
            88.36546442814245,
            39.339117079211206
          ],
          [
            88.38599704459921,
            39.33748838424745
          ],
          [
            88.40231777740053,
            39.33830275874348
          ],
          [
            88.38968237268409,
            39.34807450762358
          ],
          [
            88.4123208061331,
            39.36313661042922
          ],
          [
            88.4312739132069,
            39.34685311372647
          ],
          [
            88.43211515038428,
            39.346850611615196
          ],
          [
            88.43802153475434,
            39.341870548134466
          ],
          [
            88.4944960419366,
            39.35770221294274
          ],
          [
            88.50165178250592,
            39.35839381358372
          ],
          [
            88.51506879607473,
            39.35943120170711
          ],
          [
            88.52311896265866,
            39.36461791767056
          ],
          [
            88.5490585656367,
            39.368519121303024
          ],
          [
            88.58483726848613,
            39.38995223679163
          ],
          [
            88.64569260728962,
            39.41172099553694
          ],
          [
            88.70080125792396,
            39.4238848337057
          ],
          [
            88.70736181157048,
            39.442126610997946
          ],
          [
            88.74410091199456,
            39.43908664646705
          ],
          [
            88.7782157909582,
            39.45631135777168
          ],
          [
            88.83463655232185,
            39.46846741214779
          ],
          [
            88.85169399180461,
            39.46846741214779
          ],
          [
            88.92579077961864,
            39.51841090441718
          ],
          [
            88.92579077961864,
            39.529544087266714
          ],
          [
            88.9323513332651,
            39.543711011267106
          ],
          [
            88.91004545086702,
            39.55180509821545
          ],
       
          [
            88.9100457340005,
            39.551806636007
          ],
          [
            88.90852047828241,
            39.54903599586544
          ],
          [
            88.8982030595825,
            39.53940168591657
          ],
          [
            88.88192101185598,
            39.54182596152435
          ],
          [
            88.87464756302876,
            39.532763018544216
          ],
          [
            88.8731313343846,
            39.514750975171864
          ],
          [
            88.86100069592487,
            39.50562589694235
          ],
          [
            88.83067547226119,
            39.49907469347505
          ],
          [
            88.82157900615488,
            39.506796928508095
          ],
          [
            88.7969173538242,
            39.49934869829664
          ],
          [
            88.7928069755983,
            39.48745381092459
          ],
          [
            88.77071369263263,
            39.47952275539549
          ],
          [
            88.76608951712848,
            39.47397047838356
          ],
          [
            88.75118939605807,
            39.47753985019304
          ],
          [
            88.73526168043134,
            39.473177259777
          ],
          [
            88.72293054575357,
            39.46603788534509
          ],
          [
            88.71162700563093,
            39.46484791838793
          ],
          [
            88.69980966823147,
            39.470797549693145
          ],
          [
            88.67411980431666,
            39.47436708429538
          ],
          [
            88.67874397982223,
            39.46326126412632
          ],
          [
            88.66487145330836,
            39.455724162397416
          ],
          [
            88.66024727780427,
            39.46326126412632
          ],
          [
            88.65921968324778,
            39.47000429491101
          ],
          [
            88.65408171046391,
            39.469607664128546
          ],
          [
            88.64586095401211,
            39.46365793108299
          ],
          [
            88.64020918395153,
            39.464054595778805
          ],
          [
            88.65202652135093,
            39.47714326236945
          ],
          [
            88.64586095401211,
            39.48031590164868
          ],
          [
            88.62839184655058,
            39.469607664128546
          ],
          [
            88.62119868465527,
            39.46683118534551
          ],
          [
            88.61451932003672,
            39.46683118534551
          ],
          [
            88.62839184655058,
            39.47753985019304
          ],
          [
            88.62582286015942,
            39.48626421025435
          ],
          [
            88.63661260300239,
            39.49617692732653
          ],
          [
            88.61862969826404,
            39.4977628309025
          ],
          [
            88.59807780713311,
            39.48467804437155
          ],
          [
            88.60578476630667,
            39.46524457630116
          ],
          [
            88.59686407847818,
            39.45374830383008
          ],
          [
            88.57312402174921,
            39.44371763301629
          ],
          [
            88.55879040259163,
            39.43541529551263
          ],
          [
            88.53370656906554,
            39.42953387440002
          ],
          [
            88.53549827146009,
            39.43922065637278
          ],
          [
            88.5301231642764,
            39.43922065637278
          ],
          [
            88.51982087550783,
            39.43922065637278
          ],
          [
            88.51937294990796,
            39.43195569616191
          ],
          [
            88.53057108987514,
            39.43126375567664
          ],
          [
            88.52161257790237,
            39.42538198411128
          ],
          [
            88.52206050350105,
            39.41638537321302
          ],
          [
            88.51489369392158,
            39.41707746143186
          ],
          [
            88.51534161952026,
            39.4239979657105
          ],
          [
            88.50951858673795,
            39.423305946203044
          ],
          [
            88.50727895874485,
            39.42607398300464
          ],
          [
            88.48891400919945,
            39.41638537321302
          ],
          [
            88.49608081877767,
            39.40392661037109
          ],
          [
            88.50324762835714,
            39.400119322162766
          ],
          [
            88.50190385155992,
            39.39631182613172
          ],
          [
            88.49428911638034,
            39.39354260745003
          ],
          [
            88.4826430508146,
            39.39700411346686
          ],
          [
            88.48488267880776,
            39.40184993334762
          ],
          [
            88.47592416683506,
            39.40358050172097
          ],
          [
            88.46875735725689,
            39.400465447732216
          ],
          [
            88.45979884196993,
            39.40946411065039
          ],
          [
            88.466987403112,
            39.423546279971475
          ],
          [
            88.46252950412247,
            39.43789315696813
          ],
          [
            88.44246896036782,
            39.438466970573046
          ],
          [
            88.43578211244755,
            39.433302477964475
          ],
          [
            88.41126367007865,
            39.44076217772431
          ],
          [
            88.40531980526248,
            39.45166337884601
          ],
          [
            88.37560048117945,
            39.470019439020945
          ],
          [
            88.36742766705714,
            39.474607697633814
          ],
          [
            88.40531980526248,
            39.5021308945544
          ],
          [
            88.43132421383535,
            39.515888407391515
          ],
          [
            88.39788993805081,
            39.521046808837895
          ],
          [
            88.41646452732215,
            39.536341311706934
          ],
          [
            88.42909524850614,
            39.53806030403862
          ],
          [
            88.42760928130798,
            39.54493584765842
          ],
          [
            88.42092242891647,
            39.54493584765842
          ],
          [
            88.43652508449668,
            39.558112068975674
          ],
          [
            88.44172596969008,
            39.56670390856428
          ],
          [
            88.44062716686204,
            39.577959558959776
          ],
          [
            88.43723973492229,
            39.58448648058129
          ],
          [
            88.42990028843849,
            39.594058258992135
          ]
        ]],
        "type": "Polygon"
      },
      "properties": {
        "name": "Озеро Лобнор",
        "description": "Ранее крупнейшее внутриконтинентальное озеро Китая, ныне высохло вследствие изменения климата и хозяйственной деятельности.",
        "name_en": "Lake Lop Nur"
      }
    },
    {
      "type": "Feature",
      "geometry": null,
      "properties": {
        "name": "Горная система Анды",
        "description": "Самая протяжённая горная цепь Западного полушария, протянувшаяся почти на 7 тысяч километров.",
        "name_en": "Andes"
      }
    },
    {
      "type": "Feature",
      "geometry": null,
      "properties": {
        "name": "Горная система Тибет",
        "description": "Плато, расположенное на высоте более 4 км, считается самой высокой территорией на Земле и часто называется «Крышей мира».",
        "name_en": "Tibetan Plateau"
      }
    },
    {
      "type": "Feature",
      "geometry": null,
      "properties": {
        "name": "Горная система Куньлунь",
        "description": "Китайская гора мифического бессмертия, согласно древним легендам там обитают боги и духи.",
        "name_en": "Kunlun Mountains"
      }
    },
    {
      "type": "Feature",
      "geometry": null,
      "properties": {
        "name": "Горная система Тянь-Шань",
        "description": "Название буквально означает «Небесные горы», эта цепь включает высочайшие вершины Средней Азии.",
        "name_en": "Tian Shan"
      }
    },
    {
      "type": "Feature",
      "geometry": null,
      "properties": {
        "name": "Озеро Иссык-Куль",
        "description": "Второе по глубине солёное озеро Азии, окружённое живописными горами Тянь-Шаня.",
        "name_en": "Issyk-Kul"
      }
    },
    {
      "type": "Feature",
      "geometry": null,
      "properties": {
        "name": "Горная система Памир",
        "description": "Место встречи нескольких горных систем Евразии, известное своими труднопроходимыми перевалами и суровыми климатическими условиями.",
        "name_en": "Pamir Mountains"
      }
    }
  ]
}