{
  "type": "FeatureCollection",
  "features": [
    {
      "type": "Feature",
      "properties": {
        "name": "Амур",
        "name_en": "Amur",
        "description": "Амур — одна из крупнейших рек Дальнего Востока, протекает по России и Китаю. Берёт начало от слияния рек Шилка и Аргунь и впадает в Охотское море.",
        "hard_enabled": true
      },
      "geometry": {
        "type": "MultiLineString",
        "coordinates": [
          [
            [
              136.810546875,
              49.75929596561912
            ],
            [
              136.7880859375,
              49.77289459843162
            ],
            [
              136.77685546875,
              49.78632233280662
            ],
            [
              136.76513671875,
              49.80006744999412
            ],
            [
              136.76357421875002,
              49.82013580936912
            ],
            [
              136.75693359375003,
              49.85248444218162
            ],
            [
              136.7568359375,
              49.88019440311912
            ],
            [
              136.775,
              49.90656159061912
            ],
            [
              136.78583984375,
              49.92975494999412
            ],
            [
              136.7978515625,
              49.95905182499412
            ],
            [
              136.81435546875002,
              50.01801178593162
            ],
            [
              136.83681640625002,
              50.05133698124412
            ],
            [
              136.85693359375,
              50.07863190311912
            ],
            [
              136.870361328125,
              50.10211823124412
            ],
            [
              136.891357421875,
              50.12445709843162
            ],
            [
              136.923095703125,
              50.13886139530662
            ],
            [
              136.96337890625,
              50.14577057499412
            ],
            [
              137.00419921875005,
              50.15949127811912
            ],
            [
              137.03378906250003,
              50.17694733280662
            ],
            [
              137.05859375,
              50.19581940311912
            ],
            [
              137.094482421875,
              50.21954987186912
            ],
            [
              137.11181640625,
              50.24616119999412
            ],
            [
              137.10107421875,
              50.26539948124412
            ],
            [
              137.09267578125002,
              50.29425690311912
            ],
            [
              137.087890625,
              50.32440827030662
            ],
            [
              137.08535156250002,
              50.36078522343162
            ],
            [
              137.07480468750003,
              50.43585846561912
            ],
            [
              137.06982421875,
              50.45404694218162
            ]
          ],
          [
            [
              139.8576171875,
              51.57880280155662
            ],
            [
              139.87216796875003,
              51.58161041874412
            ],
            [
              139.89785156250002,
              51.58905670780662
            ],
            [
              139.919189453125,
              51.60224030155662
            ],
            [
              139.97216796875,
              51.645379949994116
            ],
            [
              140.05419921875,
              51.72194244999412
            ],
            [
              140.08974609375002,
              51.74884674686912
            ],
            [
              140.114013671875,
              51.76361725468162
            ]
          ],
          [
            [
              127.59033203125,
              50.20900299686912
            ],
            [
              127.58964843750005,
              50.18659088749412
            ],
            [
              127.58652343750003,
              50.16742584843162
            ],
            [
              127.580322265625,
              50.14935944218162
            ],
            [
              127.56982421875,
              50.13043854374412
            ],
            [
              127.50625,
              50.06373932499412
            ],
            [
              127.486328125,
              50.02589752811912
            ],
            [
              127.494140625,
              49.97345612186912
            ],
            [
              127.521240234375,
              49.94147369999412
            ],
            [
              127.53369140625,
              49.922723699994116
            ],
            [
              127.531982421875,
              49.90790436405662
            ],
            [
              127.5205078125,
              49.89203522343162
            ],
            [
              127.51132812500003,
              49.86933014530662
            ],
            [
              127.50634765625,
              49.84454987186912
            ],
            [
              127.5078125,
              49.82257721561912
            ],
            [
              127.53828125000001,
              49.79022858280662
            ],
            [
              127.64404296875,
              49.76740143436912
            ],
            [
              127.6796875,
              49.739374090619116
            ],
            [
              127.68603515625,
              49.71710846561912
            ],
            [
              127.68671875000001,
              49.69916412968162
            ],
            [
              127.689697265625,
              49.68170807499412
            ],
            [
              127.70322265625003,
              49.66090729374412
            ],
            [
              127.7216796875,
              49.64887116093162
            ],
            [
              127.769775390625,
              49.63410065311912
            ],
            [
              127.78955078125,
              49.62335846561912
            ],
            [
              127.80927734375001,
              49.60736725468162
            ],
            [
              127.83056640625,
              49.594110418744116
            ],
            [
              127.8544921875,
              49.585077215619116
            ],
            [
              127.906982421875,
              49.58051178593162
            ],
            [
              127.92041015625,
              49.58136627811912
            ],
            [
              127.92978515625003,
              49.58551666874412
            ],
            [
              127.9404296875,
              49.59613678593162
            ],
            [
              127.947509765625,
              49.601434637494116
            ],
            [
              127.955078125,
              49.60329010624412
            ],
            [
              127.9677734375,
              49.60346100468162
            ],
            [
              127.9912109375,
              49.598993231244116
            ],
            [
              128.01220703125,
              49.58771393436912
            ],
            [
              128.04648437500003,
              49.558465887494116
            ],
            [
              128.06689453125,
              49.54694244999412
            ],
            [
              128.09228515625,
              49.54181549686912
            ],
            [
              128.19814453125002,
              49.53925202030662
            ],
            [
              128.224853515625,
              49.542108465619116
            ],
            [
              128.2451171875,
              49.551629949994116
            ],
            [
              128.267822265625,
              49.55902741093162
            ],
            [
              128.320068359375,
              49.545038153119116
            ],
            [
              128.344482421875,
              49.548211981244116
            ],
            [
              128.3525390625,
              49.55475494999412
            ],
            [
              128.36464843750002,
              49.57001373905662
            ],
            [
              128.37167968750003,
              49.575555731244116
            ],
            [
              128.38320312500002,
              49.57960846561912
            ],
            [
              128.5509765625,
              49.58869049686912
            ],
            [
              128.62841796875,
              49.575555731244116
            ],
            [
              128.6349609375,
              49.57843659061912
            ],
            [
              128.66572265625,
              49.60968659061912
            ],
            [
              128.67148437500003,
              49.611688543744116
            ],
            [
              128.68642578125002,
              49.60346100468162
            ],
            [
              128.73398437500003,
              49.584588934369116
            ],
            [
              128.75917968750002,
              49.57807037968162
            ],
            [
              128.786376953125,
              49.575555731244116
            ],
            [
              128.796630859375,
              49.57269928593162
            ],
            [
              128.801513671875,
              49.56537506718162
            ],
            [
              128.802978515625,
              49.55536530155662
            ],
            [
              128.803125,
              49.54450104374412
            ],
            [
              128.79931640625,
              49.532098699994116
            ],
            [
              128.79013671875003,
              49.52736237186912
            ],
            [
              128.779052734375,
              49.52533600468162
            ],
            [
              128.76904296875,
              49.52094147343162
            ],
            [
              128.75380859375002,
              49.50275299686912
            ],
            [
              128.74990234375002,
              49.48480866093162
            ],
            [
              128.759765625,
              49.47113678593162
            ],
            [
              128.786376953125,
              49.465692449994116
            ],
            [
              128.8095703125,
              49.46893952030662
            ],
            [
              128.853271484375,
              49.48078034061912
            ],
            [
              128.87890625,
              49.47999909061912
            ],
            [
              128.90175781250002,
              49.47199127811912
            ],
            [
              128.94677734375,
              49.44977448124412
            ],
            [
              128.997802734375,
              49.441522528119116
            ],
            [
              129.014404296875,
              49.43134186405662
            ],
            [
              129.05029296875,
              49.37702057499412
            ],
            [
              129.06669921875005,
              49.361932684369116
            ],
            [
              129.0875,
              49.35236237186912
            ],
            [
              129.114990234375,
              49.348993231244116
            ],
            [
              129.1357421875,
              49.35443756718162
            ],
            [
              129.1708984375,
              49.38063385624412
            ],
            [
              129.193603515625,
              49.38996002811912
            ],
            [
              129.21767578125002,
              49.39105866093162
            ],
            [
              129.24521484375003,
              49.38617584843162
            ],
            [
              129.27197265625,
              49.37550690311912
            ],
            [
              129.31591796875,
              49.344354559369116
            ],
            [
              129.34072265625002,
              49.34137604374412
            ],
            [
              129.36171875000002,
              49.35011627811912
            ],
            [
              129.37294921875002,
              49.37013580936912
            ],
            [
              129.37119140625003,
              49.41083405155662
            ],
            [
              129.37841796875,
              49.42531159061912
            ],
            [
              129.403076171875,
              49.43092682499412
            ],
            [
              129.45458984375,
              49.42755768436912
            ],
            [
              129.48037109375002,
              49.421502996869116
            ],
            [
              129.501953125,
              49.41107819218162
            ],
            [
              129.51943359375002,
              49.397333074994116
            ],
            [
              129.527587890625,
              49.385126043744116
            ],
            [
              129.530029296875,
              49.36957428593162
            ],
            [
              129.53183593750003,
              49.32179596561912
            ],
            [
              129.53867187500003,
              49.30402252811912
            ],
            [
              129.551513671875,
              49.29071686405662
            ],
            [
              129.571533203125,
              49.28009674686912
            ],
            [
              129.618896484375,
              49.27448151249412
            ],
            [
              129.66884765625002,
              49.279413153119116
            ],
            [
              129.7109375,
              49.27443268436912
            ],
            [
              129.73476562500002,
              49.239129949994116
            ],
            [
              129.7373046875,
              49.20575592655662
            ],
            [
              129.74160156250002,
              49.19599030155662
            ],
            [
              129.75537109375,
              49.18451569218162
            ],
            [
              129.775634765625,
              49.17780182499412
            ],
            [
              129.824462890625,
              49.174432684369116
            ],
            [
              129.84121093750002,
              49.16742584843162
            ],
            [
              129.84511718750002,
              49.15431549686912
            ],
            [
              129.84121093750002,
              49.10944244999412
            ],
            [
              129.86220703125002,
              49.10675690311912
            ],
            [
              129.88291015625003,
              49.10004303593162
            ],
            [
              129.92041015625,
              49.08209869999412
            ],
            [
              129.911376953125,
              49.05951569218162
            ],
            [
              129.9130859375,
              49.03981354374412
            ],
            [
              129.92617187500002,
              49.02594635624412
            ],
            [
              129.97402343750002,
              49.01539948124412
            ],
            [
              129.99658203125,
              49.00263092655662
            ],
            [
              130.037109375,
              48.97223541874412
            ],
            [
              130.20156250000002,
              48.88287994999412
            ],
            [
              130.2490234375,
              48.86481354374412
            ],
            [
              130.293212890625,
              48.87037994999412
            ],
            [
              130.337890625,
              48.885614324994116
            ],
            [
              130.386474609375,
              48.89655182499412
            ],
            [
              130.439453125,
              48.89674713749412
            ],
            [
              130.4650390625,
              48.89162018436912
            ],
            [
              130.475830078125,
              48.879754949994116
            ],
            [
              130.486328125,
              48.86395905155662
            ],
            [
              130.51123046875,
              48.85578034061912
            ],
            [
              130.540625,
              48.85370514530662
            ],
            [
              130.564697265625,
              48.85621979374412
            ],
            [
              130.624755859375,
              48.87457916874412
            ],
            [
              130.650390625,
              48.87665436405662
            ],
            [
              130.674072265625,
              48.87103912968162
            ],
            [
              130.67617187500002,
              48.85768463749412
            ],
            [
              130.66640625000002,
              48.84174225468162
            ],
            [
              130.62744140625,
              48.79633209843162
            ],
            [
              130.532958984375,
              48.636102606244116
            ],
            [
              130.529541015625,
              48.61647369999412
            ],
            [
              130.54052734375,
              48.59857819218162
            ],
            [
              130.56201171875,
              48.58839752811912
            ],
            [
              130.586181640625,
              48.58368561405662
            ],
            [
              130.607421875,
              48.57697174686912
            ],
            [
              130.619873046875,
              48.56073639530662
            ],
            [
              130.62060546875,
              48.54950592655662
            ],
            [
              130.614501953125,
              48.530389715619116
            ],
            [
              130.613037109375,
              48.51979401249412
            ],
            [
              130.615478515625,
              48.50836823124412
            ],
            [
              130.624267578125,
              48.48859284061912
            ],
            [
              130.6259765625,
              48.48248932499412
            ],
            [
              130.63906250000002,
              48.47748444218162
            ],
            [
              130.71542968750003,
              48.49928619999412
            ],
            [
              130.74404296875002,
              48.49757721561912
            ],
            [
              130.75869140625002,
              48.485956121869116
            ],
            [
              130.75927734375,
              48.46820709843162
            ],
            [
              130.74609375,
              48.44806549686912
            ],
            [
              130.738037109375,
              48.430047918744116
            ],
            [
              130.742919921875,
              48.41188385624412
            ],
            [
              130.76328125000003,
              48.383172918744116
            ],
            [
              130.7734375,
              48.36452057499412
            ],
            [
              130.779541015625,
              48.35670807499412
            ],
            [
              130.7900390625,
              48.34845612186912
            ],
            [
              130.803125,
              48.34296295780662
            ],
            [
              130.81416015625,
              48.340204168744116
            ],
            [
              130.82177734375,
              48.33405182499412
            ],
            [
              130.82470703125,
              48.31806061405662
            ],
            [
              130.82373046875,
              48.29437897343162
            ],
            [
              130.81904296875,
              48.28217194218162
            ],
            [
              130.77353515625003,
              48.24445221561912
            ],
            [
              130.7685546875,
              48.236932684369116
            ],
            [
              130.76328125000003,
              48.22553131718162
            ],
            [
              130.75244140625,
              48.18988678593162
            ],
            [
              130.74609375,
              48.18463776249412
            ],
            [
              130.72929687500005,
              48.17824127811912
            ],
            [
              130.70703125,
              48.16364166874412
            ],
            [
              130.674560546875,
              48.13617584843162
            ],
            [
              130.6630859375,
              48.11664459843162
            ],
            [
              130.66445312500002,
              48.10231354374412
            ],
            [
              130.670654296875,
              48.08685944218162
            ],
            [
              130.674560546875,
              48.06422760624412
            ],
            [
              130.68212890625,
              48.05060455936912
            ],
            [
              130.85703125000003,
              47.92804596561912
            ],
            [
              130.90664062500002,
              47.88446686405662
            ],
            [
              130.94140625,
              47.82086823124412
            ],
            [
              130.942138671875,
              47.79005768436912
            ],
            [
              130.93808593750003,
              47.751336981244116
            ],
            [
              130.94169921875005,
              47.71820709843162
            ],
            [
              130.96533203125,
              47.70416901249412
            ],
            [
              130.98330078125002,
              47.70026276249412
            ],
            [
              131.023193359375,
              47.68256256718162
            ],
            [
              131.04384765625002,
              47.67750885624412
            ],
            [
              131.08408203125003,
              47.67536041874412
            ],
            [
              131.10361328125003,
              47.67677643436912
            ],
            [
              131.12890625,
              47.681512762494116
            ],
            [
              131.16689453125002,
              47.697381903119116
            ],
            [
              131.2099609375,
              47.70941803593162
            ],
            [
              131.41806640625003,
              47.74286530155662
            ],
            [
              131.44052734375003,
              47.74140045780662
            ],
            [
              131.474609375,
              47.73468659061912
            ],
            [
              131.50742187500003,
              47.721795965619116
            ],
            [
              131.53759765625,
              47.703485418744116
            ],
            [
              131.5771484375,
              47.668817449994116
            ],
            [
              131.58447265625,
              47.664911199994116
            ],
            [
              131.59365234375002,
              47.66261627811912
            ],
            [
              131.60292968750002,
              47.661737371869116
            ],
            [
              131.6123046875,
              47.662225653119116
            ],
            [
              131.62148437500002,
              47.66408112186912
            ],
            [
              131.63037109375,
              47.667108465619116
            ],
            [
              131.68320312500003,
              47.69489166874412
            ],
            [
              131.70263671875,
              47.696405340619116
            ],
            [
              131.780029296875,
              47.679315496869116
            ],
            [
              131.798828125,
              47.67963287968162
            ],
            [
              131.835693359375,
              47.68483307499412
            ],
            [
              131.85429687500005,
              47.68434479374412
            ],
            [
              131.86464843750002,
              47.68183014530662
            ],
            [
              131.89404296875,
              47.67023346561912
            ],
            [
              131.90322265625002,
              47.66840241093162
            ],
            [
              131.91367187500003,
              47.66791412968162
            ],
            [
              131.924072265625,
              47.66920807499412
            ],
            [
              131.9326171875,
              47.672479559369116
            ],
            [
              131.95703125,
              47.68720123905662
            ],
            [
              131.966015625,
              47.69025299686912
            ],
            [
              132.025,
              47.69806549686912
            ],
            [
              132.0888671875,
              47.69501373905662
            ],
            [
              132.11669921875,
              47.68971588749412
            ],
            [
              132.161376953125,
              47.69025299686912
            ],
            [
              132.188720703125,
              47.69586823124412
            ],
            [
              132.201904296875,
              47.70075104374412
            ],
            [
              132.25048828125,
              47.72560455936912
            ],
            [
              132.26416015625,
              47.72907135624412
            ],
            [
              132.33203125,
              47.73676178593162
            ],
            [
              132.3662109375,
              47.73561432499412
            ],
            [
              132.40029296875002,
              47.730096746869116
            ],
            [
              132.45302734375002,
              47.71076080936912
            ],
            [
              132.4755859375,
              47.70709869999412
            ],
            [
              132.52431640625002,
              47.70770905155662
            ],
            [
              132.5361328125,
              47.711297918744116
            ],
            [
              132.546875,
              47.71705963749412
            ],
            [
              132.55654296875002,
              47.72370026249412
            ],
            [
              132.57382812500003,
              47.73981354374412
            ],
            [
              132.580078125,
              47.74823639530662
            ],
            [
              132.58203125,
              47.75641510624412
            ],
            [
              132.58056640625,
              47.765008856244116
            ],
            [
              132.5734375,
              47.78248932499412
            ],
            [
              132.5734375,
              47.78864166874412
            ],
            [
              132.576171875,
              47.79450104374412
            ],
            [
              132.5810546875,
              47.80097077030662
            ],
            [
              132.607177734375,
              47.82782623905662
            ],
            [
              132.65859375000002,
              47.87006256718162
            ],
            [
              132.66767578125,
              47.88153717655662
            ],
            [
              132.67197265625003,
              47.89472077030662
            ],
            [
              132.671142578125,
              47.90277741093162
            ],
            [
              132.66787109375002,
              47.90961334843162
            ],
            [
              132.663818359375,
              47.91608307499412
            ],
            [
              132.66054687500002,
              47.92328522343162
            ],
            [
              132.66015625,
              47.93158600468162
            ],
            [
              132.66298828125002,
              47.93891022343162
            ],
            [
              132.66787109375002,
              47.94537994999412
            ],
            [
              132.67441406250003,
              47.95087311405662
            ],
            [
              132.68886718750002,
              47.95802643436912
            ],
            [
              132.70546875000002,
              47.960565496869116
            ],
            [
              132.72226562500003,
              47.95917389530662
            ],
            [
              132.73779296875,
              47.95441315311912
            ],
            [
              132.76220703125,
              47.93964264530662
            ],
            [
              132.774658203125,
              47.933954168744116
            ],
            [
              132.7892578125,
              47.932977606244116
            ],
            [
              132.80556640625002,
              47.93646881718162
            ],
            [
              132.8203125,
              47.94257233280662
            ],
            [
              132.83310546875003,
              47.95184967655662
            ],
            [
              132.853271484375,
              47.97638580936912
            ],
            [
              132.864501953125,
              47.98590729374412
            ],
            [
              132.94003906250003,
              48.022821356244116
            ],
            [
              132.94052734375003,
              48.02692291874412
            ],
            [
              133.0244140625,
              48.05267975468162
            ],
            [
              133.032470703125,
              48.05707428593162
            ],
            [
              133.0390625,
              48.06178619999412
            ],
            [
              133.04375,
              48.06647369999412
            ],
            [
              133.04726562500002,
              48.07184479374412
            ],
            [
              133.05078125,
              48.07880280155662
            ],
            [
              133.06064453125003,
              48.09210846561912
            ],
            [
              133.075,
              48.10114166874412
            ],
            [
              133.09169921875002,
              48.10700104374412
            ],
            [
              133.184814453125,
              48.12506744999412
            ],
            [
              133.223388671875,
              48.12623932499412
            ],
            [
              133.2625,
              48.11969635624412
            ],
            [
              133.2724609375,
              48.115350653119116
            ],
            [
              133.29052734375,
              48.104608465619116
            ],
            [
              133.30117187500002,
              48.10150787968162
            ],
            [
              133.3232421875,
              48.10040924686912
            ],
            [
              133.37919921875005,
              48.106561590619116
            ],
            [
              133.39589843750002,
              48.10614655155662
            ],
            [
              133.412841796875,
              48.10329010624412
            ],
            [
              133.45058593750002,
              48.09162018436912
            ],
            [
              133.46337890625,
              48.089715887494116
            ],
            [
              133.52402343750003,
              48.09572174686912
            ],
            [
              133.54355468750003,
              48.10182526249412
            ],
            [
              133.55966796875003,
              48.11354401249412
            ],
            [
              133.57177734375,
              48.13300202030662
            ],
            [
              133.57753906250002,
              48.14528229374412
            ],
            [
              133.58447265625,
              48.15558502811912
            ],
            [
              133.59335937500003,
              48.16437409061912
            ],
            [
              133.60517578125,
              48.17189362186912
            ],
            [
              133.62109375,
              48.17755768436912
            ],
            [
              133.654296875,
              48.18414948124412
            ],
            [
              133.67001953125003,
              48.19025299686912
            ],
            [
              133.68515625000003,
              48.20241119999412
            ],
            [
              133.70761718750003,
              48.23195221561912
            ],
            [
              133.7208984375,
              48.244989324994116
            ],
            [
              133.73769531250002,
              48.251336981244116
            ],
            [
              133.79628906250002,
              48.250848699994116
            ],
            [
              133.814697265625,
              48.25543854374412
            ],
            [
              133.84921875000003,
              48.26954987186912
            ],
            [
              133.86728515625003,
              48.27460358280662
            ],
            [
              133.877197265625,
              48.275506903119116
            ],
            [
              133.93662109375003,
              48.27350494999412
            ],
            [
              133.96621093750002,
              48.27887604374412
            ],
            [
              133.982177734375,
              48.28534577030662
            ],
            [
              134.02451171875003,
              48.31537506718162
            ],
            [
              134.040283203125,
              48.32269928593162
            ],
            [
              134.05673828125003,
              48.32746002811912
            ],
            [
              134.11572265625,
              48.33546784061912
            ],
            [
              134.20576171875,
              48.35988190311912
            ],
            [
              134.366943359375,
              48.377313543744116
            ],
            [
              134.447265625,
              48.395135809369116
            ],
            [
              134.49619140625003,
              48.41168854374412
            ],
            [
              134.505078125,
              48.413690496869116
            ],
            [
              134.58017578125003,
              48.417840887494116
            ],
            [
              134.59804687500002,
              48.41644928593162
            ],
            [
              134.734375,
              48.37335846561912
            ],
            [
              134.75146484375,
              48.37160065311912
            ],
            [
              134.76914062500003,
              48.37379791874412
            ],
            [
              134.88388671875003,
              48.42438385624412
            ],
            [
              134.924560546875,
              48.43341705936912
            ],
            [
              134.96591796875003,
              48.43659088749412
            ],
            [
              135.01923828125,
              48.433221746869116
            ],
            [
              135.03554687500002,
              48.43744537968162
            ],
            [
              135.04638671875,
              48.44708893436912
            ],
            [
              135.049560546875,
              48.45924713749412
            ],
            [
              135.04746093750003,
              48.47260162968162
            ],
            [
              135.04296875,
              48.48585846561912
            ],
            [
              135.03759765625,
              48.48822662968162
            ],
            [
              135.0087890625,
              48.51996491093162
            ],
            [
              134.997314453125,
              48.54860260624412
            ],
            [
              135.00439453125,
              48.583124090619116
            ],
            [
              135.02304687500003,
              48.614862371869116
            ],
            [
              135.04638671875,
              48.63519928593162
            ],
            [
              135.153515625,
              48.67853424686912
            ],
            [
              135.23876953125,
              48.73444244999412
            ],
            [
              135.25546875000003,
              48.74122955936912
            ],
            [
              135.27294921875,
              48.74555084843162
            ],
            [
              135.29091796875002,
              48.747186590619116
            ],
            [
              135.307861328125,
              48.74530670780662
            ],
            [
              135.34072265625002,
              48.73639557499412
            ],
            [
              135.35732421875002,
              48.73419830936912
            ],
            [
              135.373779296875,
              48.73566315311912
            ],
            [
              135.423828125,
              48.74945709843162
            ],
            [
              135.478759765625,
              48.77174713749412
            ],
            [
              135.51357421875002,
              48.77907135624412
            ],
            [
              135.54746093750003,
              48.77680084843162
            ],
            [
              135.58076171875,
              48.76784088749412
            ],
            [
              135.61367187500002,
              48.754999090619116
            ],
            [
              135.647216796875,
              48.74591705936912
            ],
            [
              135.68359375,
              48.74367096561912
            ],
            [
              135.72031250000003,
              48.74652741093162
            ],
            [
              135.75439453125,
              48.75311920780662
            ],
            [
              135.768310546875,
              48.76019928593162
            ],
            [
              135.77587890625,
              48.77118561405662
            ],
            [
              135.781494140625,
              48.784295965619116
            ],
            [
              135.78955078125,
              48.79804108280662
            ],
            [
              135.802734375,
              48.80975983280662
            ],
            [
              135.817578125,
              48.81715729374412
            ],
            [
              135.912353515625,
              48.83497955936912
            ],
            [
              135.94003906250003,
              48.847772528119116
            ],
            [
              135.960693359375,
              48.87006256718162
            ],
            [
              135.9658203125,
              48.884637762494116
            ],
            [
              135.9677734375,
              48.899530340619116
            ],
            [
              135.971435546875,
              48.91364166874412
            ],
            [
              135.980712890625,
              48.92597077030662
            ],
            [
              135.99404296875002,
              48.93451569218162
            ],
            [
              136.00830078125,
              48.94025299686912
            ],
            [
              136.11386718750003,
              48.954461981244116
            ],
            [
              136.149658203125,
              48.96478912968162
            ],
            [
              136.2765625,
              49.04364655155662
            ],
            [
              136.29072265625,
              49.05792877811912
            ],
            [
              136.299072265625,
              49.07330963749412
            ],
            [
              136.302734375,
              49.09015534061912
            ],
            [
              136.30244140625,
              49.10773346561912
            ],
            [
              136.2998046875,
              49.12494537968162
            ],
            [
              136.2724609375,
              49.18507721561912
            ],
            [
              136.26943359375002,
              49.213495184369116
            ],
            [
              136.29296875,
              49.23602936405662
            ],
            [
              136.32763671875,
              49.24684479374412
            ],
            [
              136.34326171875,
              49.25458405155662
            ],
            [
              136.35458984375003,
              49.26874420780662
            ],
            [
              136.368896484375,
              49.30006744999412
            ],
            [
              136.37841796875,
              49.31293366093162
            ],
            [
              136.4072265625,
              49.333612371869116
            ],
            [
              136.416015625,
              49.34332916874412
            ],
            [
              136.4201171875,
              49.35565827030662
            ],
            [
              136.42138671875,
              49.390985418744116
            ],
            [
              136.42587890625003,
              49.406122137494116
            ],
            [
              136.43515625000003,
              49.41852448124412
            ],
            [
              136.450439453125,
              49.42877838749412
            ],
            [
              136.53125,
              49.46588776249412
            ],
            [
              136.64414062500003,
              49.49054596561912
            ],
            [
              136.71933593750003,
              49.49835846561912
            ],
            [
              136.73779296875,
              49.50275299686912
            ],
            [
              136.765625,
              49.51508209843162
            ],
            [
              136.7919921875,
              49.532586981244116
            ],
            [
              136.81591796875,
              49.55341217655662
            ],
            [
              136.836669921875,
              49.57570221561912
            ],
            [
              136.84658203125002,
              49.58986237186912
            ],
            [
              136.85244140625002,
              49.60443756718162
            ],
            [
              136.85410156250003,
              49.61994049686912
            ],
            [
              136.84736328125,
              49.65387604374412
            ],
            [
              136.84609375000002,
              49.66920807499412
            ],
            [
              136.853271484375,
              49.719110418744116
            ],
            [
              136.85009765625,
              49.73346588749412
            ],
            [
              136.84121093750002,
              49.74469635624412
            ],
            [
              136.825439453125,
              49.75311920780662
            ],
            [
              136.810546875,
              49.75929596561912
            ]
          ],
          [
            [
              137.06982421875,
              50.45404694218162
            ],
            [
              137.06396484375,
              50.465448309369116
            ],
            [
              137.04990234375003,
              50.48444244999412
            ],
            [
              137.04628906250002,
              50.49506256718162
            ],
            [
              137.04873046875002,
              50.50636627811912
            ],
            [
              137.056396484375,
              50.514764715619116
            ],
            [
              137.112060546875,
              50.54559967655662
            ],
            [
              137.15390625000003,
              50.577508856244116
            ],
            [
              137.19052734375003,
              50.61481354374412
            ],
            [
              137.210693359375,
              50.62933991093162
            ],
            [
              137.233154296875,
              50.64020416874412
            ],
            [
              137.36777343750003,
              50.67067291874412
            ],
            [
              137.40878906250003,
              50.67121002811912
            ],
            [
              137.49677734375,
              50.68231842655662
            ],
            [
              137.591015625,
              50.67645905155662
            ],
            [
              137.6884765625,
              50.689081121869116
            ],
            [
              137.86591796875,
              50.73895905155662
            ],
            [
              137.91757812500003,
              50.76222565311912
            ],
            [
              138.03857421875,
              50.854608465619116
            ],
            [
              138.05078125,
              50.86005280155662
            ],
            [
              138.0654296875,
              50.86347077030662
            ],
            [
              138.110595703125,
              50.86627838749412
            ],
            [
              138.12548828125,
              50.869745184369116
            ],
            [
              138.138427734375,
              50.87641022343162
            ],
            [
              138.14931640625002,
              50.88605377811912
            ],
            [
              138.158935546875,
              50.89826080936912
            ],
            [
              138.18271484375003,
              50.93744537968162
            ],
            [
              138.1943359375,
              50.94704010624412
            ],
            [
              138.207763671875,
              50.952752996869116
            ],
            [
              138.251708984375,
              50.96217682499412
            ],
            [
              138.2763671875,
              50.971307684369116
            ],
            [
              138.361328125,
              51.02167389530662
            ],
            [
              138.37763671875,
              51.034295965619116
            ],
            [
              138.432861328125,
              51.09271881718162
            ],
            [
              138.44091796875,
              51.09784577030662
            ],
            [
              138.44970703125,
              51.10126373905662
            ],
            [
              138.5548828125,
              51.11945221561912
            ],
            [
              138.57373046875,
              51.12689850468162
            ],
            [
              138.587890625,
              51.13617584843162
            ],
            [
              138.59951171875002,
              51.148553778119116
            ],
            [
              138.62158203125,
              51.181512762494116
            ],
            [
              138.63720703125,
              51.19337799686912
            ],
            [
              138.6552734375,
              51.20167877811912
            ],
            [
              138.674560546875,
              51.20709869999412
            ],
            [
              138.85439453125002,
              51.25177643436912
            ],
            [
              138.875244140625,
              51.26100494999412
            ],
            [
              138.888427734375,
              51.274286199994116
            ],
            [
              138.895263671875,
              51.29201080936912
            ],
            [
              138.89755859375003,
              51.31439850468162
            ],
            [
              138.932373046875,
              51.380243231244116
            ],
            [
              139.01123046875,
              51.389032293744116
            ],
            [
              139.17841796875,
              51.35358307499412
            ],
            [
              139.2080078125,
              51.35321686405662
            ],
            [
              139.23486328125,
              51.35785553593162
            ],
            [
              139.42626953125,
              51.42133209843162
            ],
            [
              139.4443359375,
              51.43361237186912
            ],
            [
              139.458740234375,
              51.45070221561912
            ],
            [
              139.46728515625,
              51.46998932499412
            ],
            [
              139.47324218750003,
              51.489374090619116
            ],
            [
              139.48134765625002,
              51.507440496869116
            ],
            [
              139.49619140625003,
              51.52265045780662
            ],
            [
              139.517333984375,
              51.532831121869116
            ],
            [
              139.53916015625003,
              51.53681061405662
            ],
            [
              139.65195312500003,
              51.53705475468162
            ],
            [
              139.781982421875,
              51.56244537968162
            ],
            [
              139.82314453125002,
              51.576288153119116
            ],
            [
              139.8576171875,
              51.57880280155662
            ]
          ],
          [
            [
              140.70664062500003,
              53.11102936405662
            ],
            [
              140.66025390625003,
              53.096063543744116
            ],
            [
              140.59423828125,
              53.08405182499412
            ],
            [
              140.583740234375,
              53.08490631718162
            ],
            [
              140.5771484375,
              53.08673737186912
            ],
            [
              140.55839843750005,
              53.09467194218162
            ],
            [
              140.50156250000003,
              53.11061432499412
            ],
            [
              140.48408203125,
              53.11969635624412
            ],
            [
              140.45576171875,
              53.13893463749412
            ],
            [
              140.441162109375,
              53.14667389530662
            ],
            [
              140.4091796875,
              53.15717194218162
            ],
            [
              140.338134765625,
              53.20070221561912
            ],
            [
              140.30419921875,
              53.21356842655662
            ],
            [
              140.26318359375,
              53.22174713749412
            ],
            [
              139.99033203125003,
              53.21491119999412
            ],
            [
              139.96621093750002,
              53.21771881718162
            ],
            [
              139.91572265625,
              53.213006903119116
            ],
            [
              139.890380859375,
              53.203973699994116
            ],
            [
              139.869873046875,
              53.18842194218162
            ],
            [
              139.85908203125,
              53.16579010624412
            ],
            [
              139.85800781250003,
              53.14252350468162
            ],
            [
              139.85585937500002,
              53.13544342655662
            ],
            [
              139.8544921875,
              53.133417059369116
            ],
            [
              139.85048828125002,
              53.12958405155662
            ],
            [
              139.84873046875003,
              53.12738678593162
            ],
            [
              139.84736328125,
              53.123895574994116
            ],
            [
              139.844921875,
              53.11273834843162
            ],
            [
              139.83173828125,
              53.084100653119116
            ],
            [
              139.81982421875,
              53.06574127811912
            ],
            [
              139.80507812500002,
              53.04962799686912
            ],
            [
              139.798583984375,
              53.04535553593162
            ],
            [
              139.792236328125,
              53.04303619999412
            ],
            [
              139.77792968750003,
              53.04022858280662
            ],
            [
              139.77109375000003,
              53.03668854374412
            ],
            [
              139.75283203125002,
              53.01759674686912
            ],
            [
              139.72519531250003,
              52.99733307499412
            ],
            [
              139.71230468750002,
              52.98541901249412
            ],
            [
              139.70351562500002,
              52.97162506718162
            ],
            [
              139.70224609375003,
              52.96149323124412
            ],
            [
              139.70634765625005,
              52.95319244999412
            ],
            [
              139.713623046875,
              52.94660065311912
            ],
            [
              139.7529296875,
              52.92511627811912
            ],
            [
              139.87167968750003,
              52.88161041874412
            ],
            [
              139.935302734375,
              52.86591217655662
            ],
            [
              140.00039062500002,
              52.837030340619116
            ],
            [
              140.03125,
              52.81207916874412
            ],
            [
              140.052734375,
              52.79950592655662
            ],
            [
              140.05820312500003,
              52.794794012494116
            ],
            [
              140.06748046875003,
              52.78424713749412
            ],
            [
              140.0734375,
              52.78004791874412
            ],
            [
              140.09375,
              52.772577215619116
            ],
            [
              140.09970703125003,
              52.76788971561912
            ],
            [
              140.10654296875003,
              52.75824616093162
            ],
            [
              140.109375,
              52.75270416874412
            ],
            [
              140.11083984375,
              52.74738190311912
            ],
            [
              140.106640625,
              52.73212311405662
            ],
            [
              140.08730468750002,
              52.70770905155662
            ],
            [
              140.08798828125003,
              52.69264557499412
            ],
            [
              140.12783203125002,
              52.62697174686912
            ],
            [
              140.13525390625,
              52.61891510624412
            ],
            [
              140.14980468750002,
              52.60858795780662
            ],
            [
              140.16650390625,
              52.60158112186912
            ],
            [
              140.20175781250003,
              52.59418366093162
            ],
            [
              140.22119140625,
              52.59332916874412
            ],
            [
              140.2599609375,
              52.595819403119116
            ],
            [
              140.279052734375,
              52.59479401249412
            ],
            [
              140.30419921875,
              52.58295319218162
            ],
            [
              140.322509765625,
              52.56110260624412
            ],
            [
              140.353271484375,
              52.51344635624412
            ],
            [
              140.373046875,
              52.49408600468162
            ],
            [
              140.384765625,
              52.48602936405662
            ],
            [
              140.397216796875,
              52.48114655155662
            ],
            [
              140.3994140625,
              52.475702215619116
            ],
            [
              140.4033203125,
              52.470819403119116
            ],
            [
              140.40830078125003,
              52.466913153119116
            ],
            [
              140.413818359375,
              52.46461823124412
            ],
            [
              140.41689453125002,
              52.45851471561912
            ],
            [
              140.427978515625,
              52.44850494999412
            ],
            [
              140.432373046875,
              52.44313385624412
            ],
            [
              140.43798828125,
              52.42963287968162
            ],
            [
              140.44101562500003,
              52.41530182499412
            ],
            [
              140.44013671875,
              52.38751862186912
            ],
            [
              140.44101562500003,
              52.37843659061912
            ],
            [
              140.44472656250002,
              52.36989166874412
            ],
            [
              140.44980468750003,
              52.36371491093162
            ],
            [
              140.453857421875,
              52.35724518436912
            ],
            [
              140.4541015625,
              52.34760162968162
            ],
            [
              140.44921875,
              52.333856512494116
            ],
            [
              140.441162109375,
              52.31903717655662
            ],
            [
              140.43125,
              52.305292059369116
            ],
            [
              140.4111328125,
              52.28644440311912
            ],
            [
              140.40488281250003,
              52.27899811405662
            ],
            [
              140.401123046875,
              52.27008698124412
            ],
            [
              140.39892578125,
              52.25726959843162
            ],
            [
              140.39882812500002,
              52.23322174686912
            ],
            [
              140.3955078125,
              52.22357819218162
            ],
            [
              140.3759765625,
              52.19777252811912
            ],
            [
              140.372314453125,
              52.18825104374412
            ],
            [
              140.37050781250002,
              52.16815827030662
            ],
            [
              140.36767578125,
              52.15875885624412
            ],
            [
              140.36083984375,
              52.151239324994116
            ],
            [
              140.35107421875,
              52.14728424686912
            ],
            [
              140.33056640625,
              52.14350006718162
            ],
            [
              140.31972656250002,
              52.13991119999412
            ],
            [
              140.31044921875002,
              52.134881903119116
            ],
            [
              140.251953125,
              52.09296295780662
            ],
            [
              140.22548828125002,
              52.06635162968162
            ],
            [
              140.17441406250003,
              52.02680084843162
            ],
            [
              140.163818359375,
              52.00905182499412
            ],
            [
              140.1650390625,
              51.99433014530662
            ],
            [
              140.205078125,
              51.94086334843162
            ],
            [
              140.21152343750003,
              51.92865631718162
            ],
            [
              140.22119140625,
              51.901483465619116
            ],
            [
              140.24179687500003,
              51.85980866093162
            ],
            [
              140.242919921875,
              51.845086981244116
            ],
            [
              140.23671875000002,
              51.83075592655662
            ],
            [
              140.22509765625,
              51.81959869999412
            ],
            [
              140.114013671875,
              51.76369049686912
            ]
          ],
          [
            [
              121.40537109375003,
              53.31708405155662
            ],
            [
              121.45849609375,
              53.32074616093162
            ],
            [
              121.51181640625003,
              53.33009674686912
            ],
            [
              121.64072265625003,
              53.38519928593162
            ],
            [
              121.888671875,
              53.43092682499412
            ],
            [
              122.08134765624999,
              53.42975494999412
            ],
            [
              122.10781250000002,
              53.438348699994116
            ],
            [
              122.14755859375003,
              53.46137116093162
            ],
            [
              122.16845703125,
              53.469354559369116
            ],
            [
              122.22548828125002,
              53.47418854374412
            ],
            [
              122.29335937500002,
              53.49298737186912
            ],
            [
              122.31669921874999,
              53.49628327030662
            ],
            [
              122.33740234375,
              53.491571356244116
            ],
            [
              122.35761718750001,
              53.47980377811912
            ],
            [
              122.37939453125,
              53.46193268436912
            ],
            [
              122.4013671875,
              53.45123932499412
            ],
            [
              122.42490234375003,
              53.45270416874412
            ],
            [
              122.47089843750001,
              53.46503327030662
            ],
            [
              122.85927734375002,
              53.474237371869116
            ],
            [
              123.002197265625,
              53.50763580936912
            ],
            [
              123.1533203125,
              53.51344635624412
            ],
            [
              123.16396484375002,
              53.51662018436912
            ],
            [
              123.1796875,
              53.53070709843162
            ],
            [
              123.20302734375002,
              53.53859284061912
            ],
            [
              123.234375,
              53.56061432499412
            ],
            [
              123.25234375000002,
              53.56806061405662
            ],
            [
              123.27714843749999,
              53.56976959843162
            ],
            [
              123.30927734375001,
              53.567743231244116
            ],
            [
              123.33984375,
              53.56171295780662
            ],
            [
              123.36757812500002,
              53.54608795780662
            ],
            [
              123.3798828125,
              53.543085028119116
            ],
            [
              123.419677734375,
              53.53876373905662
            ],
            [
              123.431396484375,
              53.53607819218162
            ],
            [
              123.47119140625,
              53.51923248905662
            ],
            [
              123.48125,
              53.51832916874412
            ],
            [
              123.48505859375001,
              53.52631256718162
            ],
            [
              123.48574218750002,
              53.54420807499412
            ],
            [
              123.49453125000002,
              53.56037018436912
            ],
            [
              123.51416015625,
              53.56268952030662
            ],
            [
              123.53505859375002,
              53.55495026249412
            ],
            [
              123.547119140625,
              53.54079010624412
            ],
            [
              123.53916015625003,
              53.53737213749412
            ],
            [
              123.53232421875003,
              53.53278229374412
            ],
            [
              123.51914062500003,
              53.52028229374412
            ],
            [
              123.54160156250003,
              53.51434967655662
            ],
            [
              123.56064453125003,
              53.52448151249412
            ],
            [
              123.591552734375,
              53.55812409061912
            ],
            [
              123.614013671875,
              53.56366608280662
            ],
            [
              123.63916015625,
              53.55158112186912
            ],
            [
              123.67744140625001,
              53.52028229374412
            ],
            [
              123.701416015625,
              53.51032135624412
            ],
            [
              123.73193359375,
              53.504022528119116
            ],
            [
              123.849853515625,
              53.49530670780662
            ],
            [
              123.87636718750002,
              53.48895905155662
            ],
            [
              123.97031250000003,
              53.455438543744116
            ],
            [
              123.98935546875003,
              53.44171784061912
            ],
            [
              124.009765625,
              53.41498444218162
            ],
            [
              124.01708984375,
              53.40729401249412
            ],
            [
              124.02968750000002,
              53.400262762494116
            ],
            [
              124.055419921875,
              53.39520905155662
            ],
            [
              124.06845703125003,
              53.38991119999412
            ],
            [
              124.10009765625,
              53.36359284061912
            ],
            [
              124.12158203125,
              53.35297272343162
            ],
            [
              124.139892578125,
              53.35809967655662
            ],
            [
              124.157470703125,
              53.37030670780662
            ],
            [
              124.18203125000002,
              53.378778387494116
            ],
            [
              124.20849609375,
              53.382928778119116
            ],
            [
              124.23232421875002,
              53.381952215619116
            ],
            [
              124.25263671875001,
              53.37579987186912
            ],
            [
              124.27509765625001,
              53.36493561405662
            ],
            [
              124.293212890625,
              53.35158112186912
            ],
            [
              124.304443359375,
              53.32929108280662
            ],
            [
              124.32099609375001,
              53.31000397343162
            ],
            [
              124.325439453125,
              53.30621979374412
            ],
            [
              124.34218750000002,
              53.27272369999412
            ],
            [
              124.359619140625,
              53.25971100468162
            ],
            [
              124.38339843750003,
              53.24640534061912
            ],
            [
              124.407958984375,
              53.235956121869116
            ],
            [
              124.45361328125,
              53.22846100468162
            ],
            [
              124.500244140625,
              53.21393463749412
            ],
            [
              124.52783203125,
              53.21063873905662
            ],
            [
              124.639892578125,
              53.21063873905662
            ],
            [
              124.6513671875,
              53.20905182499412
            ],
            [
              124.67841796875001,
              53.199579168744116
            ],
            [
              124.68798828125,
              53.19391510624412
            ],
            [
              124.69599609375001,
              53.18402741093162
            ],
            [
              124.696533203125,
              53.17658112186912
            ],
            [
              124.6953125,
              53.170038153119116
            ],
            [
              124.697998046875,
              53.16286041874412
            ],
            [
              124.7197265625,
              53.14911530155662
            ],
            [
              124.74697265625002,
              53.14796784061912
            ],
            [
              124.80097656250001,
              53.155389715619116
            ],
            [
              124.82177734375,
              53.14752838749412
            ],
            [
              124.84775390625003,
              53.11395905155662
            ],
            [
              124.869873046875,
              53.10822174686912
            ],
            [
              124.89589843750002,
              53.11786530155662
            ],
            [
              124.89150390625002,
              53.13446686405662
            ],
            [
              124.87880859375002,
              53.15412018436912
            ],
            [
              124.87998046875003,
              53.17279694218162
            ],
            [
              124.8974609375,
              53.18580963749412
            ],
            [
              124.9189453125,
              53.19415924686912
            ],
            [
              125.01904296875,
              53.21100494999412
            ],
            [
              125.07343750000001,
              53.212518621869116
            ],
            [
              125.12705078125003,
              53.20685455936912
            ],
            [
              125.427734375,
              53.09498932499412
            ],
            [
              125.4560546875,
              53.09113190311912
            ],
            [
              125.47617187500003,
              53.08375885624412
            ],
            [
              125.499267578125,
              53.05084869999412
            ],
            [
              125.52099609375,
              53.04266998905662
            ],
            [
              125.583740234375,
              53.059198309369116
            ],
            [
              125.62099609375002,
              53.062372137494116
            ],
            [
              125.6376953125,
              53.04645416874412
            ],
            [
              125.64990234375,
              53.02362702030662
            ],
            [
              125.67822265625,
              53.00592682499412
            ],
            [
              125.733154296875,
              52.98187897343162
            ],
            [
              125.72402343750002,
              52.95307037968162
            ],
            [
              125.71962890625002,
              52.94655182499412
            ],
            [
              125.710693359375,
              52.94147369999412
            ],
            [
              125.688232421875,
              52.93671295780662
            ],
            [
              125.67861328125002,
              52.933465887494116
            ],
            [
              125.66064453125,
              52.91962311405662
            ],
            [
              125.646875,
              52.90119049686912
            ],
            [
              125.646240234375,
              52.885126043744116
            ],
            [
              125.66835937500002,
              52.87824127811912
            ],
            [
              125.69130859375002,
              52.88153717655662
            ],
            [
              125.73623046875002,
              52.89606354374412
            ],
            [
              125.83701171875003,
              52.90692780155662
            ],
            [
              125.85664062500001,
              52.89935944218162
            ],
            [
              125.86347656250001,
              52.88886139530662
            ],
            [
              125.86142578125003,
              52.88165924686912
            ],
            [
              125.857177734375,
              52.87470123905662
            ],
            [
              125.85664062500001,
              52.86456940311912
            ],
            [
              125.86074218750002,
              52.856317449994116
            ],
            [
              125.8671875,
              52.84962799686912
            ],
            [
              125.9765625,
              52.765252996869116
            ],
            [
              125.98496093750003,
              52.76483795780662
            ],
            [
              126.007080078125,
              52.77887604374412
            ],
            [
              126.01748046875002,
              52.78266022343162
            ],
            [
              126.06640625,
              52.78346588749412
            ],
            [
              126.08779296875002,
              52.77565338749412
            ],
            [
              126.103759765625,
              52.75470612186912
            ],
            [
              126.065673828125,
              52.74445221561912
            ],
            [
              126.048583984375,
              52.73737213749412
            ],
            [
              126.034912109375,
              52.727411199994116
            ],
            [
              126.0615234375,
              52.69696686405662
            ],
            [
              126.06845703125003,
              52.68019440311912
            ],
            [
              126.05224609375,
              52.67279694218162
            ],
            [
              126.02724609375002,
              52.67145416874412
            ],
            [
              126.00234375000002,
              52.66571686405662
            ],
            [
              125.98251953125003,
              52.65338776249412
            ],
            [
              125.97275390625003,
              52.63185455936912
            ],
            [
              125.97705078125,
              52.61102936405662
            ],
            [
              125.990625,
              52.58673737186912
            ],
            [
              126.00888671875003,
              52.56867096561912
            ],
            [
              126.02773437500002,
              52.56666901249412
            ],
            [
              126.03925781250001,
              52.56989166874412
            ],
            [
              126.05039062500003,
              52.57147858280662
            ],
            [
              126.058837890625,
              52.57575104374412
            ],
            [
              126.062255859375,
              52.58746979374412
            ],
            [
              126.06845703125003,
              52.59564850468162
            ],
            [
              126.082275390625,
              52.593622137494116
            ],
            [
              126.17011718750001,
              52.54787018436912
            ],
            [
              126.2119140625,
              52.53327057499412
            ],
            [
              126.21005859375003,
              52.51173737186912
            ],
            [
              126.200439453125,
              52.48676178593162
            ],
            [
              126.2,
              52.46735260624412
            ],
            [
              126.21640625000003,
              52.46503327030662
            ],
            [
              126.24658203125,
              52.46613190311912
            ],
            [
              126.27578125000002,
              52.46356842655662
            ],
            [
              126.288818359375,
              52.45026276249412
            ],
            [
              126.2958984375,
              52.43549225468162
            ],
            [
              126.31240234375002,
              52.41766998905662
            ],
            [
              126.34326171875,
              52.39166901249412
            ],
            [
              126.35048828125002,
              52.37721588749412
            ],
            [
              126.343994140625,
              52.35785553593162
            ],
            [
              126.3154296875,
              52.31647369999412
            ],
            [
              126.34423828125,
              52.30292389530662
            ],
            [
              126.420654296875,
              52.28754303593162
            ],
            [
              126.43896484375,
              52.27558014530662
            ],
            [
              126.39179687500001,
              52.26459381718162
            ],
            [
              126.31171875000001,
              52.22821686405662
            ],
            [
              126.30908203125,
              52.21412994999412
            ],
            [
              126.31640625,
              52.20001862186912
            ],
            [
              126.33251953125,
              52.19362213749412
            ],
            [
              126.350341796875,
              52.192010809369116
            ],
            [
              126.45302734375002,
              52.165887762494116
            ],
            [
              126.49365234375,
              52.161493231244116
            ],
            [
              126.53085937500003,
              52.152948309369116
            ],
            [
              126.5556640625,
              52.13092682499412
            ],
            [
              126.55097656250001,
              52.11322662968162
            ],
            [
              126.51943359375002,
              52.06159088749412
            ],
            [
              126.51406250000002,
              52.04901764530662
            ],
            [
              126.51406250000002,
              52.04279205936912
            ],
            [
              126.49130859375003,
              52.03908112186912
            ],
            [
              126.46669921875002,
              52.03192780155662
            ],
            [
              126.447021484375,
              52.01906159061912
            ],
            [
              126.43896484375,
              51.99811432499412
            ],
            [
              126.44580078125,
              51.98285553593162
            ],
            [
              126.64765625000001,
              51.74152252811912
            ],
            [
              126.662109375,
              51.73371002811912
            ],
            [
              126.71337890625,
              51.72345612186912
            ],
            [
              126.71542968750003,
              51.71779205936912
            ],
            [
              126.725341796875,
              51.70905182499412
            ],
            [
              126.7275390625,
              51.70331452030662
            ],
            [
              126.72451171875002,
              51.69782135624412
            ],
            [
              126.71748046875001,
              51.69122955936912
            ],
            [
              126.71054687500003,
              51.68629791874412
            ],
            [
              126.70712890625003,
              51.68585846561912
            ],
            [
              126.71542968750003,
              51.663446356244116
            ],
            [
              126.72412109375,
              51.64984772343162
            ],
            [
              126.723388671875,
              51.63617584843162
            ],
            [
              126.70361328125,
              51.613885809369116
            ],
            [
              126.6748046875,
              51.58864166874412
            ],
            [
              126.676513671875,
              51.57692291874412
            ],
            [
              126.7001953125,
              51.56300690311912
            ],
            [
              126.77529296875002,
              51.54596588749412
            ],
            [
              126.80712890625,
              51.53444244999412
            ],
            [
              126.830078125,
              51.50836823124412
            ],
            [
              126.80126953125,
              51.47748444218162
            ],
            [
              126.79238281250002,
              51.459344793744116
            ],
            [
              126.78896484375002,
              51.43610260624412
            ],
            [
              126.80009765624999,
              51.41925690311912
            ],
            [
              126.82568359375,
              51.41229889530662
            ],
            [
              126.87656250000003,
              51.41017487186912
            ],
            [
              126.88974609375003,
              51.40729401249412
            ],
            [
              126.90175781250002,
              51.401239324994116
            ],
            [
              126.90908203125002,
              51.39137604374412
            ],
            [
              126.90869140625,
              51.37726471561912
            ],
            [
              126.897216796875,
              51.36225006718162
            ],
            [
              126.8798828125,
              51.35646393436912
            ],
            [
              126.86044921875003,
              51.35419342655662
            ],
            [
              126.843017578125,
              51.34962799686912
            ],
            [
              126.82675781250003,
              51.339227606244116
            ],
            [
              126.813720703125,
              51.32521393436912
            ],
            [
              126.80683593750001,
              51.30841705936912
            ],
            [
              126.80869140625003,
              51.28937409061912
            ],
            [
              126.82343750000001,
              51.26588776249412
            ],
            [
              126.845458984375,
              51.25172760624412
            ],
            [
              126.86962890625,
              51.25202057499412
            ],
            [
              126.890380859375,
              51.27174713749412
            ],
            [
              126.892578125,
              51.28224518436912
            ],
            [
              126.88876953125003,
              51.28961823124412
            ],
            [
              126.884521484375,
              51.29591705936912
            ],
            [
              126.88496093750001,
              51.30316803593162
            ],
            [
              126.89101562500002,
              51.31073639530662
            ],
            [
              126.89902343750003,
              51.316766668744116
            ],
            [
              126.90810546875002,
              51.32147858280662
            ],
            [
              126.9169921875,
              51.32501862186912
            ],
            [
              126.93417968750003,
              51.32904694218162
            ],
            [
              126.95429687500001,
              51.32985260624412
            ],
            [
              126.97177734375003,
              51.32428619999412
            ],
            [
              126.98085937500002,
              51.30914948124412
            ],
            [
              126.9775390625,
              51.29682037968162
            ],
            [
              126.96767578125002,
              51.28180573124412
            ],
            [
              126.94667968750002,
              51.25836823124412
            ],
            [
              126.91591796875002,
              51.233026434369116
            ],
            [
              126.90869140625,
              51.22194244999412
            ],
            [
              126.90478515625,
              51.208368231244116
            ],
            [
              126.903564453125,
              51.19362213749412
            ],
            [
              126.905029296875,
              51.16449616093162
            ],
            [
              126.90927734375003,
              51.14630768436912
            ],
            [
              126.92275390625002,
              51.10822174686912
            ],
            [
              126.925537109375,
              51.086297918744116
            ],
            [
              126.93154296875002,
              51.06403229374412
            ],
            [
              126.94599609375001,
              51.04865143436912
            ],
            [
              126.98085937500002,
              51.027948309369116
            ],
            [
              127.031982421875,
              50.97272369999412
            ],
            [
              127.04677734375002,
              50.96747467655662
            ],
            [
              127.11044921875003,
              50.931756903119116
            ],
            [
              127.14394531250002,
              50.90375397343162
            ],
            [
              127.22031250000003,
              50.78839752811912
            ],
            [
              127.24082031250003,
              50.77496979374412
            ],
            [
              127.265869140625,
              50.76434967655662
            ],
            [
              127.287109375,
              50.75128815311912
            ],
            [
              127.296142578125,
              50.730340887494116
            ],
            [
              127.29531250000002,
              50.72308991093162
            ],
            [
              127.29296875,
              50.71564362186912
            ],
            [
              127.28955078125,
              50.708612371869116
            ],
            [
              127.28564453125,
              50.702752996869116
            ],
            [
              127.28212890625002,
              50.69508698124412
            ],
            [
              127.28339843750001,
              50.68854401249412
            ],
            [
              127.28681640625001,
              50.68219635624412
            ],
            [
              127.28867187500003,
              50.675409246869116
            ],
            [
              127.29453125000003,
              50.66669342655662
            ],
            [
              127.32675781250003,
              50.63751862186912
            ],
            [
              127.34345703125001,
              50.62799713749412
            ],
            [
              127.3583984375,
              50.60529205936912
            ],
            [
              127.36669921875,
              50.57807037968162
            ],
            [
              127.36435546875003,
              50.55499909061912
            ],
            [
              127.3564453125,
              50.54486725468162
            ],
            [
              127.33339843750002,
              50.525262762494116
            ],
            [
              127.32343750000001,
              50.514032293744116
            ],
            [
              127.30996093750002,
              50.488641668744116
            ],
            [
              127.30244140625001,
              50.477899481244116
            ],
            [
              127.28867187500003,
              50.46625397343162
            ],
            [
              127.30429687500003,
              50.45172760624412
            ],
            [
              127.348876953125,
              50.42645905155662
            ],
            [
              127.358154296875,
              50.41535065311912
            ],
            [
              127.35927734375002,
              50.39313385624412
            ],
            [
              127.3583984375,
              50.38161041874412
            ],
            [
              127.3544921875,
              50.37379791874412
            ],
            [
              127.345458984375,
              50.36469147343162
            ],
            [
              127.33730468750002,
              50.35297272343162
            ],
            [
              127.33154296875,
              50.34039948124412
            ],
            [
              127.33017578125003,
              50.32843659061912
            ],
            [
              127.35429687500005,
              50.29889557499412
            ],
            [
              127.40439453125003,
              50.276239324994116
            ],
            [
              127.578125,
              50.220819403119116
            ],
            [
              127.59033203125,
              50.20900299686912
            ]
          ]
        ]
      }
    },
    {
      "type": "Feature",
      "properties": {
        "name": "Ангара",
        "name_en": "Angara",
        "description": "Ангара — единственная река, вытекающая из озера Байкал; правый приток Енисея. На реке расположены крупные ГЭС.",
        "hard_enabled": true
      },
      "geometry": null
    },
    {
      "type": "Feature",
      "properties": {
        "name": "Аргунь",
        "name_en": "Argun",
        "description": "Аргунь — пограничная река России и Китая. Образует Амур при слиянии с Шилкой. Питание преимущественно дождевое.",
        "hard_enabled": true
      },
      "geometry": null
    },
    {
      "type": "Feature",
      "properties": {
        "name": "Витим",
        "name_en": "Vitim",
        "description": "Витим — крупный левый приток Лены. Протекает по Забайкалью и Якутии. Характерен горными участками течения.",
        "hard_enabled": true
      },
      "geometry": null
    },
    {
      "type": "Feature",
      "properties": {
        "name": "Волга",
        "name_en": "Volga",
        "description": "Волга — самая длинная река Европы и крупнейшая водная система России. Впадает в Каспийское море.",
        "hard_enabled": true
      },
      "geometry": null
    },
    {
      "type": "Feature",
      "properties": {
        "name": "Днепр",
        "name_en": "Dnieper",
        "description": "Днепр протекает по России, Беларуси и Украине. Исток — в Смоленской области. Впадает в Чёрное море.",
        "hard_enabled": true
      },
      "geometry": null
    },
    {
      "type": "Feature",
      "properties": {
        "name": "Дон",
        "name_en": "Don",
        "description": "Дон — река юга Европейской России, впадает в Азовское море. Известен историческими торговыми путями.",
        "hard_enabled": true
      },
      "geometry": null
    },
    {
      "type": "Feature",
      "properties": {
        "name": "Енисей",
        "name_en": "Yenisey, Krasnoyarsk",
        "description": "Енисей — одна из крупнейших рек мира по стоку. Протекает с юга на север, впадает в Карское море.",
        "hard_enabled": true
      },
      "geometry": null
    },
    {
      "type": "Feature",
      "properties": {
        "name": "Индигирка",
        "name_en": "Indigirka",
        "description": "Индигирка — северо-восточная река Якутии. Впадает в Восточно-Сибирское море. Течёт в зоне вечной мерзлоты.",
        "hard_enabled": true
      },
      "geometry": null
    },
    {
      "type": "Feature",
      "properties": {
        "name": "Иртыш",
        "name_en": "Irtysh",
        "description": "Иртыш — крупнейший приток Оби, протекает по Китаю, Казахстану и России. Вместе с Обью образует протяжённую речную систему.",
        "hard_enabled": true
      },
      "geometry": null
    },
    {
      "type": "Feature",
      "properties": {
        "name": "Кама",
        "name_en": "Kama",
        "description": "Кама — крупнейший приток Волги. Начинается в Удмуртии и имеет разветвлённую гидросистему водохранилищ.",
        "hard_enabled": true
      },
      "geometry": null
    },
    {
      "type": "Feature",
      "properties": {
        "name": "Колыма",
        "name_en": "Kolyma",
        "description": "Колыма течёт по Магаданской области и Якутии. Впадает в Восточно-Сибирское море. Характерны суровые климатические условия.",
        "hard_enabled": true
      },
      "geometry": null
    },
    {
      "type": "Feature",
      "properties": {
        "name": "Лена",
        "name_en": "Lena",
        "description": "Лена — одна из величайших рек Сибири, берёт начало в Байкальских горах и впадает в море Лаптевых. Известна огромным бассейном и протяжённостью.",
        "hard_enabled": true
      },
      "geometry": null
    },
    {
      "type": "Feature",
      "properties": {
        "name": "Нева",
        "name_en": "Neva",
        "description": "Нева — короткая, но значимая река, вытекающая из Ладожского озера и впадающая в Финский залив. Через неё проходит водный путь Балтийское — Волга.",
        "hard_enabled": true
      },
      "geometry": null
    },
    {
      "type": "Feature",
      "properties": {
        "name": "Обь",
        "name_en": "Ob",
        "description": "Обь — одна из крупнейших рек России и мира по длине. Впадает в Обскую губу Карского моря. Образует огромную водную систему с Иртышом.",
        "hard_enabled": true
      },
      "geometry": null
    },
    {
      "type": "Feature",
      "properties": {
        "name": "Печора",
        "name_en": "Pechora",
        "description": "Печора — северная река Европейской России, впадает в Печорское море. Течёт в климатически суровых условиях.",
        "hard_enabled": true
      },
      "geometry": null
    },
    {
      "type": "Feature",
      "properties": {
        "name": "Северная Двина",
        "name_en": "Northern Dvina",
        "description": "Северная Двина образуется при слиянии рек Сухона и Юг, впадает в Белое море. Важный путь северной России.",
        "hard_enabled": true
      },
      "geometry": null
    },
    {
      "type": "Feature",
      "properties": {
        "name": "Урал",
        "name_en": "Ural",
        "description": "Урал протекает по России и Казахстану. Впадает в Каспийское море. Часто используется как граница между Европой и Азией.",
        "hard_enabled": true
      },
      "geometry": null
    },
    {
      "type": "Feature",
      "properties": {
        "name": "Шилка",
        "name_en": "Shilka",
        "description": "Шилка — река Забайкалья, образуется при слиянии Онон и Ингоды. Вместе с Аргунью формирует Амур.",
        "hard_enabled": true
      },
      "geometry": null
    },
    {
      "type": "Feature",
      "properties": {
        "name": "Яна",
        "name_en": "Yana",
        "description": "Яна — река Якутии, впадает в море Лаптевых. Течёт по районам вечной мерзлоты и имеет выраженный весенний паводок.",
        "hard_enabled": true
      },
      "geometry": null
    }
  ]
}