{
  "type": "FeatureCollection",
  "features": [
    {
      "type": "Feature",
      "geometry": null,
      "properties": {
        "name": "Балтийское море",
        "description": "Через Балтику русские купцы налаживали связи с Западной Европой, открывая морские торговые пути.",
        "name_en": "Baltic Sea"
      }
    },
    {
      "type": "Feature",
      "geometry": null,
      "properties": {
        "name": "Белое море",
        "description": "Издавна освоено русскими поморами, именно здесь началась история освоения северных территорий России.",
        "name_en": "White Sea"
      }
    },
    {
      "type": "Feature",
      "geometry": null,
      "properties": {
        "name": "Баренцево море",
        "description": "Здесь расположен архипелаг Шпицберген, который длительное время использовался для международных научных исследований.",
        "name_en": "Barents Sea"
      }
    },
    {
      "type": "Feature",
      "geometry": null,
      "properties": {
        "name": "Карское море",
        "description": "Благодаря экспедициям русских ученых стало известным количество льда и особенности судоходства в Арктике.",
        "name_en": "Kara Sea"
      }
    },
    {
      "type": "Feature",
      "geometry": null,
      "properties": {
        "name": "Море Лаптевых",
        "description": "Названо в честь братьев Лаптевых, совершивших значительные открытия в исследовании побережья Сибири.",
        "name_en": "Laptev Sea"
      }
    },
    {
      "type": "Feature",
      "geometry": null,
      "properties": {
        "name": "Восточно-Сибирское море",
        "description": "Практически круглый год покрыто льдами, ставя перед исследователям уникальные проблемы навигации.",
        "name_en": "East Siberian Sea"
      }
    },
    {
      "type": "Feature",
      "geometry": null,
      "properties": {
        "name": "Берингово море",
        "description": "Получило свое название в честь известного мореплавателя Витуса Беринга, исследовавшего Северную Америку и Россию.",
        "name_en": "Bering Sea"
      }
    },
    {
      "type": "Feature",
      "geometry": null,
      "properties": {
        "name": "Охотское море",
        "description": "Имеет площадь, сопоставимую с размерами крупных европейских государств, таких как Франция и Германия.",
        "name_en": "Sea of Okhotsk"
      }
    },
    {
      "type": "Feature",
      "geometry": {
        "type": "Polygon",
        "coordinates": [
          [
            [
              -172.35531992880584,
              64.49567117467996
            ],
            [
              -171.67089258934567,
              63.74483152999173
            ],
            [
              -171.48591222732938,
              63.588926866915244
            ],
            [
              -170.93097114128057,
              63.597153757047835
            ],
            [
              -170.48701827244156,
              63.67108879048121
            ],
            [
              -170.30203791042527,
              63.67108879048121
            ],
            [
              -170.117057548409,
              63.62182015752299
            ],
            [
              -169.98757129499762,
              63.48176060083074
            ],
            [
              -169.821088969183,
              63.43216331881953
            ],
            [
              -168.78519894189185,
              63.32440734780815
            ],
            [
              -166.28796405467227,
              64.57520392986618
            ],
            [
              -166.4544463804869,
              64.76513874690352
            ],
            [
              -166.4544463804869,
              64.922404084502
            ],
            [
              -166.67642281490643,
              64.96157696495445
            ],
            [
              -166.80590906831782,
              65.07875236408125
            ],
            [
              -167.47183837157638,
              65.43489596873962
            ],
            [
              -168.0082814214236,
              65.5576494091404
            ],
            [
              -169.08116752111792,
              65.7558963894169
            ],
            [
              -169.67310467956995,
              66.0354132536178
            ],
            [
              -170.3205359466269,
              65.94509291173907
            ],
            [
              -170.54251238104644,
              65.62644499471739
            ],
            [
              -171.0234613222887,
              65.46563843822861
            ],
            [
              -172.09634742198307,
              65.03194392203645
            ],
            [
              -172.05935134957983,
              64.76513874690352
            ],
            [
              -172.35531992880584,
              64.49567117467996
            ]
          ]
        ]
      },
      "properties": {
        "name": "Берингов пролив",
        "description": "Точка соприкосновения двух континентов — Азии и Америки, важный стратегический пункт мировой истории.",
        "name_en": "Bering Strait"
      }
    },
    {
      "type": "Feature",
      "geometry": null,
      "properties": {
        "name": "Уральские горы",
        "description": "Уральские горы являются естественной границей между Европой и Азией.",
        "name_en": "Ural Mountains"
      }
    },
    {
      "type": "Feature",
      "geometry": {
        "type": "Point",
        "coordinates": [
          -169.672524,
          66.082655
        ]
      },
      "properties": {
        "name": "Мыс Дежнёва",
        "description": "Восток Евразии получил своё название в честь знаменитого русского землепроходца Семена Дежнева, открывшего морской проход вокруг Сибири.",
        "name_en": "Cape Dezhnev"
      }
    },
    {
      "type": "Feature",
      "geometry": null,
      "properties": {
        "name": "Чукотское море",
        "description": "Береговая линия этого моря заселена народом чукчей, сохраняющим традиционные занятия, такими как охота и оленеводство.",
        "name_en": "Chukchi Sea"
      }
    },    
    {
      "type": "Feature",
      "geometry": null,
      "properties": {
        "name": "Мыс Челюскина",
        "description": "Самый северный мыс России, знаменитый тем, что был конечной точкой множества исследовательских экспедиций.",
        "name_en": "Cape Chelyuskin"
      }
    },
    {
      "type": "Feature",
      "geometry": null,
      "properties": {
        "name": "Река Обь",
        "description": "Возникла путем слияния рек Бии и Катуни, образует огромную заболоченную дельту, одну из крупнейших в России.",
        "name_en": "Ob"
      }
    },
    {
      "type": "Feature",
      "geometry": null,
      "properties": {
        "name": "Река Иртыш",
        "description": "Официально признана притоком Оби, хотя фактически она значительно длиннее главной реки.",
        "name_en": "Irtysh"
      }
    },
    {
      "type": "Feature",
      "geometry": null,
      "properties": {
        "name": "Река Енисей",
        "description": "Третья по длине речная система России, важная транспортная магистраль для перевозки грузов.",
        "name_en": "Yenisey"
      }
    },
    {
      "type": "Feature",
      "geometry": null,
      "properties": {
        "name": "Река Лена",
        "description": "Символизирует дикую природу Восточной Сибири, являясь второй по длине рекой страны.",
        "name_en": "Lena"
      }
    },
    {
      "type": "Feature",
      "geometry": 
        { 
          "type": "MultiLineString", 
          "coordinates": 
          [ [ [ 
            136.810546875, 49.759295965619117 ], [ 136.7880859375, 49.77289459843162 ], [ 136.77685546875, 49.78632233280662 ], [ 136.76513671875, 49.800067449994117 ], [ 136.763574218750023, 49.82013580936912 ], [ 136.756933593750034, 49.85248444218162 ], [ 136.7568359375, 49.88019440311912 ], [ 136.775, 49.90656159061912 ], [ 136.785839843750011, 49.92975494999412 ], [ 136.7978515625, 49.95905182499412 ], [ 136.814355468750023, 50.01801178593162 ], [ 136.836816406250023, 50.05133698124412 ], [ 136.85693359375, 50.078631903119117 ], [ 136.870361328125, 50.10211823124412 ], [ 136.891357421875, 50.12445709843162 ], [ 136.923095703125, 50.13886139530662 ], [ 136.96337890625, 50.145770574994117 ], [ 137.004199218750045, 50.15949127811912 ], [ 137.033789062500034, 50.17694733280662 ], [ 137.05859375, 50.195819403119117 ], [ 137.094482421875, 50.21954987186912 ], [ 137.11181640625, 50.24616119999412 ], [ 137.10107421875, 50.265399481244117 ], [ 137.092675781250023, 50.29425690311912 ], [ 137.087890625, 50.32440827030662 ], [ 137.085351562500023, 50.36078522343162 ], [ 137.074804687500034, 50.43585846561912 ], [ 137.06982421875, 50.45404694218162 ] ], [ [ 139.857617187500011, 51.57880280155662 ], [ 139.872167968750034, 51.58161041874412 ], [ 139.897851562500023, 51.58905670780662 ], [ 139.919189453125, 51.60224030155662 ], [ 139.97216796875, 51.645379949994116 ], [ 140.05419921875, 51.721942449994117 ], [ 140.089746093750023, 51.74884674686912 ], [ 140.114013671875, 51.76361725468162 ] ], [ [ 127.59033203125, 50.209002996869117 ], [ 127.589648437500045, 50.18659088749412 ], [ 127.586523437500034, 50.16742584843162 ], [ 127.580322265625, 50.14935944218162 ], [ 127.56982421875, 50.13043854374412 ], [ 127.50625, 50.063739324994117 ], [ 127.486328125, 50.025897528119117 ], [ 127.494140625, 49.97345612186912 ], [ 127.521240234375, 49.94147369999412 ], [ 127.53369140625, 49.922723699994116 ], [ 127.531982421875, 49.90790436405662 ], [ 127.5205078125, 49.89203522343162 ], [ 127.511328125000034, 49.86933014530662 ], [ 127.50634765625, 49.84454987186912 ], [ 127.5078125, 49.82257721561912 ], [ 127.538281250000011, 49.79022858280662 ], [ 127.64404296875, 49.76740143436912 ], [ 127.6796875, 49.739374090619116 ], [ 127.68603515625, 49.71710846561912 ], [ 127.686718750000011, 49.69916412968162 ], [ 127.689697265625, 49.68170807499412 ], [ 127.703222656250034, 49.660907293744117 ], [ 127.7216796875, 49.64887116093162 ], [ 127.769775390625, 49.63410065311912 ], [ 127.78955078125, 49.62335846561912 ], [ 127.809277343750011, 49.60736725468162 ], [ 127.83056640625, 49.594110418744116 ], [ 127.8544921875, 49.585077215619116 ], [ 127.906982421875, 49.58051178593162 ], [ 127.92041015625, 49.58136627811912 ], [ 127.929785156250034, 49.58551666874412 ], [ 127.9404296875, 49.59613678593162 ], [ 127.947509765625, 49.601434637494116 ], [ 127.955078125, 49.603290106244117 ], [ 127.9677734375, 49.60346100468162 ], [ 127.9912109375, 49.598993231244116 ], [ 128.01220703125, 49.58771393436912 ], [ 128.046484375000034, 49.558465887494116 ], [ 128.06689453125, 49.54694244999412 ], [ 128.09228515625, 49.54181549686912 ], [ 128.198144531250023, 49.53925202030662 ], [ 128.224853515625, 49.542108465619116 ], [ 128.2451171875, 49.551629949994116 ], [ 128.267822265625, 49.55902741093162 ], [ 128.320068359375, 49.545038153119116 ], [ 128.344482421875, 49.548211981244116 ], [ 128.3525390625, 49.55475494999412 ], [ 128.364648437500023, 49.57001373905662 ], [ 128.371679687500034, 49.575555731244116 ], [ 128.383203125000023, 49.579608465619117 ], [ 128.550976562500011, 49.58869049686912 ], [ 128.62841796875, 49.575555731244116 ], [ 128.634960937500011, 49.57843659061912 ], [ 128.665722656250011, 49.60968659061912 ], [ 128.671484375000034, 49.611688543744116 ], [ 128.686425781250023, 49.60346100468162 ], [ 128.733984375000034, 49.584588934369116 ], [ 128.759179687500023, 49.57807037968162 ], [ 128.786376953125, 49.575555731244116 ], [ 128.796630859375, 49.57269928593162 ], [ 128.801513671875, 49.56537506718162 ], [ 128.802978515625, 49.55536530155662 ], [ 128.803125, 49.54450104374412 ], [ 128.79931640625, 49.532098699994116 ], [ 128.790136718750034, 49.527362371869117 ], [ 128.779052734375, 49.52533600468162 ], [ 128.76904296875, 49.52094147343162 ], [ 128.753808593750023, 49.50275299686912 ], [ 128.749902343750023, 49.48480866093162 ], [ 128.759765625, 49.47113678593162 ], [ 128.786376953125, 49.465692449994116 ], [ 128.8095703125, 49.46893952030662 ], [ 128.853271484375, 49.48078034061912 ], [ 128.87890625, 49.479999090619117 ], [ 128.901757812500023, 49.47199127811912 ], [ 128.94677734375, 49.44977448124412 ], [ 128.997802734375, 49.441522528119116 ], [ 129.014404296875, 49.43134186405662 ], [ 129.05029296875, 49.37702057499412 ], [ 129.066699218750045, 49.361932684369116 ], [ 129.0875, 49.35236237186912 ], [ 129.114990234375, 49.348993231244116 ], [ 129.1357421875, 49.35443756718162 ], [ 129.1708984375, 49.380633856244117 ], [ 129.193603515625, 49.38996002811912 ], [ 129.217675781250023, 49.39105866093162 ], [ 129.245214843750034, 49.38617584843162 ], [ 129.27197265625, 49.375506903119117 ], [ 129.31591796875, 49.344354559369116 ], [ 129.340722656250023, 49.34137604374412 ], [ 129.361718750000023, 49.350116278119117 ], [ 129.372949218750023, 49.370135809369117 ], [ 129.371191406250034, 49.41083405155662 ], [ 129.37841796875, 49.425311590619117 ], [ 129.403076171875, 49.430926824994117 ], [ 129.45458984375, 49.42755768436912 ], [ 129.480371093750023, 49.421502996869116 ], [ 129.501953125, 49.41107819218162 ], [ 129.519433593750023, 49.397333074994116 ], [ 129.527587890625, 49.385126043744116 ], [ 129.530029296875, 49.36957428593162 ], [ 129.531835937500034, 49.321795965619117 ], [ 129.538671875000034, 49.30402252811912 ], [ 129.551513671875, 49.29071686405662 ], [ 129.571533203125, 49.28009674686912 ], [ 129.618896484375, 49.27448151249412 ], [ 129.668847656250023, 49.279413153119116 ], [ 129.7109375, 49.274432684369117 ], [ 129.734765625000023, 49.239129949994116 ], [ 129.7373046875, 49.20575592655662 ], [ 129.741601562500023, 49.19599030155662 ], [ 129.75537109375, 49.18451569218162 ], [ 129.775634765625, 49.17780182499412 ], [ 129.824462890625, 49.174432684369116 ], [ 129.841210937500023, 49.16742584843162 ], [ 129.845117187500023, 49.154315496869117 ], [ 129.841210937500023, 49.10944244999412 ], [ 129.862207031250023, 49.10675690311912 ], [ 129.882910156250034, 49.10004303593162 ], [ 129.92041015625, 49.08209869999412 ], [ 129.911376953125, 49.05951569218162 ], [ 129.9130859375, 49.039813543744117 ], [ 129.926171875000023, 49.02594635624412 ], [ 129.974023437500023, 49.015399481244117 ], [ 129.99658203125, 49.00263092655662 ], [ 130.037109375, 48.97223541874412 ], [ 130.201562500000023, 48.88287994999412 ], [ 130.2490234375, 48.86481354374412 ], [ 130.293212890625, 48.870379949994117 ], [ 130.337890625, 48.885614324994116 ], [ 130.386474609375, 48.89655182499412 ], [ 130.439453125, 48.896747137494117 ], [ 130.465039062500011, 48.891620184369117 ], [ 130.475830078125, 48.879754949994116 ], [ 130.486328125, 48.86395905155662 ], [ 130.51123046875, 48.85578034061912 ], [ 130.540625, 48.85370514530662 ], [ 130.564697265625, 48.856219793744117 ], [ 130.624755859375, 48.87457916874412 ], [ 130.650390625, 48.87665436405662 ], [ 130.674072265625, 48.87103912968162 ], [ 130.676171875000023, 48.857684637494117 ], [ 130.666406250000023, 48.84174225468162 ], [ 130.62744140625, 48.79633209843162 ], [ 130.532958984375, 48.636102606244116 ], [ 130.529541015625, 48.616473699994117 ], [ 130.54052734375, 48.59857819218162 ], [ 130.56201171875, 48.588397528119117 ], [ 130.586181640625, 48.58368561405662 ], [ 130.607421875, 48.57697174686912 ], [ 130.619873046875, 48.56073639530662 ], [ 130.62060546875, 48.54950592655662 ], [ 130.614501953125, 48.530389715619116 ], [ 130.613037109375, 48.519794012494117 ], [ 130.615478515625, 48.50836823124412 ], [ 130.624267578125, 48.48859284061912 ], [ 130.6259765625, 48.48248932499412 ], [ 130.639062500000023, 48.47748444218162 ], [ 130.715429687500034, 48.499286199994117 ], [ 130.744042968750023, 48.497577215619117 ], [ 130.758691406250023, 48.485956121869116 ], [ 130.75927734375, 48.46820709843162 ], [ 130.74609375, 48.44806549686912 ], [ 130.738037109375, 48.430047918744116 ], [ 130.742919921875, 48.411883856244117 ], [ 130.763281250000034, 48.383172918744116 ], [ 130.7734375, 48.364520574994117 ], [ 130.779541015625, 48.356708074994117 ], [ 130.7900390625, 48.34845612186912 ], [ 130.803125, 48.34296295780662 ], [ 130.814160156250011, 48.340204168744116 ], [ 130.82177734375, 48.33405182499412 ], [ 130.82470703125, 48.31806061405662 ], [ 130.82373046875, 48.29437897343162 ], [ 130.819042968750011, 48.28217194218162 ], [ 130.773535156250034, 48.24445221561912 ], [ 130.7685546875, 48.236932684369116 ], [ 130.763281250000034, 48.22553131718162 ], [ 130.75244140625, 48.18988678593162 ], [ 130.74609375, 48.18463776249412 ], [ 130.729296875000045, 48.178241278119117 ], [ 130.70703125, 48.16364166874412 ], [ 130.674560546875, 48.13617584843162 ], [ 130.6630859375, 48.11664459843162 ], [ 130.664453125000023, 48.102313543744117 ], [ 130.670654296875, 48.08685944218162 ], [ 130.674560546875, 48.064227606244117 ], [ 130.68212890625, 48.05060455936912 ], [ 130.857031250000034, 47.92804596561912 ], [ 130.906640625000023, 47.88446686405662 ], [ 130.94140625, 47.82086823124412 ], [ 130.942138671875, 47.790057684369117 ], [ 130.938085937500034, 47.751336981244116 ], [ 130.941699218750045, 47.71820709843162 ], [ 130.96533203125, 47.70416901249412 ], [ 130.983300781250023, 47.70026276249412 ], [ 131.023193359375, 47.68256256718162 ], [ 131.043847656250023, 47.677508856244117 ], [ 131.084082031250034, 47.67536041874412 ], [ 131.103613281250034, 47.676776434369117 ], [ 131.12890625, 47.681512762494116 ], [ 131.166894531250023, 47.697381903119116 ], [ 131.2099609375, 47.70941803593162 ], [ 131.418066406250034, 47.74286530155662 ], [ 131.440527343750034, 47.74140045780662 ], [ 131.474609375, 47.73468659061912 ], [ 131.507421875000034, 47.721795965619116 ], [ 131.53759765625, 47.703485418744116 ], [ 131.5771484375, 47.668817449994116 ], [ 131.58447265625, 47.664911199994116 ], [ 131.593652343750023, 47.662616278119117 ], [ 131.602929687500023, 47.661737371869116 ], [ 131.6123046875, 47.662225653119116 ], [ 131.621484375000023, 47.664081121869117 ], [ 131.63037109375, 47.667108465619116 ], [ 131.683203125000034, 47.69489166874412 ], [ 131.70263671875, 47.696405340619116 ], [ 131.780029296875, 47.679315496869116 ], [ 131.798828125, 47.67963287968162 ], [ 131.835693359375, 47.684833074994117 ], [ 131.854296875000045, 47.684344793744117 ], [ 131.864648437500023, 47.68183014530662 ], [ 131.89404296875, 47.67023346561912 ], [ 131.903222656250023, 47.66840241093162 ], [ 131.913671875000034, 47.66791412968162 ], [ 131.924072265625, 47.669208074994117 ], [ 131.9326171875, 47.672479559369116 ], [ 131.95703125, 47.68720123905662 ], [ 131.966015625000011, 47.69025299686912 ], [ 132.025, 47.69806549686912 ], [ 132.0888671875, 47.69501373905662 ], [ 132.11669921875, 47.689715887494117 ], [ 132.161376953125, 47.69025299686912 ], [ 132.188720703125, 47.69586823124412 ], [ 132.201904296875, 47.70075104374412 ], [ 132.25048828125, 47.725604559369117 ], [ 132.26416015625, 47.72907135624412 ], [ 132.33203125, 47.73676178593162 ], [ 132.3662109375, 47.735614324994117 ], [ 132.400292968750023, 47.730096746869116 ], [ 132.453027343750023, 47.71076080936912 ], [ 132.4755859375, 47.70709869999412 ], [ 132.524316406250023, 47.70770905155662 ], [ 132.5361328125, 47.711297918744116 ], [ 132.546875, 47.717059637494117 ], [ 132.556542968750023, 47.72370026249412 ], [ 132.573828125000034, 47.73981354374412 ], [ 132.580078125, 47.74823639530662 ], [ 132.58203125, 47.75641510624412 ], [ 132.58056640625, 47.765008856244116 ], [ 132.573437500000011, 47.782489324994117 ], [ 132.573437500000011, 47.78864166874412 ], [ 132.576171875, 47.79450104374412 ], [ 132.5810546875, 47.80097077030662 ], [ 132.607177734375, 47.82782623905662 ], [ 132.658593750000023, 47.87006256718162 ], [ 132.667675781250011, 47.88153717655662 ], [ 132.671972656250034, 47.89472077030662 ], [ 132.671142578125, 47.90277741093162 ], [ 132.667871093750023, 47.90961334843162 ], [ 132.663818359375, 47.91608307499412 ], [ 132.660546875000023, 47.92328522343162 ], [ 132.66015625, 47.93158600468162 ], [ 132.662988281250023, 47.93891022343162 ], [ 132.667871093750023, 47.94537994999412 ], [ 132.674414062500034, 47.95087311405662 ], [ 132.688867187500023, 47.958026434369117 ], [ 132.705468750000023, 47.960565496869116 ], [ 132.722265625000034, 47.95917389530662 ], [ 132.73779296875, 47.95441315311912 ], [ 132.76220703125, 47.93964264530662 ], [ 132.774658203125, 47.933954168744116 ], [ 132.789257812500011, 47.932977606244116 ], [ 132.805566406250023, 47.93646881718162 ], [ 132.8203125, 47.94257233280662 ], [ 132.833105468750034, 47.95184967655662 ], [ 132.853271484375, 47.97638580936912 ], [ 132.864501953125, 47.98590729374412 ], [ 132.940039062500034, 48.022821356244116 ], [ 132.940527343750034, 48.02692291874412 ], [ 133.0244140625, 48.05267975468162 ], [ 133.032470703125, 48.05707428593162 ], [ 133.0390625, 48.061786199994117 ], [ 133.04375, 48.06647369999412 ], [ 133.047265625000023, 48.07184479374412 ], [ 133.05078125, 48.07880280155662 ], [ 133.060644531250034, 48.09210846561912 ], [ 133.075, 48.10114166874412 ], [ 133.091699218750023, 48.10700104374412 ], [ 133.184814453125, 48.12506744999412 ], [ 133.223388671875, 48.126239324994117 ], [ 133.2625, 48.11969635624412 ], [ 133.2724609375, 48.115350653119116 ], [ 133.29052734375, 48.104608465619116 ], [ 133.301171875000023, 48.10150787968162 ], [ 133.3232421875, 48.10040924686912 ], [ 133.379199218750045, 48.106561590619116 ], [ 133.395898437500023, 48.10614655155662 ], [ 133.412841796875, 48.103290106244117 ], [ 133.450585937500023, 48.09162018436912 ], [ 133.46337890625, 48.089715887494116 ], [ 133.524023437500034, 48.095721746869117 ], [ 133.543554687500034, 48.101825262494117 ], [ 133.559667968750034, 48.113544012494117 ], [ 133.57177734375, 48.13300202030662 ], [ 133.577539062500023, 48.145282293744117 ], [ 133.58447265625, 48.15558502811912 ], [ 133.593359375000034, 48.16437409061912 ], [ 133.605175781250011, 48.171893621869117 ], [ 133.62109375, 48.17755768436912 ], [ 133.654296875, 48.18414948124412 ], [ 133.670019531250034, 48.19025299686912 ], [ 133.685156250000034, 48.202411199994117 ], [ 133.707617187500034, 48.231952215619117 ], [ 133.720898437500011, 48.244989324994116 ], [ 133.737695312500023, 48.251336981244116 ], [ 133.796289062500023, 48.250848699994116 ], [ 133.814697265625, 48.25543854374412 ], [ 133.849218750000034, 48.269549871869117 ], [ 133.867285156250034, 48.27460358280662 ], [ 133.877197265625, 48.275506903119116 ], [ 133.936621093750034, 48.27350494999412 ], [ 133.966210937500023, 48.27887604374412 ], [ 133.982177734375, 48.28534577030662 ], [ 134.024511718750034, 48.31537506718162 ], [ 134.040283203125, 48.32269928593162 ], [ 134.056738281250034, 48.32746002811912 ], [ 134.11572265625, 48.335467840619117 ], [ 134.205761718750011, 48.359881903119117 ], [ 134.366943359375, 48.377313543744116 ], [ 134.447265625, 48.395135809369116 ], [ 134.496191406250034, 48.41168854374412 ], [ 134.505078125000011, 48.413690496869116 ], [ 134.580175781250034, 48.417840887494116 ], [ 134.598046875000023, 48.41644928593162 ], [ 134.734375, 48.37335846561912 ], [ 134.75146484375, 48.371600653119117 ], [ 134.769140625000034, 48.373797918744117 ], [ 134.883886718750034, 48.42438385624412 ], [ 134.924560546875, 48.43341705936912 ], [ 134.965917968750034, 48.43659088749412 ], [ 135.019238281250011, 48.433221746869116 ], [ 135.035546875000023, 48.43744537968162 ], [ 135.04638671875, 48.44708893436912 ], [ 135.049560546875, 48.459247137494117 ], [ 135.047460937500034, 48.47260162968162 ], [ 135.04296875, 48.485858465619117 ], [ 135.03759765625, 48.48822662968162 ], [ 135.0087890625, 48.51996491093162 ], [ 134.997314453125, 48.548602606244117 ], [ 135.00439453125, 48.583124090619116 ], [ 135.023046875000034, 48.614862371869116 ], [ 135.04638671875, 48.63519928593162 ], [ 135.153515625000011, 48.67853424686912 ], [ 135.23876953125, 48.73444244999412 ], [ 135.255468750000034, 48.741229559369117 ], [ 135.27294921875, 48.74555084843162 ], [ 135.290917968750023, 48.747186590619116 ], [ 135.307861328125, 48.74530670780662 ], [ 135.340722656250023, 48.73639557499412 ], [ 135.357324218750023, 48.73419830936912 ], [ 135.373779296875, 48.73566315311912 ], [ 135.423828125, 48.74945709843162 ], [ 135.478759765625, 48.771747137494117 ], [ 135.513574218750023, 48.779071356244117 ], [ 135.547460937500034, 48.77680084843162 ], [ 135.580761718750011, 48.767840887494117 ], [ 135.613671875000023, 48.754999090619116 ], [ 135.647216796875, 48.74591705936912 ], [ 135.68359375, 48.743670965619117 ], [ 135.720312500000034, 48.74652741093162 ], [ 135.75439453125, 48.75311920780662 ], [ 135.768310546875, 48.76019928593162 ], [ 135.77587890625, 48.77118561405662 ], [ 135.781494140625, 48.784295965619116 ], [ 135.78955078125, 48.79804108280662 ], [ 135.802734375, 48.80975983280662 ], [ 135.817578125000011, 48.817157293744117 ], [ 135.912353515625, 48.834979559369117 ], [ 135.940039062500034, 48.847772528119116 ], [ 135.960693359375, 48.87006256718162 ], [ 135.9658203125, 48.884637762494116 ], [ 135.9677734375, 48.899530340619116 ], [ 135.971435546875, 48.91364166874412 ], [ 135.980712890625, 48.92597077030662 ], [ 135.994042968750023, 48.93451569218162 ], [ 136.00830078125, 48.94025299686912 ], [ 136.113867187500034, 48.954461981244116 ], [ 136.149658203125, 48.96478912968162 ], [ 136.276562500000011, 49.04364655155662 ], [ 136.290722656250011, 49.05792877811912 ], [ 136.299072265625, 49.07330963749412 ], [ 136.302734375, 49.09015534061912 ], [ 136.302441406250011, 49.10773346561912 ], [ 136.2998046875, 49.12494537968162 ], [ 136.2724609375, 49.185077215619117 ], [ 136.269433593750023, 49.213495184369116 ], [ 136.29296875, 49.23602936405662 ], [ 136.32763671875, 49.246844793744117 ], [ 136.34326171875, 49.25458405155662 ], [ 136.354589843750034, 49.26874420780662 ], [ 136.368896484375, 49.300067449994117 ], [ 136.37841796875, 49.31293366093162 ], [ 136.4072265625, 49.333612371869116 ], [ 136.416015625, 49.34332916874412 ], [ 136.420117187500011, 49.35565827030662 ], [ 136.42138671875, 49.390985418744116 ], [ 136.425878906250034, 49.406122137494116 ], [ 136.435156250000034, 49.41852448124412 ], [ 136.450439453125, 49.42877838749412 ], [ 136.53125, 49.46588776249412 ], [ 136.644140625000034, 49.49054596561912 ], [ 136.719335937500034, 49.49835846561912 ], [ 136.73779296875, 49.50275299686912 ], [ 136.765625, 49.51508209843162 ], [ 136.7919921875, 49.532586981244116 ], [ 136.81591796875, 49.55341217655662 ], [ 136.836669921875, 49.575702215619117 ], [ 136.846582031250023, 49.589862371869117 ], [ 136.852441406250023, 49.60443756718162 ], [ 136.854101562500034, 49.61994049686912 ], [ 136.847363281250011, 49.65387604374412 ], [ 136.846093750000023, 49.669208074994117 ], [ 136.853271484375, 49.719110418744116 ], [ 136.85009765625, 49.73346588749412 ], [ 136.841210937500023, 49.74469635624412 ], [ 136.825439453125, 49.75311920780662 ], [ 136.810546875, 49.759295965619117 ] ], [ [ 137.06982421875, 50.45404694218162 ], [ 137.06396484375, 50.465448309369116 ], [ 137.049902343750034, 50.48444244999412 ], [ 137.046289062500023, 50.49506256718162 ], [ 137.048730468750023, 50.506366278119117 ], [ 137.056396484375, 50.514764715619116 ], [ 137.112060546875, 50.54559967655662 ], [ 137.153906250000034, 50.577508856244116 ], [ 137.190527343750034, 50.61481354374412 ], [ 137.210693359375, 50.62933991093162 ], [ 137.233154296875, 50.64020416874412 ], [ 137.367773437500034, 50.670672918744117 ], [ 137.408789062500034, 50.67121002811912 ], [ 137.496777343750011, 50.68231842655662 ], [ 137.591015625000011, 50.67645905155662 ], [ 137.6884765625, 50.689081121869116 ], [ 137.865917968750011, 50.73895905155662 ], [ 137.917578125000034, 50.762225653119117 ], [ 138.03857421875, 50.854608465619116 ], [ 138.05078125, 50.86005280155662 ], [ 138.0654296875, 50.86347077030662 ], [ 138.110595703125, 50.86627838749412 ], [ 138.12548828125, 50.869745184369116 ], [ 138.138427734375, 50.87641022343162 ], [ 138.149316406250023, 50.88605377811912 ], [ 138.158935546875, 50.89826080936912 ], [ 138.182714843750034, 50.93744537968162 ], [ 138.1943359375, 50.947040106244117 ], [ 138.207763671875, 50.952752996869116 ], [ 138.251708984375, 50.962176824994117 ], [ 138.2763671875, 50.971307684369116 ], [ 138.361328125, 51.02167389530662 ], [ 138.377636718750011, 51.034295965619116 ], [ 138.432861328125, 51.09271881718162 ], [ 138.44091796875, 51.09784577030662 ], [ 138.44970703125, 51.10126373905662 ], [ 138.554882812500011, 51.11945221561912 ], [ 138.57373046875, 51.12689850468162 ], [ 138.587890625, 51.13617584843162 ], [ 138.599511718750023, 51.148553778119116 ], [ 138.62158203125, 51.181512762494116 ], [ 138.63720703125, 51.193377996869117 ], [ 138.6552734375, 51.201678778119117 ], [ 138.674560546875, 51.20709869999412 ], [ 138.854394531250023, 51.25177643436912 ], [ 138.875244140625, 51.261004949994117 ], [ 138.888427734375, 51.274286199994116 ], [ 138.895263671875, 51.292010809369117 ], [ 138.897558593750034, 51.31439850468162 ], [ 138.932373046875, 51.380243231244116 ], [ 139.01123046875, 51.389032293744116 ], [ 139.178417968750011, 51.35358307499412 ], [ 139.2080078125, 51.35321686405662 ], [ 139.23486328125, 51.35785553593162 ], [ 139.42626953125, 51.42133209843162 ], [ 139.4443359375, 51.433612371869117 ], [ 139.458740234375, 51.450702215619117 ], [ 139.46728515625, 51.469989324994117 ], [ 139.473242187500034, 51.489374090619116 ], [ 139.481347656250023, 51.507440496869116 ], [ 139.496191406250034, 51.52265045780662 ], [ 139.517333984375, 51.532831121869116 ], [ 139.539160156250034, 51.53681061405662 ], [ 139.651953125000034, 51.53705475468162 ], [ 139.781982421875, 51.56244537968162 ], [ 139.823144531250023, 51.576288153119116 ], [ 139.857617187500011, 51.57880280155662 ] ], [ [ 140.706640625000034, 53.11102936405662 ], [ 140.660253906250034, 53.096063543744116 ], [ 140.59423828125, 53.08405182499412 ], [ 140.583740234375, 53.08490631718162 ], [ 140.5771484375, 53.08673737186912 ], [ 140.558398437500045, 53.09467194218162 ], [ 140.501562500000034, 53.110614324994117 ], [ 140.484082031250011, 53.11969635624412 ], [ 140.455761718750011, 53.138934637494117 ], [ 140.441162109375, 53.14667389530662 ], [ 140.4091796875, 53.15717194218162 ], [ 140.338134765625, 53.200702215619117 ], [ 140.30419921875, 53.21356842655662 ], [ 140.26318359375, 53.22174713749412 ], [ 139.990332031250034, 53.21491119999412 ], [ 139.966210937500023, 53.21771881718162 ], [ 139.915722656250011, 53.213006903119116 ], [ 139.890380859375, 53.203973699994116 ], [ 139.869873046875, 53.18842194218162 ], [ 139.859082031250011, 53.165790106244117 ], [ 139.858007812500034, 53.14252350468162 ], [ 139.855859375000023, 53.13544342655662 ], [ 139.8544921875, 53.133417059369116 ], [ 139.850488281250023, 53.12958405155662 ], [ 139.848730468750034, 53.12738678593162 ], [ 139.847363281250011, 53.123895574994116 ], [ 139.844921875000011, 53.11273834843162 ], [ 139.831738281250011, 53.084100653119116 ], [ 139.81982421875, 53.06574127811912 ], [ 139.805078125000023, 53.04962799686912 ], [ 139.798583984375, 53.04535553593162 ], [ 139.792236328125, 53.04303619999412 ], [ 139.777929687500034, 53.04022858280662 ], [ 139.771093750000034, 53.03668854374412 ], [ 139.752832031250023, 53.017596746869117 ], [ 139.725195312500034, 52.997333074994117 ], [ 139.712304687500023, 52.98541901249412 ], [ 139.703515625000023, 52.97162506718162 ], [ 139.702246093750034, 52.96149323124412 ], [ 139.706347656250045, 52.95319244999412 ], [ 139.713623046875, 52.94660065311912 ], [ 139.7529296875, 52.92511627811912 ], [ 139.871679687500034, 52.881610418744117 ], [ 139.935302734375, 52.86591217655662 ], [ 140.000390625000023, 52.837030340619116 ], [ 140.03125, 52.81207916874412 ], [ 140.052734375, 52.79950592655662 ], [ 140.058203125000034, 52.794794012494116 ], [ 140.067480468750034, 52.78424713749412 ], [ 140.073437500000011, 52.780047918744117 ], [ 140.09375, 52.772577215619116 ], [ 140.099707031250034, 52.76788971561912 ], [ 140.106542968750034, 52.75824616093162 ], [ 140.109375, 52.752704168744117 ], [ 140.11083984375, 52.74738190311912 ], [ 140.106640625000011, 52.73212311405662 ], [ 140.087304687500023, 52.70770905155662 ], [ 140.087988281250034, 52.692645574994117 ], [ 140.127832031250023, 52.626971746869117 ], [ 140.13525390625, 52.618915106244117 ], [ 140.149804687500023, 52.60858795780662 ], [ 140.16650390625, 52.601581121869117 ], [ 140.201757812500034, 52.59418366093162 ], [ 140.22119140625, 52.59332916874412 ], [ 140.259960937500011, 52.595819403119116 ], [ 140.279052734375, 52.59479401249412 ], [ 140.30419921875, 52.58295319218162 ], [ 140.322509765625, 52.56110260624412 ], [ 140.353271484375, 52.513446356244117 ], [ 140.373046875, 52.49408600468162 ], [ 140.384765625, 52.48602936405662 ], [ 140.397216796875, 52.48114655155662 ], [ 140.3994140625, 52.475702215619116 ], [ 140.4033203125, 52.470819403119116 ], [ 140.408300781250034, 52.466913153119116 ], [ 140.413818359375, 52.464618231244117 ], [ 140.416894531250023, 52.458514715619117 ], [ 140.427978515625, 52.448504949994117 ], [ 140.432373046875, 52.443133856244117 ], [ 140.43798828125, 52.42963287968162 ], [ 140.441015625000034, 52.415301824994117 ], [ 140.440136718750011, 52.38751862186912 ], [ 140.441015625000034, 52.378436590619117 ], [ 140.444726562500023, 52.369891668744117 ], [ 140.449804687500034, 52.36371491093162 ], [ 140.453857421875, 52.35724518436912 ], [ 140.4541015625, 52.34760162968162 ], [ 140.44921875, 52.333856512494116 ], [ 140.441162109375, 52.31903717655662 ], [ 140.43125, 52.305292059369116 ], [ 140.4111328125, 52.28644440311912 ], [ 140.404882812500034, 52.27899811405662 ], [ 140.401123046875, 52.27008698124412 ], [ 140.39892578125, 52.25726959843162 ], [ 140.398828125000023, 52.23322174686912 ], [ 140.3955078125, 52.22357819218162 ], [ 140.3759765625, 52.197772528119117 ], [ 140.372314453125, 52.188251043744117 ], [ 140.370507812500023, 52.16815827030662 ], [ 140.36767578125, 52.15875885624412 ], [ 140.36083984375, 52.151239324994116 ], [ 140.35107421875, 52.14728424686912 ], [ 140.33056640625, 52.14350006718162 ], [ 140.319726562500023, 52.139911199994117 ], [ 140.310449218750023, 52.134881903119116 ], [ 140.251953125, 52.09296295780662 ], [ 140.225488281250023, 52.06635162968162 ], [ 140.174414062500034, 52.02680084843162 ], [ 140.163818359375, 52.009051824994117 ], [ 140.1650390625, 51.99433014530662 ], [ 140.205078125, 51.94086334843162 ], [ 140.211523437500034, 51.92865631718162 ], [ 140.22119140625, 51.901483465619116 ], [ 140.241796875000034, 51.85980866093162 ], [ 140.242919921875, 51.845086981244116 ], [ 140.236718750000023, 51.83075592655662 ], [ 140.22509765625, 51.819598699994117 ], [ 140.114013671875, 51.763690496869117 ] ], [ [ 121.405371093750034, 53.31708405155662 ], [ 121.45849609375, 53.32074616093162 ], [ 121.511816406250034, 53.330096746869117 ], [ 121.640722656250034, 53.38519928593162 ], [ 121.888671875, 53.430926824994117 ], [ 122.081347656249989, 53.42975494999412 ], [ 122.107812500000023, 53.438348699994116 ], [ 122.147558593750034, 53.46137116093162 ], [ 122.16845703125, 53.469354559369116 ], [ 122.225488281250023, 53.47418854374412 ], [ 122.293359375000023, 53.49298737186912 ], [ 122.316699218749989, 53.49628327030662 ], [ 122.33740234375, 53.491571356244116 ], [ 122.357617187500011, 53.47980377811912 ], [ 122.37939453125, 53.461932684369117 ], [ 122.4013671875, 53.45123932499412 ], [ 122.424902343750034, 53.45270416874412 ], [ 122.470898437500011, 53.46503327030662 ], [ 122.859277343750023, 53.474237371869116 ], [ 123.002197265625, 53.50763580936912 ], [ 123.1533203125, 53.513446356244117 ], [ 123.163964843750023, 53.516620184369117 ], [ 123.1796875, 53.53070709843162 ], [ 123.203027343750023, 53.538592840619117 ], [ 123.234375, 53.56061432499412 ], [ 123.252343750000023, 53.56806061405662 ], [ 123.277148437499989, 53.56976959843162 ], [ 123.309277343750011, 53.567743231244116 ], [ 123.33984375, 53.56171295780662 ], [ 123.367578125000023, 53.54608795780662 ], [ 123.3798828125, 53.543085028119116 ], [ 123.419677734375, 53.53876373905662 ], [ 123.431396484375, 53.53607819218162 ], [ 123.47119140625, 53.51923248905662 ], [ 123.48125, 53.518329168744117 ], [ 123.485058593750011, 53.52631256718162 ], [ 123.485742187500023, 53.544208074994117 ], [ 123.494531250000023, 53.56037018436912 ], [ 123.51416015625, 53.56268952030662 ], [ 123.535058593750023, 53.554950262494117 ], [ 123.547119140625, 53.540790106244117 ], [ 123.539160156250034, 53.537372137494117 ], [ 123.532324218750034, 53.53278229374412 ], [ 123.519140625000034, 53.520282293744117 ], [ 123.541601562500034, 53.51434967655662 ], [ 123.560644531250034, 53.52448151249412 ], [ 123.591552734375, 53.558124090619117 ], [ 123.614013671875, 53.56366608280662 ], [ 123.63916015625, 53.55158112186912 ], [ 123.677441406250011, 53.520282293744117 ], [ 123.701416015625, 53.51032135624412 ], [ 123.73193359375, 53.504022528119116 ], [ 123.849853515625, 53.49530670780662 ], [ 123.876367187500023, 53.48895905155662 ], [ 123.970312500000034, 53.455438543744116 ], [ 123.989355468750034, 53.44171784061912 ], [ 124.009765625, 53.41498444218162 ], [ 124.01708984375, 53.40729401249412 ], [ 124.029687500000023, 53.400262762494116 ], [ 124.055419921875, 53.39520905155662 ], [ 124.068457031250034, 53.389911199994117 ], [ 124.10009765625, 53.36359284061912 ], [ 124.12158203125, 53.35297272343162 ], [ 124.139892578125, 53.35809967655662 ], [ 124.157470703125, 53.37030670780662 ], [ 124.182031250000023, 53.378778387494116 ], [ 124.20849609375, 53.382928778119116 ], [ 124.232324218750023, 53.381952215619116 ], [ 124.252636718750011, 53.37579987186912 ], [ 124.275097656250011, 53.36493561405662 ], [ 124.293212890625, 53.351581121869117 ], [ 124.304443359375, 53.32929108280662 ], [ 124.320996093750011, 53.31000397343162 ], [ 124.325439453125, 53.30621979374412 ], [ 124.342187500000023, 53.272723699994117 ], [ 124.359619140625, 53.25971100468162 ], [ 124.383398437500034, 53.24640534061912 ], [ 124.407958984375, 53.235956121869116 ], [ 124.45361328125, 53.22846100468162 ], [ 124.500244140625, 53.21393463749412 ], [ 124.52783203125, 53.21063873905662 ], [ 124.639892578125, 53.21063873905662 ], [ 124.6513671875, 53.20905182499412 ], [ 124.678417968750011, 53.199579168744116 ], [ 124.68798828125, 53.19391510624412 ], [ 124.695996093750011, 53.18402741093162 ], [ 124.696533203125, 53.17658112186912 ], [ 124.6953125, 53.170038153119116 ], [ 124.697998046875, 53.162860418744117 ], [ 124.7197265625, 53.14911530155662 ], [ 124.746972656250023, 53.147967840619117 ], [ 124.800976562500011, 53.155389715619116 ], [ 124.82177734375, 53.14752838749412 ], [ 124.847753906250034, 53.11395905155662 ], [ 124.869873046875, 53.10822174686912 ], [ 124.895898437500023, 53.11786530155662 ], [ 124.891503906250023, 53.13446686405662 ], [ 124.878808593750023, 53.15412018436912 ], [ 124.879980468750034, 53.17279694218162 ], [ 124.8974609375, 53.185809637494117 ], [ 124.9189453125, 53.19415924686912 ], [ 125.01904296875, 53.21100494999412 ], [ 125.073437500000011, 53.212518621869116 ], [ 125.127050781250034, 53.20685455936912 ], [ 125.427734375, 53.094989324994117 ], [ 125.4560546875, 53.09113190311912 ], [ 125.476171875000034, 53.083758856244117 ], [ 125.499267578125, 53.05084869999412 ], [ 125.52099609375, 53.04266998905662 ], [ 125.583740234375, 53.059198309369116 ], [ 125.620996093750023, 53.062372137494116 ], [ 125.6376953125, 53.04645416874412 ], [ 125.64990234375, 53.02362702030662 ], [ 125.67822265625, 53.00592682499412 ], [ 125.733154296875, 52.98187897343162 ], [ 125.724023437500023, 52.95307037968162 ], [ 125.719628906250023, 52.946551824994117 ], [ 125.710693359375, 52.94147369999412 ], [ 125.688232421875, 52.93671295780662 ], [ 125.678613281250023, 52.933465887494116 ], [ 125.66064453125, 52.91962311405662 ], [ 125.646875, 52.90119049686912 ], [ 125.646240234375, 52.885126043744116 ], [ 125.668359375000023, 52.87824127811912 ], [ 125.691308593750023, 52.88153717655662 ], [ 125.736230468750023, 52.89606354374412 ], [ 125.837011718750034, 52.90692780155662 ], [ 125.856640625000011, 52.89935944218162 ], [ 125.863476562500011, 52.88886139530662 ], [ 125.861425781250034, 52.88165924686912 ], [ 125.857177734375, 52.87470123905662 ], [ 125.856640625000011, 52.86456940311912 ], [ 125.860742187500023, 52.856317449994116 ], [ 125.8671875, 52.849627996869117 ], [ 125.9765625, 52.765252996869116 ], [ 125.984960937500034, 52.76483795780662 ], [ 126.007080078125, 52.77887604374412 ], [ 126.017480468750023, 52.78266022343162 ], [ 126.06640625, 52.783465887494117 ], [ 126.087792968750023, 52.775653387494117 ], [ 126.103759765625, 52.75470612186912 ], [ 126.065673828125, 52.74445221561912 ], [ 126.048583984375, 52.73737213749412 ], [ 126.034912109375, 52.727411199994116 ], [ 126.0615234375, 52.69696686405662 ], [ 126.068457031250034, 52.680194403119117 ], [ 126.05224609375, 52.67279694218162 ], [ 126.027246093750023, 52.67145416874412 ], [ 126.002343750000023, 52.66571686405662 ], [ 125.982519531250034, 52.65338776249412 ], [ 125.972753906250034, 52.631854559369117 ], [ 125.97705078125, 52.61102936405662 ], [ 125.990625, 52.58673737186912 ], [ 126.008886718750034, 52.56867096561912 ], [ 126.027734375000023, 52.566669012494117 ], [ 126.039257812500011, 52.56989166874412 ], [ 126.050390625000034, 52.57147858280662 ], [ 126.058837890625, 52.57575104374412 ], [ 126.062255859375, 52.58746979374412 ], [ 126.068457031250034, 52.59564850468162 ], [ 126.082275390625, 52.593622137494116 ], [ 126.170117187500011, 52.547870184369117 ], [ 126.2119140625, 52.53327057499412 ], [ 126.210058593750034, 52.511737371869117 ], [ 126.200439453125, 52.48676178593162 ], [ 126.2, 52.46735260624412 ], [ 126.216406250000034, 52.46503327030662 ], [ 126.24658203125, 52.46613190311912 ], [ 126.275781250000023, 52.46356842655662 ], [ 126.288818359375, 52.45026276249412 ], [ 126.2958984375, 52.43549225468162 ], [ 126.312402343750023, 52.41766998905662 ], [ 126.34326171875, 52.39166901249412 ], [ 126.350488281250023, 52.377215887494117 ], [ 126.343994140625, 52.35785553593162 ], [ 126.3154296875, 52.31647369999412 ], [ 126.34423828125, 52.30292389530662 ], [ 126.420654296875, 52.28754303593162 ], [ 126.43896484375, 52.27558014530662 ], [ 126.391796875000011, 52.26459381718162 ], [ 126.311718750000011, 52.22821686405662 ], [ 126.30908203125, 52.214129949994117 ], [ 126.31640625, 52.20001862186912 ], [ 126.33251953125, 52.193622137494117 ], [ 126.350341796875, 52.192010809369116 ], [ 126.453027343750023, 52.165887762494116 ], [ 126.49365234375, 52.161493231244116 ], [ 126.530859375000034, 52.152948309369116 ], [ 126.5556640625, 52.13092682499412 ], [ 126.550976562500011, 52.11322662968162 ], [ 126.519433593750023, 52.06159088749412 ], [ 126.514062500000023, 52.04901764530662 ], [ 126.514062500000023, 52.04279205936912 ], [ 126.491308593750034, 52.039081121869117 ], [ 126.466699218750023, 52.03192780155662 ], [ 126.447021484375, 52.019061590619117 ], [ 126.43896484375, 51.99811432499412 ], [ 126.44580078125, 51.98285553593162 ], [ 126.647656250000011, 51.74152252811912 ], [ 126.662109375, 51.73371002811912 ], [ 126.71337890625, 51.72345612186912 ], [ 126.715429687500034, 51.717792059369117 ], [ 126.725341796875, 51.70905182499412 ], [ 126.7275390625, 51.70331452030662 ], [ 126.724511718750023, 51.69782135624412 ], [ 126.717480468750011, 51.69122955936912 ], [ 126.710546875000034, 51.686297918744117 ], [ 126.707128906250034, 51.68585846561912 ], [ 126.715429687500034, 51.663446356244116 ], [ 126.72412109375, 51.64984772343162 ], [ 126.723388671875, 51.63617584843162 ], [ 126.70361328125, 51.613885809369116 ], [ 126.6748046875, 51.588641668744117 ], [ 126.676513671875, 51.576922918744117 ], [ 126.7001953125, 51.563006903119117 ], [ 126.775292968750023, 51.54596588749412 ], [ 126.80712890625, 51.534442449994117 ], [ 126.830078125, 51.50836823124412 ], [ 126.80126953125, 51.47748444218162 ], [ 126.792382812500023, 51.459344793744116 ], [ 126.788964843750023, 51.43610260624412 ], [ 126.800097656249989, 51.41925690311912 ], [ 126.82568359375, 51.41229889530662 ], [ 126.876562500000034, 51.410174871869117 ], [ 126.889746093750034, 51.40729401249412 ], [ 126.901757812500023, 51.401239324994116 ], [ 126.909082031250023, 51.391376043744117 ], [ 126.90869140625, 51.37726471561912 ], [ 126.897216796875, 51.36225006718162 ], [ 126.8798828125, 51.356463934369117 ], [ 126.860449218750034, 51.35419342655662 ], [ 126.843017578125, 51.349627996869117 ], [ 126.826757812500034, 51.339227606244116 ], [ 126.813720703125, 51.325213934369117 ], [ 126.806835937500011, 51.30841705936912 ], [ 126.808691406250034, 51.28937409061912 ], [ 126.823437500000011, 51.265887762494117 ], [ 126.845458984375, 51.251727606244117 ], [ 126.86962890625, 51.25202057499412 ], [ 126.890380859375, 51.271747137494117 ], [ 126.892578125, 51.282245184369117 ], [ 126.888769531250034, 51.28961823124412 ], [ 126.884521484375, 51.295917059369117 ], [ 126.884960937500011, 51.30316803593162 ], [ 126.891015625000023, 51.31073639530662 ], [ 126.899023437500034, 51.316766668744116 ], [ 126.908105468750023, 51.32147858280662 ], [ 126.9169921875, 51.32501862186912 ], [ 126.934179687500034, 51.32904694218162 ], [ 126.954296875000011, 51.329852606244117 ], [ 126.971777343750034, 51.32428619999412 ], [ 126.980859375000023, 51.30914948124412 ], [ 126.9775390625, 51.29682037968162 ], [ 126.967675781250023, 51.28180573124412 ], [ 126.946679687500023, 51.25836823124412 ], [ 126.915917968750023, 51.233026434369116 ], [ 126.90869140625, 51.221942449994117 ], [ 126.90478515625, 51.208368231244116 ], [ 126.903564453125, 51.193622137494117 ], [ 126.905029296875, 51.16449616093162 ], [ 126.909277343750034, 51.14630768436912 ], [ 126.922753906250023, 51.10822174686912 ], [ 126.925537109375, 51.086297918744116 ], [ 126.931542968750023, 51.06403229374412 ], [ 126.945996093750011, 51.04865143436912 ], [ 126.980859375000023, 51.027948309369116 ], [ 127.031982421875, 50.97272369999412 ], [ 127.046777343750023, 50.96747467655662 ], [ 127.110449218750034, 50.931756903119116 ], [ 127.143945312500023, 50.90375397343162 ], [ 127.220312500000034, 50.78839752811912 ], [ 127.240820312500034, 50.77496979374412 ], [ 127.265869140625, 50.76434967655662 ], [ 127.287109375, 50.75128815311912 ], [ 127.296142578125, 50.730340887494116 ], [ 127.295312500000023, 50.72308991093162 ], [ 127.29296875, 50.71564362186912 ], [ 127.28955078125, 50.708612371869116 ], [ 127.28564453125, 50.702752996869116 ], [ 127.282128906250023, 50.695086981244117 ], [ 127.283398437500011, 50.68854401249412 ], [ 127.286816406250011, 50.68219635624412 ], [ 127.288671875000034, 50.675409246869116 ], [ 127.294531250000034, 50.66669342655662 ], [ 127.326757812500034, 50.63751862186912 ], [ 127.343457031250011, 50.62799713749412 ], [ 127.3583984375, 50.60529205936912 ], [ 127.36669921875, 50.57807037968162 ], [ 127.364355468750034, 50.55499909061912 ], [ 127.3564453125, 50.54486725468162 ], [ 127.333398437500023, 50.525262762494116 ], [ 127.323437500000011, 50.514032293744116 ], [ 127.309960937500023, 50.488641668744116 ], [ 127.302441406250011, 50.477899481244116 ], [ 127.288671875000034, 50.46625397343162 ], [ 127.304296875000034, 50.45172760624412 ], [ 127.348876953125, 50.42645905155662 ], [ 127.358154296875, 50.41535065311912 ], [ 127.359277343750023, 50.39313385624412 ], [ 127.3583984375, 50.381610418744117 ], [ 127.3544921875, 50.373797918744117 ], [ 127.345458984375, 50.36469147343162 ], [ 127.337304687500023, 50.35297272343162 ], [ 127.33154296875, 50.34039948124412 ], [ 127.330175781250034, 50.32843659061912 ], [ 127.354296875000045, 50.29889557499412 ], [ 127.404394531250034, 50.276239324994116 ], [ 127.578125, 50.220819403119116 ], [ 127.59033203125, 50.209002996869117 
          ] ] ] 
        } ,
      "properties": {
        "name": "Река Амур",
        "description": "По реке проходит часть границы России и Китая, китайцы именуют её 'Хэйлунцзян' ('Черная река дракона').",
        "name_en": "Amur"
      }
    },
    {
      "type": "Feature",
      "geometry": null,
      "properties": {
        "name": "Остров Шпицберген",
        "description": "Под юрисдикцией Норвегии, но Россия активно ведет хозяйственную деятельность на архипелаге благодаря международному соглашению.",
        "name_en": "Spitsbergen"
      }
    },
    {
      "type": "Feature",
      "geometry": null,
      "properties": {
        "name": "Архипелаг Новая Земля",
        "description": "Раньше служил местом советских атомных испытаний (именно здесь испытывали 'Царь-бомбу'!), теперь это охраняемый природный объект.",
        "name_en": "Novaya Zemlya"
      }
    },
    {
      "type": "Feature",
      "geometry": null,
      "properties": {
        "name": "Остров Сахалин",
        "description": "Представляет собой самый большой российский остров, ранее известный под названием 'остров Карафуто'.",
        "name_en": "Sakhalin"
      }
    },
    {
      "type": "Feature",
      "geometry": null,
      "properties": {
        "name": "Алеутские острова",
        "description": "Алеуты сохранили уникальный уклад жизни, основанный на традициях охоты и сбора пищи.",
        "name_en": "Aleutian Islands"
      }
    },
    {
      "type": "Feature",
      "geometry": null,
      "properties": {
        "name": "Командорские острова",
        "description": "Открытые Берингом, стали прибежищем редких видов морских млекопитающих, таких как каланы и северные морские котики.",
        "name_en": "Commander Islands"
      }
    },
    {
      "type": "Feature",
      "geometry": null,
      "properties": {
        "name": "Кольский полуостров",
        "description": "Богат месторождениями ценных металлов, такими как никель и палладий.",
        "name_en": "Kola"
      }
    },
    {
      "type": "Feature",
      "geometry": null,
      "properties": {
        "name": "Чукотский полуостров",
        "description": "Крайняя восточная точка России, откуда начинается путешествие в сторону североамериканских земель.",
        "name_en": "Chukchi Peninsula"
      }
    },
    {
      "type": "Feature",
      "geometry": {
                "coordinates": [
                    [
                    [
                        80.54197402940787,
                        73.35860792957098
                    ],
                    [
                        80.98013815696294,
                        72.47201957052883
                    ],
                    [
                        83.66808745094266,
                        71.73742340703586
                    ],
                    [
                        83.34706561813374,
                        70.42709214942815
                    ],
                    [
                        88.0589868602334,
                        69.6763238822113
                    ],
                    [
                        103.2390635559799,
                        72.2853235733404
                    ],
                    [
                        108.1413807508585,
                        73.7484033244001
                    ],
                    [
                        113.15321962124057,
                        74.95914355186454
                    ],
                    [
                        113.73403864205619,
                        75.96875852095397
                    ],
                    [
                        112.80779061464972,
                        76.5943102573772
                    ],
                    [
                        108.29264653472626,
                        76.7354944921276
                    ],
                    [
                        107.72149879091285,
                        76.3317585726289
                    ],
                    [
                        106.97753350992332,
                        76.38504545711183
                    ],
                    [
                        107.33433245470593,
                        76.76148994688273
                    ],
                    [
                        107.51162123212453,
                        76.95530071913842
                    ],
                    [
                        105.55919437568281,
                        77.08924756415374
                    ],
                    [
                        107.0576521762801,
                        77.39284048262115
                    ],
                    [
                        103.48526325423086,
                        77.78519985520907
                    ],
                    [
                        100.7632649197813,
                        76.7298004164058
                    ],
                    [
                        97.11786243565427,
                        76.09174514356286
                    ],
                    [
                        95.71570993726482,
                        76.44631689073131
                    ],
                    [
                        88.07202431396138,
                        75.1527346643696
                    ],
                    [
                        84.77506770890284,
                        74.67349212916832
                    ],
                    [
                        86.14549271459794,
                        73.92623923330666
                    ],
                    [
                        80.89756423393317,
                        73.5312514555379
                    ],
                    [
                        80.54198983994638,
                        73.35850280077776
                    ]
                ]],
          "type": "Polygon"
        },
        "properties": {
        "name": "Полуостров Таймыр",
        "description": "Запасы нефти и угля делают этот район важным объектом экономического развития.",
        "name_en": "Taymyr Peninsula"
      }
    },
    {
      "type": "Feature",
      "geometry": null,
      "properties": {
        "name": "Полуостров Камчатка",
        "description": "Привлекателен вулканическим ландшафтом и геотермальными источниками, представляющими интерес для науки и туризма.",
        "name_en": "Kamchatka Peninsula"
      }
    },
    {
      "type": "Feature",
      "geometry": null,
      "properties": {
        "name": "Полуостров Аляска",
        "description": "Проданный Россией Америке в 1867 году, изначально считался бесполезной землей, пока после продажи не были обнаружены залежи золота.",
        "name_en": "Alaska Peninsula"
      }
    }
  ]
}