{
  "type": "FeatureCollection",
  "name": "world_ocean_with_name_en",
  "features": [
    {
      "type": "Feature",
      "properties": {
        "name": "Баренцево море",
        "name_en": "Barents Sea",
        "type": "sea",
        "description": "Названо в честь нидерландского морехода Виллема Баренца; тёплое течение делает порты Мурманска незамерзающими."
      },
      "geometry": null
    },
    {
      "type": "Feature",
      "properties": {
        "name": "Аравийское море",
        "name_en": "Arabian Sea",
        "type": "sea",
        "description": "Монсунные ветры здесь меняют направление дважды в год, что с древности задавало ритм океанской торговле Индии и Аравии."
      },
      "geometry": null
    },
    {
      "type": "Feature",
      "properties": {
        "name": "Берингово море",
        "name_en": "Bering Sea",
        "type": "sea",
        "description": "Крупнейшая в мире промысловая зона минтая; миллионы морских птиц гнездятся на островах Прибылова."
      },
      "geometry": null
    },
    {
      "type": "Feature",
      "properties": {
        "name": "Охотское море",
        "name_en": "Sea of Okhotsk",
        "type": "sea",
        "description": "Зимой почти полностью сковано льдом; в припае часто образуются «ледяные блинчики»."
      },
      "geometry": null
    },
    {
      "type": "Feature",
      "properties": {
        "name": "Карское море",
        "name_en": "Kara Sea",
        "type": "sea",
        "description": "Часть Северного морского пути; в XIX веке попытки пройти «Карским путём» стали символом русских арктических экспедиций."
      },
      "geometry": null
    },
    {
      "type": "Feature",
      "properties": {
        "name": "Норвежское море",
        "name_en": "Norwegian Sea",
        "type": "sea",
        "description": "У берегов Норвегии находится крупнейший в мире глубоководный коралловый риф Røst."
      },
      "geometry": null
    },
    {
      "type": "Feature",
      "properties": {
        "name": "Средиземное море",
        "name_en": "Mediterranean Sea, Aegean Sea, Ionian Sea, Adriatic Sea, Tyrrhenian Sea, Ligurian Sea, Alboran Sea, Balearic Sea, Sea of Marmara, Sea of Crete",
        "type": "sea",
        "description": "Около 5,9 млн лет назад почти высохло (Мессинский соленосный кризис), а затем вновь наполнилось через Гибралтар."
      },
      "geometry": null
    },
    {
      "type": "Feature",
      "properties": {
        "name": "Красное море",
        "name_en": "Red Sea",
        "type": "sea",
        "description": "Одно из самых тёплых и солёных морей; кораллы здесь живут при температурах, губительных для многих других рифов."
      },
      "geometry": null
    },
    {
      "type": "Feature",
      "properties": {
        "name": "Балтийское море",
        "name_en": "Baltic Sea",
        "type": "sea",
        "description": "Малосолёное постледниковое море: вода обновляется медленно, поэтому экосистема особенно чувствительна к загрязнениям."
      },
      "geometry": null
    },
    {
      "type": "Feature",
      "properties": {
        "name": "Чёрное море",
        "name_en": "Black Sea",
        "type": "sea",
        "description": "На глубинах почти нет кислорода — воды ниже ~150–200 м насыщены сероводородом."
      },
      "geometry": null
    },
    {
      "type": "Feature",
      "properties": {
        "name": "Азовское море",
        "name_en": "Sea of Azov",
        "type": "sea",
        "description": "Самое мелководное море планеты: средняя глубина около 7–8 м."
      },
      "geometry": null
    },
    {
      "type": "Feature",
      "properties": {
        "name": "Белое море",
        "name_en": "White Sea",
        "type": "sea",
        "description": "Единственное полностью внутреннее море России; связано с Балтикой Беломорско‑Балтийским каналом."
      },
      "geometry": null
    },
    {
      "type": "Feature",
      "properties": {
        "name": "Филиппинское море",
        "name_en": "Philippine Sea",
        "type": "sea",
        "description": "Здесь находится Марианский жёлоб с точкой Челленджер‑Дип — самой глубокой впадиной мирового океана."
      },
      "geometry": null
    },
    {
      "type": "Feature",
      "properties": {
        "name": "Яванское море",
        "name_en": "Java Sea",
        "type": "sea",
        "description": "Известно морским сражением 1942 года, одним из крупнейших в начале Тихоокеанской войны."
      },
      "geometry": null
    },
    {
      "type": "Feature",
      "properties": {
        "name": "Море Банда",
        "name_en": "Banda Sea",
        "type": "sea",
        "description": "Окружено дугой вулканических островов; в его котловинах находятся одни из самых глубоких точек Индонезии."
      },
      "geometry": null
    },
    {
      "type": "Feature",
      "properties": {
        "name": "Море Сулавеси",
        "name_en": "Celebes Sea",
        "type": "sea",
        "description": "Часть Кораллового треугольника: невероятное разнообразие кораллов и пелагических видов; глубины свыше 6 км."
      },
      "geometry": null
    },
    {
      "type": "Feature",
      "properties": {
        "name": "Бенгальский залив",
        "name_en": "Bay of Bengal",
        "type": "gulf",
        "description": "Впадины Ганга и Брахмапутры формируют крупнейший в мире подводный веер — Бенгальский фан."
      },
      "geometry": null
    },
    {
      "type": "Feature",
      "properties": {
        "name": "Мексиканский залив",
        "name_en": "Gulf of Mexico",
        "type": "gulf",
        "description": "У побережья Юкатана лежит кратер Чиксулуб — след предполагаемого удара, связанного с вымиранием динозавров."
      },
      "geometry": null
    },
    {
      "type": "Feature",
      "properties": {
        "name": "Большой Австралийский залив",
        "name_en": "Great Australian Bight",
        "type": "gulf",
        "description": "У обрывов Налларбор часто можно наблюдать китов‑южных правых во время сезона размножения."
      },
      "geometry": null
    },
    {
      "type": "Feature",
      "properties": {
        "name": "Гудзонов залив",
        "name_en": "Hudson Bay",
        "type": "gulf",
        "description": "Побережья поднимаются на миллиметры–сантиметры в год из‑за послеледникового «выпружинивания» суши."
      },
      "geometry": null
    },
    {
      "type": "Feature",
      "properties": {
        "name": "Гвинейский залив",
        "name_en": "Gulf of Guinea",
        "type": "gulf",
        "description": "Недалеко, в точке (0°, 0°), картографы шутливо помещают «остров Нулл» — пересечение экватора и нулевого меридиана."
      },
      "geometry": null
    },
    {
      "type": "Feature",
      "properties": {
        "name": "Аденский залив",
        "name_en": "Gulf of Aden",
        "type": "gulf",
        "description": "Ключевое звено пути Европа–Азия; летнее апвеллингование приносит питательные воды и рыбные изобилия."
      },
      "geometry": null
    },
    {
      "type": "Feature",
      "properties": {
        "name": "Персидский залив",
        "name_en": "Persian Gulf",
        "type": "gulf",
        "description": "Очень мелководен и солоноват; здесь множество искусственных островов, включая Пальму Джумейра у Дубая."
      },
      "geometry": null
    },
    {
      "type": "Feature",
      "properties": {
        "name": "Бискайский залив",
        "name_en": "Bay of Biscay",
        "type": "gulf",
        "description": "Известен сильными зимними штормами; каньон Капбретон подводит глубокие воды почти вплотную к пляжу."
      },
      "geometry": null
    },
    {
      "type": "Feature",
      "properties": {
        "name": "Финский залив",
        "name_en": "Gulf of Finland",
        "type": "gulf",
        "description": "Нева‑Барьер (дамба) защищает Санкт‑Петербург от штормовых наводнений и служит автомобильной магистралью."
      },
      "geometry": null
    },
    {
      "type": "Feature",
      "properties": {
        "name": "Залив Петра Великого",
        "name_en": "Peter the Great Gulf",
        "type": "gulf",
        "description": "У Владивостока расположен Русский мост — один из мостов с самыми длинными в мире вантовыми пролётами."
      },
      "geometry": {
        "coordinates": [
          [
            [
              131.23408358209264,
              42.58425411753345
            ],
            [
              132.29247162030663,
              42.741601034178245
            ],
            [
              132.31208467785416,
              42.85544785117651
            ],
            [
              132.27941041137132,
              42.957139415368516
            ],
            [
              131.93150934670876,
              42.98940523160957
            ],
            [
              131.84821176506472,
              42.92964723033842
            ],
            [
              131.75511712285032,
              42.94757545971626
            ],
            [
              131.7093822418292,
              42.96431073770435
            ],
            [
              131.56893660260016,
              43.00135048441513
            ],
            [
              131.45134041129182,
              42.93681713959015
            ],
            [
              131.4921518063744,
              42.884178345693414
            ],
            [
              131.3680484830553,
              42.82911149750893
            ],
            [
              131.38271155541918,
              42.773972058038765
            ],
            [
              131.29944319079686,
              42.79196555544263
            ],
            [
              131.24897971794826,
              42.723688181575596
            ],
            [
              131.23408358209264,
              42.58425411753345
            ]
          ]
        ],
        "type": "Polygon"
      }
    },
    {
      "type": "Feature",
      "geometry": {
        "type": "Polygon",
        "coordinates": [
          [
            [
              -5.927919379104793,
              35.79111929047231
            ],
            [
              -5.908099929256053,
              35.79921800088532
            ],
            [
              -5.892948561238853,
              35.802272119261175
            ],
            [
              -5.86567924331851,
              35.79790505230572
            ],
            [
              -5.842165085895516,
              35.80157879713475
            ],
            [
              -5.80726366302946,
              35.793545004707084
            ],
            [
              -5.7996724996718,
              35.78677383161309
            ],
            [
              -5.780692653000131,
              35.77879272215776
            ],
            [
              -5.754887822218933,
              35.79727285338265
            ],
            [
              -5.751851643740707,
              35.82002084054854
            ],
            [
              -5.686609894295458,
              35.83855114614222
            ],
            [
              -5.634997519997398,
              35.8342186265712
            ],
            [
              -5.5879513359565465,
              35.83729392949611
            ],
            [
              -5.556826523650358,
              35.84835745419535
            ],
            [
              -5.545413275614379,
              35.86125820997144
            ],
            [
              -5.523476250955099,
              35.8791217693923
            ],
            [
              -5.506671952754715,
              35.893226506408496
            ],
            [
              -5.487708007142118,
              35.906141932802655
            ],
            [
              -5.454316621733852,
              35.91782329397115
            ],
            [
              -5.402749682210015,
              35.92151741488142
            ],
            [
              -5.369356262868735,
              35.919673503635366
            ],
            [
              -5.352657456255287,
              35.91291222166848
            ],
            [
              -5.334515172198536,
              35.89448271352313
            ],
            [
              -5.324494249483706,
              35.903064651881635
            ],
            [
              -5.31387014301302,
              35.89076708397917
            ],
            [
              -5.287292733198427,
              35.901219072166185
            ],
            [
              -5.345742119326161,
              36.11000171778949
            ],
            [
              -5.373069105047705,
              36.13636718049618
            ],
            [
              -5.351067266582788,
              36.15842831232
            ],
            [
              -5.404196509694799,
              36.17804032035956
            ],
            [
              -5.441398920735509,
              36.152910407748834
            ],
            [
              -5.417864548825435,
              36.129005689765904
            ],
            [
              -5.433075121036779,
              36.11121102870068
            ],
            [
              -5.421687331959703,
              36.0774803707192
            ],
            [
              -5.458955824469967,
              36.04984914318655
            ],
            [
              -5.487101070734923,
              36.053507608894265
            ],
            [
              -5.52948022178353,
              36.03268220203023
            ],
            [
              -5.592462237033146,
              36.009359114317434
            ],
            [
              -5.60990298130497,
              36.00322319751534
            ],
            [
              -5.615975644799107,
              36.015503958887706
            ],
            [
              -5.655503030450575,
              36.05474110444716
            ],
            [
              -5.690414496491968,
              36.066986966306516
            ],
            [
              -5.7048126978524465,
              36.05720054062333
            ],
            [
              -5.726811736887413,
              36.061506290958334
            ],
            [
              -5.777642693907893,
              36.08844120133851
            ],
            [
              -5.7996553734353995,
              36.07683421134767
            ],
            [
              -5.927919379104793,
              35.79111929047231
            ]
          ]
        ]
      },
      "properties": {
        "name": "Гибралтарский пролив",
        "name_en": "Strait of Gibraltar",
        "type": "strait",
        "description": "Через пролив идёт двухслойный обмен: тёплая вода втекает в Средиземное море у поверхности, более солёная вытекает в глубине."
      }
    },
    {
      "type": "Feature",
      "properties": {
        "name": "Татарский пролив",
        "name_en": "Strait of Tartary",
        "type": "strait",
        "description": "В сталинскую эпоху начинали проект тоннеля на Сахалин; следы работ сохранились у мыса Лазарева."
      },
      "geometry": null
    },
    {
      "type": "Feature",
      "properties": {
        "name": "Берингов пролив",
        "name_en": "Bering Strait",
        "type": "strait",
        "description": "Во времена ледников суша «Берингия» соединяла Азию и Америку — путь миграций людей и животных."
      },
      "geometry": {
        "type": "Polygon",
        "coordinates": [
          [
            [
              -172.35531992880584,
              64.49567117467996
            ],
            [
              -171.67089258934567,
              63.74483152999173
            ],
            [
              -171.48591222732938,
              63.588926866915244
            ],
            [
              -170.93097114128057,
              63.597153757047835
            ],
            [
              -170.48701827244156,
              63.67108879048121
            ],
            [
              -170.30203791042527,
              63.67108879048121
            ],
            [
              -170.117057548409,
              63.62182015752299
            ],
            [
              -169.98757129499762,
              63.48176060083074
            ],
            [
              -169.821088969183,
              63.43216331881953
            ],
            [
              -168.78519894189185,
              63.32440734780815
            ],
            [
              -166.28796405467227,
              64.57520392986618
            ],
            [
              -166.4544463804869,
              64.76513874690352
            ],
            [
              -166.4544463804869,
              64.922404084502
            ],
            [
              -166.67642281490643,
              64.96157696495445
            ],
            [
              -166.80590906831782,
              65.07875236408125
            ],
            [
              -167.47183837157638,
              65.43489596873962
            ],
            [
              -168.0082814214236,
              65.5576494091404
            ],
            [
              -169.08116752111792,
              65.7558963894169
            ],
            [
              -169.67310467956995,
              66.0354132536178
            ],
            [
              -170.3205359466269,
              65.94509291173907
            ],
            [
              -170.54251238104644,
              65.62644499471739
            ],
            [
              -171.0234613222887,
              65.46563843822861
            ],
            [
              -172.09634742198307,
              65.03194392203645
            ],
            [
              -172.05935134957983,
              64.76513874690352
            ],
            [
              -172.35531992880584,
              64.49567117467996
            ]
          ]
        ]
      }
    },
    {
      "type": "Feature",
      "properties": {
        "name": "Магелланов пролив",
        "name_en": "Strait of Magellan",
        "type": "strait",
        "description": "Фернан Магеллан прошёл его в 1520 году; до Панамского канала был безопаснее похода вокруг мыса Горн."
      },
      "geometry": null
    },
    {
      "type": "Feature",
      "properties": {
        "name": "Пролив Дрейка",
        "name_en": "Drake Passage",
        "type": "strait",
        "description": "Здесь несётся мощнейшее в мире течение — Антарктическое циркумполярное, из‑за чего штормы особенно свирепы."
      },
      "geometry": null
    },
    {
      "type": "Feature",
      "properties": {
        "name": "Мозамбикский пролив",
        "name_en": "Mozambique Channel",
        "type": "strait",
        "description": "В акватории Комор в XX веке нашли «живую ископаемую» — целаканта; канал богат крупными пелагическими видами."
      },
      "geometry": null
    }
  ]
}